Name,Address,City,State,ZipCode
Park Point Club,1200 N Dutton Ave,Santa Rosa,CA,95401
La Guadalupana,1031 Sebastopol Rd,Santa Rosa,CA,95407
Freestone Vineyards Guest Center,12747 El Camino Bodega,Freestone,CA,95472
"Girl & The Fig, The",21800 Schellville Rd #C,Sonoma,CA,95476
Capt Daveys,537 Highway 1,Bodega Bay,CA,94923
Cattlemens,2400 Midway Dr,Santa Rosa,CA,95405
Happy Garden Restaurant,201 W Napa St #26,Sonoma,CA,95476
Risibisi,154 N Petaluma Blvd,Petaluma,CA,94952
Hillcrest School,725 Bloomfield Rd,Sebastopol,CA,95472
Lamberts Guerneville 76,16383 Main St,Guerneville,CA,95446
Mombos Pizza,1880 Mendocino Ave #B,Santa Rosa,CA,95401
Sebastopol Area Senior Center,167 N High St,Sebastopol,CA,95472
Costeaux Bakery,417 Healdsburg Ave,Healdsburg,CA,95448
Alexander Valley Elementary School,8511 Highway 128,Healdsburg,CA,95448
Tacos Santa Clara L#5P36397,897 W Napa St,Sonoma,CA,95476
City Limits in 101 Casino,5151 Montero WY,Petaluma,CA,94954
Vintners Inn LLC,4350 Barnes Rd,Santa Rosa,CA,95403
Pupusas Salvadorenas,1403 Maple Ave,Santa Rosa,CA,95404
Chinois Asian Bistro,186 Windsor River Rd,Windsor,CA,95492
Circle K #1138,1396 Healdsburg Ave,Healdsburg,CA,95448
Dunham School,4111 Roblar Rd,Petaluma,CA,94952
Lake Sonoma Marina,100 Marina Dr,Healdsburg,CA,95448
Barking Dog Roasters,18133 Highway 12,Sonoma,CA,95476
Marys Pizza Shack,8 W Spain St,Sonoma,CA,95476
La Tercera School,1600 Albin WY,Petaluma,CA,94954
Rincon Valley Middle School,4650 Badger Rd,Santa Rosa,CA,95409
Caffe Andiamo Tr #2 L#S564646,19080 Arnold Dr,Sonoma,CA,95476
Parkpoint Club,19111 Highway 12,Sonoma,CA,95476
Windsor Bowling Center,8801 Conde Ln,Windsor,CA,95492
Hanna Winery,9280 Highway 128,Healdsburg,CA,95448
Lily Kai,3100 Lakeville Hwy #H,Petaluma,CA,94954
Monte Rio School,20700 Foothill St,Monte Rio,CA,95462
Park Side School,7450 Bodega Ave,Sebastopol,CA,95472
Starbucks Coffee,2688 Santa Rosa Ave,Santa Rosa,CA,95407
Cali Calmecac Immersion School,9491 Starr Rd,Windsor,CA,95492
Shelton's Natural Food Market,428 Center St,Healdsburg,CA,95448
Old Chicago Pizza,41 N Petaluma Blvd,Petaluma,CA,94952
Dennys/Nor Cal Foods LLC,1000 W. Steele Ln,Santa Rosa,CA,95403
KFC,3205 Cleveland Ave,Santa Rosa,CA,95401
Pinkys Pizza Parlor,321 S Petaluma Blvd,Petaluma,CA,94952
Boulevard Kitchens,3695 N Petaluma Blvd,Petaluma,CA,94952
Michael's Sourdough Sandwiches,1320 Industrial Ave #B,Petaluma,CA,94952
Brook Haven School,7905 Valentine Ave,Sebastopol,CA,95472
Valley Orchards Retrmt Ctr,2100 E Washington St,Petaluma,CA,94954
Starbucks Coffee #5242,125 N Petaluma Blvd,Petaluma,CA,94952
Petaluma Golf & Country Club,1500 Country Club Dr,Petaluma,CA,94952
Rays Food Place #42,1139 S Cloverdale Blvd,Cloverdale,CA,95425
Family Support Center,465 A St,Santa Rosa,CA,95404
MD Market #8,16316 Main,Guerneville,CA,95446
Jack In The Box #581,3086 Marlow Rd,Santa Rosa,CA,95403
Burger King #13778,6351 Hembree Ln,Windsor,CA,95492
Pearls Diner,561 W 5th St,Sonoma,CA,95476
Taqueria El Gallo,1367 N McDowell Blvd #140,Petaluma,CA,94954
Boulevard Cafe & Grill,1096 N Petaluma Blvd,Petaluma,CA,94952
Lolas,440 Dutton Ave #17,Santa Rosa,CA,95407
Panda Express #183,2107 Santa Rosa Plaza #2107,Santa Rosa,CA,95401
Seghesio Family Vineyards,700 Grove St,Healdsburg,CA,95448
St Vincent De Paul Kitchen,610 Wilson St,Santa Rosa,CA,95401
La Hacienda,134 N Cloverdale Blvd,Cloverdale,CA,95425
Westside Cafe,171 N Pleasant Hill Ave,Sebastopol,CA,95472
New Yinkeng Chinese Restaurant,8840 Lakewood Dr,Windsor,CA,95492
Negris Inc,3700 Bohemian Hwy,Occidental,CA,95465
Luigis Restaurant,1000 Hopper Ave,Santa Rosa,CA,95403
China Delight,941 Golf Course Dr,Rohnert Park,CA,94928
Tides Wharf & Restaurant,835 Highway 1,Bodega Bay,CA,94923
Target T852,475 Rohnert Park Expy,Rohnert Park,CA,94928
Council on Aging-Rhnt Pk,6800 Hunter Dr,Rohnert Park,CA,94928
Mountain Shadows Middle School,7165 Burton Ave,Rohnert Park,CA,94928
Lynmar Winery,3909 Frei Rd,Sebastopol,CA,95472
Khoom Lanna,107 4th St,Santa Rosa,CA,95401
Juice Shack #101,1810 Mendocino Ave,Santa Rosa,CA,95402
Taqueria Sol Azteca,1435 E Cotati Ave #D,Rohnert Park,CA,94928
Jelly Donut,443 Dutton Ave #10,Santa Rosa,CA,95407
Marguerite Hahn Elementary,825 Hudis St,Rohnert Park,CA,94928
Olive Garden Restaurant #325,6430 Redwood Dr,Rohnert Park,CA,94928
Old Main Street Saloon Inc,153 N Main St,Sebastopol,CA,95472
Victoria Catering L#3J21556,2995 Wiljan Ct,Santa Rosa,CA,95407
Fast & Easy Mart #8,860 N Petaluma Blvd,Petaluma,CA,94952
Starbucks Coffee #9490,3100 Lakeville Hwy #B,Petaluma,CA,94952
Analy High School,6980 Analy Ave,Sebastopol,CA,95472
Windsor Golf - Charlies Grill,1320 19th Hole Dr,Windsor,CA,95492
Sushi Tozai,7531 Healdsburg Ave,Sebastopol,CA,95472
Moms Apple Pie,4550 N Gravenstein Hwy,Sebastopol,CA,95472
Sky Lounge Restaurant,2200 Airport Blvd #143,Santa Rosa,CA,95403
ABC Chinese Cafe,3579 Industrial Dr,Santa Rosa,CA,95403
Lilas Mexican Restaurant,1199 Yulupa Ave #A,Santa Rosa,CA,95405
Healdsburg Bar & Grill,245 Healdsburg Ave Ste A,Healdsburg,CA,95448
Village Cafe,2575 Guerneville Rd #515,Santa Rosa,CA,95401
Tides Gas Station-Food Mart,900 1 Hwy,Bodega Bay,CA,94923
Safeway Store #998,1115 Vine St,Healdsburg,CA,95448
Bodega Bay Lodge & Spa,103 Highway 1,Bodega Bay,CA,94923
"Sift Cupcake & Dessert Bar, Inc.",404 Mendocino Ave Ste A,Santa Rosa,CA,95401
Sonoma Cinemas,200 Siesta WY,Sonoma,CA,95476
Evergreen School,1125 Emily Ave,Rohnert Park,CA,94928
8 Ball Tavern Inc,8 Charles St,Cotati,CA,94931
Two Niner Diner,561 Sky Ranch Dr,Petaluma,CA,94954
Martinelli Winery Inc,3360 River Rd,Windsor,CA,95492
Tienda y Tortilleria El Molino Inc,421 Stony Point Rd,Santa Rosa,CA,95401
Oakville Grocery,124 Matheson St,Healdsburg,CA,95448
Donut Den,1390 N McDowell Blvd #J,Petaluma,CA,94952
Lawrence Cook Middle School,2480 Sebastopol Rd,Santa Rosa,CA,95407
Bohemian Market,3691 Main St,Occidental,CA,95465
Chevron #2201,730 Stony Point Rd,Santa Rosa,CA,95407
John Reed Elementary School,390 Arlen Dr,Rohnert Park,CA,94928
Juice Shack #107,1708 E Cotati Ave,Rohnert Park,CA,94928
Jack In The Box #554,425 Sebastopol Rd,Santa Rosa,CA,95401
Levy Premium Food Serv-Grandstand,29355 Arnold Dr,Sonoma,CA,95476
Himalayan Tandoori & Curry House,969 S Gravenstein Hwy,Sebastopol,CA,95472
Ohana Hawaiian BBQ,2150 Santa Rosa Ave,Santa Rosa,CA,95407
Riviera Restorante Inc,75 Montgomery Dr,Santa Rosa,CA,95404
World Famous Hamburger Ranch,31195 N Redwood Hwy,Cloverdale,CA,95425
Geyserville Market,21010 Geyserville Ave,Geyserville,CA,95441
Valley Ford Market,14400 Highway 1,Valley Ford,CA,94972
Super Latino Market,1701 Sebastopol Rd,Santa Rosa,CA,95407
Cold Stone Creamery #558,441 Rohnert Park Expy,Rohnert Park,CA,94928
Boulevard Cinemas,200 C St,Petaluma,CA,94952
Snoopys Warm Puppy,1667 W Steele Ln,Santa Rosa,CA,95401
Target T937,1980 Santa Rosa Ave,Santa Rosa,CA,95407
Real Gyro,307 F St,Petaluma,CA,94952
Pizza Guys,6500 Hembree Ln Ste 202,Windsor,CA,95492
Sonoma State University - Food Services,1801 E Cotati Ave,Rohnert Park,CA,94928
Crepevine,740 Farmers Ln,Santa Rosa,CA,95405
Hoffman House Wine Country Deli,21712 Geyserville Ave,Geyserville,CA,95441
Gravenstein School,3840 Twig Ave,Sebastopol,CA,95472
South Side Coffee,301 Mountain View Ave,Petaluma,CA,94952
Yogurt World USA,701 Sonoma Mountain PKY #B-3,Petaluma,CA,94954
Marys Pizza Shack #7,3084 Marlow Rd,Santa Rosa,CA,95403
Cafe Newsstand,25 Matheson St,Healdsburg,CA,95448
Tans Donuts,754 Montecito Ctr,Santa Rosa,CA,95409
El Roy's Mexican Grill #2,2995 Wiljan Ct,Santa Rosa,CA,95407
Juanita Juanita,19114 Arnold Dr,Sonoma,CA,95476
Kozlowski Farms,5566 N Highway 116,Forestville,CA,95436
Andys Produce Market Inc,1691 N Highway 116,Sebastopol,CA,95472
Starbucks Coffee #6658,969 Golf Course Dr #A,Rohnert Park,CA,94928
Diavola Restaurant,21021 Geyserville Ave,Geyserville,CA,95441
Best Western Sonoma Valley Inn,550 W 2nd St,Sonoma,CA,95476
Bridgeway Gas,4115 N Gravenstein Hwy,Sebastopol,CA,95472
Jack London Elementary School,2707 Francisco Ave,Santa Rosa,CA,95403
Lemongrass Thai Cuisine,109 N McDowell Blvd,Petaluma,CA,94954
Worth Our Weight,1021 Hahman Dr,Santa Rosa,CA,95405
United Church of Cloverdale,439 N Cloverdale Blvd,Cloverdale,CA,95425
Fresh & Natural Cafe/SRJC Petaluma Cafeteria,680 Sonoma Mountain Pky,Petaluma,CA,94954
Rancho Mendoza Supermercado,1201 Piner Rd,Santa Rosa,CA,95403
El Farolito Mexican Restaurant LLC,8465 Old Redwood Hwy Ste 100 A,Windsor,CA,95492
Jhanthong Banbua,2400 Mendocino Ave,Santa Rosa,CA,95403
Waldo Rohnert Elementary,550 Bonnie Ave,Rohnert Park,CA,94928
Big Lots #4154,2055 Mendocino Ave,Santa Rosa,CA,95401
Burger King #5215,741 Stony Point Rd,Santa Rosa,CA,95407
East West Cafe,128 N Main St,Sebastopol,CA,95472
Two Rock School,5001 Spring Hill Rd,Petaluma,CA,94952
Tiny Thai,8238 Old Redwood Hwy,Cotati,CA,94952
Tanglewood House,250 Bonnie WY,Glen Ellen,CA,95442
Dry Creek Inn,198 Dry Creek Rd,Healdsburg,CA,95448
Mayo Family Winery Reserve Room,9200 Highway 12,Kenwood,CA,95452
Sonoma Mountain Elem School,1900 Ranier Cir,Petaluma,CA,94952
Everest Indian Restaurant,56 E Washington St,Petaluma,CA,94952
Alexander Valley RV Park & Campgrou,2411 Alexander Valley Rd,Healdsburg,CA,95448
Canevaris Delicatessen,695 Lewis Rd,Santa Rosa,CA,95401
Pamposh Restaurant,52 Mission Cir #110,Santa Rosa,CA,95409
Route 128 Winery,21079 Geyserville Ave,Geyserville,CA,95441
Trader Joes #75,3225 Cleveland Ave,Santa Rosa,CA,95403
Twin Hills School,1685 Water Trough Rd,Sebastopol,CA,95472
Fast Gas & Mini Mart - Cloverdale,418 S Cloverdale Blvd,Cloverdale,CA,95425
Capraras Pizzeria,10101 Main St # F,Penngrove,CA,94951
Garden Grill,17132 Highway 116,Guerneville,CA,95446
Honor Mansion,14891 Grove St,Healdsburg,CA,95448
Underwood Bar & Bistro,9113 Graton Rd,Graton,CA,95444
May Garden,1425 Fulton Rd #325,Santa Rosa,CA,95403
Louies Fine Food,2496 W 3rd St,Santa Rosa,CA,95401
Rotten Robbie #60,55 Todd Rd,Santa Rosa,CA,95407
Central Market,42 N Petaluma Blvd,Petaluma,CA,94952
South City Market,301 Mountain View Ave,Petaluma,CA,94952
Liberty School,170 Liberty School Rd,Petaluma,CA,94952
Ume Japanese Bistro,8710 Old Redwood Hwy,Windsor,CA,95492
7-Eleven #16268G,194 W Napa St,Sonoma,CA,95476
Molsberry Market,522 Larkfield Ctr,Santa Rosa,CA,95403
Chocolate Cow,452 E 1st St #F,Sonoma,CA,95476
Jack in the Box #3466,602 W Napa St,Sonoma,CA,95476
Applebees,8931 S Brooks Rd,Windsor,CA,95492
Juanita Market,93 Southwest Blvd,Rohnert Park,CA,94928
Sugo Trattoria,5 S Petaluma Blvd #B,Petaluma,CA,94952
Lucky #777,776 N Highway 116,Sebastopol,CA,95472
Larry Vito Catering Co/BBQ Smokehou,6811 Laguna Park Way,Sebastopol,CA,95472
McDowell Elementary School,421 S McDowell Blvd,Petaluma,CA,94952
Fountain Grove Deli,3554 Round Barn Blvd #202,Santa Rosa,CA,95403
Rotten Robbie #61,7001 116 Hwy,Forestville,CA,95436
Fort Ross Store,20705 Highway 1,Jenner,CA,95450
Carlos Country Kitchen,90 W College Ave,Santa Rosa,CA,95401
Sonoma Cheese Factory,2 Spain St,Sonoma,CA,95476
Altimira Middle School,17805 Arnold Dr,Sonoma,CA,95476
Applebees Neighborhood Grill & Bar,501 Rohnert Park Expy #70,Rohnert Park,CA,94928
John Ash & Co,4330 Barnes Rd,Santa Rosa,CA,95403
Willow Wood Market,9020 Graton Rd,Graton,CA,95444
Sams Mediterranean Deli & Cafe,613 Martin Ave #111,Rohnert Park,CA,94928
CVS/Pharmacy #152,201 W Napa St Ste 35,Sonoma,CA,95476
Adele Harrison Middle School,1150 Broadway,Sonoma,CA,95476
La Fiesta Elem School,8511 Liman WY,Rohnert Park,CA,94928
Pacific Connection,1800 Empire Industrial Ct #C,Santa Rosa,CA,95403
Hickory Farms #19317,733 Coddingtown Ctr,Santa Rosa,CA,95401
Safeway Store #956,1799 Marlow Rd,Santa Rosa,CA,95401
7-Eleven #2231-33389A,1704 E Cotati Ave #B,Rohnert Park,CA,94931
Dunbar School,11700 Dunbar Rd,Glen Ellen,CA,95442
Prestwood School,343 E MacArthur St,Sonoma,CA,95476
Quincys Pub & Cafe,6590 Commerce Blvd,Rohnert Park,CA,94928
Highland Dell Lodge Restaurant,21050 River Blvd,Monte Rio,CA,95462
Champagne Taste Caterers,927 S Fitch Mountain Rd,Healdsburg,CA,95448
El Taquero L#6G10867,5256 Aero Dr #4,Santa Rosa,CA,95403
Campus Market & Deli,1880 Mendocino Ave #A,Santa Rosa,CA,95404
St Johns Activity Center Kitchen,208 Matheson St,Healdsburg,CA,95448
Roseland Charter Middle School,1777 West Ave,Santa Rosa,CA,95407
Washington Elementary School,129 S Washington St,Cloverdale,CA,95425
General Nutrition Center #651,277 N McDowell Blvd,Petaluma,CA,94954
Rocker Oysterfellers,14415 Highway 1,Valley Ford,CA,94972
Guerneville Elementary School,14630 Armstrong Woods Rd,Guerneville,CA,95446
Monte Rio Beach,20400 Bohemian Hwy,Monte Rio,CA,95462
Bill's Market & Deli #2,3195 N Gravenstein Hwy,Sebastopol,CA,95472
Stumptown Brewery,15045 River Rd,Guerneville,CA,95446
Danish & Donut,18580 Highway 12,Sonoma,CA,95476
Sebastiani Vineyards,394 E 4th St,Sonoma,CA,95476
Union Hotel,3731 Main St,Occidental,CA,95465
Mi Pueblito Restaurant,7600 Commerce Blvd,Cotati,CA,94931
Cafe des Croissants,2444 Lomitas Ave,Santa Rosa,CA,95404
Grateful Bagel,300 S Main St,Sebastopol,CA,95472
Phnom Penh,923 Petaluma Hill Rd,Santa Rosa,CA,95404
Monte Rio Community Center,20488 Highway 116,Monte Rio,CA,95462
Roseland School,950 Sebastopol Rd,Santa Rosa,CA,95407
Lakeville Garden,1410 S McDowell Blvd #A,Petaluma,CA,94952
Haagen-Daz / Rocky Mountain Chocolate Factory,1055 Santa Rosa Plz,Santa Rosa,CA,95404
Mountain Mike's Pizza,1051 Vine St,Healdsburg,CA,95448
Chevron #1775,1002 Lakeville St,Petaluma,CA,94954
Brook Hill Elem School,1850 Vallejo St,Santa Rosa,CA,95404
Lumber Jacks,732 E Washington St,Petaluma,CA,94952
Sonoma Valley Bagel Co,350 Rohnert Park Expy,Rohnert Park,CA,94928
Sheraton Petaluma Hotel,745 Baywood Ave,Petaluma,CA,94954
Subway,6400 Hembree Ln Ste 120,Windsor,CA,95492
Carmen's Burger Bar,90 Mark West Springs Rd Ste 130,Santa Rosa,CA,95403
Candy & Kites,1415 Highway 1,Bodega Bay,CA,94923
Rio Nido Roadhouse,14540 Canyon 2,Rio Nido,CA,95471
Food Max #469 (Save Mart Supermarkets),2055 Sebastopol Rd,Santa Rosa,CA,95407
Safeway #1576,2300 Mendocino Ave,Santa Rosa,CA,95403
Sassarini School,652 W 5th St,Sonoma,CA,95476
Starbucks Coffee #6789,1015 Santa Rosa Plaza,Santa Rosa,CA,95401
El Molino High School,7050 Covey Rd,Forestville,CA,95436
Round Table Pizza #07,1351 Healdsburg Ave,Healdsburg,CA,95448
Flamingo Hotel,2777 4th St FH,Santa Rosa,CA,95405
COTS Mary Isaak Center,900 Hopper St,Petaluma,CA,94952
Tierra Vegetables,399 Business Park Ct Ste 311,Windsor,CA,95492
Starbucks Coffee #2888,1716 E Cotati Ave,Rohnert Park,CA,94928
Trader Joes #178,2100 Santa Rosa Ave,Santa Rosa,CA,95407
Oakmont Village Market,6550 Oakmont Dr,Santa Rosa,CA,95409
Moose Lodge #475,300 English St,Petaluma,CA,94952
Olivet Elementary School,1825 Willowside Rd,Santa Rosa,CA,95401
Safeway Store #1434,9080 Brooks Rd,Windsor,CA,95492
Williamson Wines,134 Matheson St,Healdsburg,CA,95448
Chef Patrick's,16337 Main St,Guerneville,CA,95446
Taqueria Mi Farolito,6585 Commerce Blvd Ste C,Rohnert Park,CA,94928
Cafe Citti,9049 Highway 12,Kenwood,CA,95452
Cold Stone Creamery,2280 Mendocino Ave #B-4,Santa Rosa,CA,95404
La Azteca,1420 S McDowell Blvd,Petaluma,CA,94954
Lucas Wharf Restaurant,595 Highway 1,Bodega Bay,CA,94923
Safeway Store #933,406 N Main St,Sebastopol,CA,95472
Taqueria Hacienda,953 Lakeville Hwy,Petaluma,CA,94952
Danos Liquors,2400 Magowan Dr,Santa Rosa,CA,95405
Aguila Real Mexican Food,93 Southwest Blvd,Rohnert Park,CA,94928
Pizza Gourmet,1421 Fulton Rd #231,Santa Rosa,CA,95403
Vella Cheese Company Inc,315 E 2nd St,Sonoma,CA,95476
Round Table Pizza #09,201 W Napa St,Sonoma,CA,95476
Bacigalipi Vineyards,4353 Westside Rd,Healdsburg,CA,95448
SRJC Bertolini Student Services Center,123 Elliott Ave,Santa Rosa,CA,95401
Rancho Market & Deli,929 Madrone Rd,Glen Ellen,CA,95442
Burger King #11718,2542 Guerneville Rd,Santa Rosa,CA,95401
Fast & Easy Mart #35,6484 Mirabel Rd,Forestville,CA,95436
Ralphs Courthouse Classics,25 Old Courthouse Sq,Santa Rosa,CA,95404
Taste of the Himalayas,464 E 1st St #F &,Sonoma,CA,95476
Bartholomew Park Winery,1000 Vineyard Ln,Sonoma,CA,95476
Sports City Cotati,6700 Stony Point Rd,Cotati,CA,94931
Jeffrey's Hillside Cafe,2901 4th St,Santa Rosa,CA,95409
Todd Road Shell,3785 Santa Rosa Ave,Santa Rosa,CA,95407
La Cantera Raquet Club,3737 Montgomery Dr,Santa Rosa,CA,95404
"Red Grape, The",529 W 1st St,Sonoma,CA,95476
Subway Sandwiches & Salads,443 Stony Point Rd,Santa Rosa,CA,95401
Baan Thai,424 Larkfield Ctr,Santa Rosa,CA,95403
D L Catering,927 S Fitch Mountain Rd,Healdsburg,CA,95448
Olivers Market,546 E Cotati Ave,Cotati,CA,94931
Powells Sweet Shoppe,720 McClelland Dr,Windsor,CA,95492
Sheppard School,1777 West Ave,Santa Rosa,CA,95407
El Brinquito,17380 Highway 12,Sonoma,CA,95476
Shanghai Restaurant,565 W 5th St,Sonoma,CA,95476
Apple Valley Convalescent Hospital,1035 S Gravenstein Hwy,Sebastopol,CA,95472
Double Decker Lanes,300 Golf Course Dr,Rohnert Park,CA,94928
Vineyard Market,18913 Highway 12,Sonoma,CA,95476
Village Bakery,1445 Town & Country Dr A,Santa Rosa,CA,95404
Cheekos Corner,550 Highway 116 Hwy,Sebastopol,CA,95472
St Rose School Multi-Use Bldg,4300 Old Redwood Hwy,Santa Rosa,CA,95403
Petaluma Boys & Girls Club,203 Maria Dr,Petaluma,CA,94954
Rio Lindo Academy,3200 Rio Lindo Ave,Healdsburg,CA,95448
Petaluma Peoples Services,211 N Novak Dr,Petaluma,CA,94952
Starbucks Coffee #5855,1075 Vine St,Healdsburg,CA,95448
Terrapin Creek Cafe LLC,1580 Eastshore Rd,Bodega Bay,CA,94923
Whole Foods Market,390 Coddingtown Mall Ctr,Santa Rosa,CA,95401
Mi Pueblo Realmex,7384 Commerce Blvd,Cotati,CA,94931
Kwei Bin,613 E Washington St,Petaluma,CA,94952
Carniceria Mendoza,1940 Piner Rd #200,Santa Rosa,CA,95403
Tian Yuen,421 S Cloverdale Blvd #1-A,Cloverdale,CA,95425
Starbucks Coffee #632,2200 Santa Rosa Ave,Santa Rosa,CA,95407
Lees Noodle House,1010 Hopper Ave,Santa Rosa,CA,95403
Petaluma Jr High,700 Bantam WY,Petaluma,CA,94952
Maria Carrillo High School,6975 Montecito Blvd,Santa Rosa,CA,95409
Timber Crest Farms,4791 Dry Creek Rd,Healdsburg,CA,95448
Kyoto Restaurant,5 Padre PKY #A,Rohnert Park,CA,94928
Thai Pot,6961 Sebastopol Ave,Sebastopol,CA,95472
Cafe Aquatica,10439 Highway 1,Jenner,CA,95450
El Coronel Catering L#7X44305,250 Sebastopol Rd,Santa Rosa,CA,95407
Valley of the Moon Childrens Home,100 Children's Circle Pl,Santa Rosa,CA,95409
Single Tree Inn Cafe,165 Healdsburg Ave,Healdsburg,CA,95448
Nightingale Breads,6665 Front St,Forestville,CA,95436
Round Table Pizza #12,8499 Old Redwood Hwy,Windsor,CA,95492
Best Western Inn-Cloverdale,324 S Cloverdale Blvd,Cloverdale,CA,95425
Mountain Mikes Pizza,1451 Southwest Blvd #118,Rohnert Park,CA,94928
Papa Murphys Pizza,965 Lakeville Hwy,Petaluma,CA,94952
Rite Aid #6021,1793 Marlow Rd,Santa Rosa,CA,95401
Willis Seafood & Raw Bar,403 Healdsburg Ave,Healdsburg,CA,95448
Round Table Pizza #10,2065 Occidental Rd,Santa Rosa,CA,95401
Petaluma Valley Hospital,400 N McDowell Blvd,Petaluma,CA,94954
Mikes at the Crossroads,7665 Old Redwood Hwy #C,Cotati,CA,94931
Willie Bird Restaurant,1150 Santa Rosa Ave,Santa Rosa,CA,95404
Juice Shack,1367 N McDowell Blvd #130,Petaluma,CA,94952
Marys Pizza Shack #4,790 N Gravenstein Hwy,Sebastopol,CA,95472
Lowes HIW,7921 Redwood Dr,Cotati,CA,94931
"Donut Cafe, The",4275 Montgomery Dr,Santa Rosa,CA,95409
Sequoia Burger,1382 S Gravenstein Hwy,Sebastopol,CA,95472
Compass Cafeteria,3576 Unocal Pl,Santa Rosa,CA,95403
"Big Tomato Inc, The",1100 Valley House Dr #140,Rohnert Park,CA,94928
Taco Bell #15724,19025 Highway 12,Sonoma,CA,95476
McDonalds #7119,18988 Highway 12,Sonoma,CA,95476
Petaluma American Little League,260 Water St #F,Petaluma,CA,94952
"Marina Bean, The",765 Baywood Dr #145,Petaluma,CA,94954
Windsor Creek Elementary,8955 Conde Ln,Windsor,CA,95492
El Coqui Puerto Rican Cuisine,400 Mendocino Ave,Santa Rosa,CA,95401
Catelli's,21047 Geyserville Ave,Geyserville,CA,95441
Hampton Inn & Suites,8937 S Brooks Rd,Windsor,CA,95492
Stormys Bloomfield Tavern,6650 Bloomfield Rd,Bloomfield,CA,94952
Screamin Mimis,6902 Sebastopol Ave,Sebastopol,CA,95472
Abraham Lincoln School,850 W 9th St,Santa Rosa,CA,95401
24 Seven Fuel & Food,3230 Coffey Ln,Santa Rosa,CA,95403
Creekside Cafe,239 Boyes Blvd 10,Boyes Hot Springs,CA,95416
Third Street Aleworks,610 3rd St,Santa Rosa,CA,95404
La Rosa,500 4th St,Santa Rosa,CA,95401
Lazzini's Bennett Valley Market,3449 Bennett Valley,Santa Rosa,CA,95405
Bella Luna Inn,530 Healdsburg Ave,Healdsburg,CA,95448
Ausiellos 5th Street Grill,609 5th St,Santa Rosa,CA,95401
Ross Stores #8,400 Raleys Towne Center,Rohnert Park,CA,94928
Deep Valley Ent dba Burger King 17711,56 Mission Cir,Santa Rosa,CA,95409
Thai Time Asian Bistro,402 Mendocino Ave,Santa Rosa,CA,95401
Fiorinos,585 Montecito Ctr,Santa Rosa,CA,95409
Sift: A Cupcakery LLC,7582 Commerce Blvd,Cotati,CA,94931
Marys Pizza Shack #11,9010 Brooks Rd,Windsor,CA,95492
Cafe Zazzle,121 Kentucky St,Petaluma,CA,94952
Chateau Diana,6195 Dry Creek Rd,Healdsburg,CA,95448
"Presentation School, The",20872 Broadway,Sonoma,CA,95476
Doctor Beans Coffee,400 N McDowell Blvd,Petaluma,CA,94954
Wilibees Wines & Spirits,309 Lakeville Hwy,Petaluma,CA,94952
Little Caesars Pizza,8836 Lakewood Dr,Windsor,CA,95492
Pongo's Kitchen & Tap,701 Sonoma Mountain Pky #C8,Petaluma,CA,94954
Baskin Robbins Petaluma,60 E Washington St,Petaluma,CA,94952
Hotel Les Mars,27 North St,Healdsburg,CA,95448
Mary Agatha Furth Center,8400 Old Redwood Hwy,Windsor,CA,95492
Preston Winery,9206 W Dry Creek Rd,Healdsburg,CA,95448
Ross Stores #9,800 Farmers Ln,Santa Rosa,CA,95405
Rams Gate Winery LLC,28700 Arnold Dr,Sonoma,CA,95476
JVW Corp. (Jordan Winery),1474 Alexander Valley Rd,Healdsburg,CA,95448
Sebastopol Liquor & Deli,6800 Sebastopol Ave,Sebastopol,CA,95472
La Salette,452 E 1st St,Sonoma,CA,95476
Tea Room Cafe,316 Western Ave,Petaluma,CA,94952
Starbucks Coffee #2843,2240 Mendocino Ave #C-7,Santa Rosa,CA,95403
Kwik Pik Market,101 Golf Course Dr #E,Rohnert Park,CA,94928
Sequoia Market,1382 S Gravenstein Hwy,Sebastopol,CA,95472
Doyle Park School,1350 Sonoma Ave,Santa Rosa,CA,95405
Ferrari-Carano Vineyards & Winery,8761 Dry Creek Rd,Healdsburg,CA,95448
Dutton Ranch-Sebastopol Vineyard,4082 N Highway 116,Sebastopol,CA,95472
Pacific Market #1,550 N Highway 116,Sebastopol,CA,95472
Pacific Market,1465 Town & Country Dr,Santa Rosa,CA,95404
Out to Lunch Catering,144 American Alley,Petaluma,CA,94952
Sonoma Wine Shop,412 E 1st St,Sonoma,CA,95476
Creekside Inn & Resort,16180 Neeley Rd,Guerneville,CA,95446
Aquarium,1030 N Petaluma Blvd,Petaluma,CA,94952
Starbucks Coffee #3456,860 Hopper Ave,Santa Rosa,CA,95403
Seasons of the Vineyard,113 Plaza St,Healdsburg,CA,95448
Taylor Mountain Elementary School,1210 E Bellevue Ave,Santa Rosa,CA,95407
Bills Farm Basket,10315 Bodega Hwy,Sebastopol,CA,95472
La Morenita Market No3,18307 Highway 12,Sonoma,CA,95476
Pride Mountain Vineyards,3000 Summit Trl,Santa Rosa,CA,95404
Lonchera La Cruz,1096 N Petaluma Blvd,Petaluma,CA,94952
Moxies,8930 S Brooks Rd,Windsor,CA,95492
Great China Restaurant,1589 Farmers Ln,Santa Rosa,CA,95405
Valley of the Moon Teen Center,17440 Sonoma Hwy,Sonoma,CA,95476
El Palomar Mexican Food,623 4th St,Santa Rosa,CA,95404
El Paisa Taqueria,157 Southwest Blvd,Rohnert Park,CA,94928
Wendys Restaurant,1850 Santa Rosa Ave,Santa Rosa,CA,95407
7-Eleven #2211-16806,50 Mission Blvd,Santa Rosa,CA,95409
Garrett Hardware-Windsor,10540 Old Redwood Hwy,Windsor,CA,95492
Savory Truffle Catering,7225 Healdsburg Ave,Sebastopol,CA,95472
Outback Steakhouse,4619 Redwood Dr,Rohnert Park,CA,94928
Big Bottom Market,16228 Main St,Guerneville,CA,95446
My Ha Restaurant,385 Aviation Blvd B,Santa Rosa,CA,95403
Black Bear Diner,6255 Commerce Blvd,Rohnert Park,CA,94928
Viva Mexicana,841 S Gravenstein Hwy,Sebastopol,CA,95472
Mateos Cucina Latina,214 Healdsburg Ave,Healdsburg,CA,95448
California Del Sur,1024 Santa Rosa Ave Ste B,Santa Rosa,CA,95404
Peets Coffee & Tea,2500 Mendocino Ave #A,Santa Rosa,CA,95403
Windsor Middle School,9500 Brooks Rd,Windsor,CA,95492
Spring Lake Village,5555 Montgomery Dr,Santa Rosa,CA,95409
Garrett Hardware,1340 Healdsburg Ave,Healdsburg,CA,95448
El Coyote Legacy L#6C188153,2995 Wiljan Ct,Santa Rosa,CA,95407
Piner High School,1700 Fulton Rd,Santa Rosa,CA,95403
Hardcore Espresso #3 L#6M33879,81 Bloomfield Rd,Sebastopol,CA,95472
IHOP #0689,5312 Old Redwood Hwy,Petaluma,CA,94954
New Yorker,7 N Petaluma Blvd,Petaluma,CA,94952
Dutcher Crossing Winery,8533 Dry Creek Rd,Healdsburg,CA,95448
Mayacama Food & Beverage LLC,1240 Mayacama Club Dr,Santa Rosa,CA,95403
Schellville Grill,22900 Broadway,Sonoma,CA,95476
Bills Market,817 Russell Ave #A,Santa Rosa,CA,95403
Lepes Taqueria Inc,4323 Montgomery Dr,Santa Rosa,CA,95405
Dutton Shell,255 Dutton Ave,Santa Rosa,CA,95407
Togo's Great Sandwiches,8936 S Brooks Rd,Windsor,CA,95492
Sharis Restaurant,301 Rohnert Park Expy,Rohnert Park,CA,94928
Dawn Ranch Lodge,16467 Highway 116,Guerneville,CA,95446
CVS/Pharmacy #09948,2700 Yulupa Ave,Santa Rosa,CA,95405
Cleveland Shell,3453 Cleveland Ave,Santa Rosa,CA,95401
Benedetti Farms/Willie Bird,5350 Sebastopol Rd,Santa Rosa,CA,95407
El Molino Central,11 Central Ave,Sonoma,CA,95476
Palace Of Fruit,8 Ely Rd,Petaluma,CA,94954
Kendall-Jackson Ltd,5007 Fulton Rd,Santa Rosa,CA,95403
"Plaza Bistro, The",420 1st St,Sonoma,CA,95476
Karinas Mexican Bakery,827 N Petaluma Blvd,Petaluma,CA,94952
El Dorado Kitchen (EDK),405 W 1st St,Sonoma,CA,95476
Lucchesi Deli Inc,301 S McDowell Blvd #B,Petaluma,CA,94952
Santa Rosa City Sch-Child Nutrition,211 Ridgway Ave,Santa Rosa,CA,95401
Subway 46768,2620 Lakeville Hwy,Petaluma,CA,94954
McNears Restaurant,23 N Petaluma Blvd,Petaluma,CA,94952
Cavalieres Bakery,2600 Mendocino Ave #A,Santa Rosa,CA,95403
St Francis Vineyards & Winery L P,100 Pythian Rd,Santa Rosa,CA,95409
Michaels Arts & Crafts #6732,1359 N McDowell Blvd,Petaluma,CA,94954
"Quail Inn at Oakmont, The",7025 Oakmont Dr,Santa Rosa,CA,95409
Amys Hunan Kitchen,2550 Guerneville Rd #D,Santa Rosa,CA,95401
TLC Child & Family Services,1800 N Gravenstein Hwy,Sebastopol,CA,95472
Community Action Partnership Headstart Kitchen,3194 Coffey Ln,Santa Rosa,CA,95403
Thai Cuisine,610 N Petaluma Blvd,Petaluma,CA,94952
Gypsy Cafe,162 N Main St,Sebastopol,CA,95472
Chapala Carniceria,18615 Highway 12 #104,Sonoma,CA,95476
Honey Sliced Ham,1321 Guerneville Rd,Santa Rosa,CA,95403
Omlette Express,150 Windsor River Rd,Windsor,CA,95492
Santa Rosa Memorial Hospital,1165 Montgomery Dr,Santa Rosa,CA,95405
Safeway Food Market,389 S McDowell Blvd,Petaluma,CA,94954
Village Elem School,900 Yulupa Ave,Santa Rosa,CA,95405
Summerfield Health Care Center,1280 Summerfield Rd,Santa Rosa,CA,95405
Daves Market,320 W 3rd St,Santa Rosa,CA,95401
Barndiva,231 Center St,Healdsburg,CA,95448
Mai Vietnamese Cuisine,8492 S Highway 116 #J,Cotati,CA,94931
Fairmont Sonoma Mission Inn & Spa,18140 Sonoma Hwy,Sonoma,CA,95476
Chops,509 Adams St,Santa Rosa,CA,95401
Starbucks #13463,269 Aviation Blvd,Santa Rosa,CA,95403
Taqueria El Favorito #3,250 S Main St,Sebastopol,CA,95472
Hooters,6099 Redwood Dr,Rohnert Park,CA,94928
Montecito Heights Health Club,2777 4th St #MHHC,Santa Rosa,CA,95405
Wells Fargo Center for the Arts,50 Mark West Springs Rd,Santa Rosa,CA,95403
Diekmanns Bay Store,1275 Highway 1,Bodega Bay,CA,94923
Tomi Thai Restaurant,426 Emily Rose Cir,Windsor,CA,95492
El Sombrero,245 Center St,Healdsburg,CA,95448
Lola's Market,102 Healdsburg Ave,Healdsburg,CA,95448
Jellys Donut,1475 Southwest Blvd #150,Rohnert Park,CA,94928
Noahs New York Bagels,375 S McDowell Blvd #A,Petaluma,CA,94952
Chunkys Taqueria & Grill,701 Sonoma Mountain PKY #C,Petaluma,CA,94952
Raleys #341,8852 Lakewood Dr,Windsor,CA,95492
Chevron Fast Lane Gas & Food,136 College Ave,Santa Rosa,CA,95401
Agave Mexican Restaurant & Bar Inc,1063 Vine St,Healdsburg,CA,95448
Copperfield's Cafe,775 Village Ct,Santa Rosa,CA,95405
Litas Cafe,1973 Mendocino Ave,Santa Rosa,CA,95401
Holiday Inn Express Windsor,8865 Conde Ln,Windsor,CA,95492
Original Buffalo Wings,707 E Washington St,Petaluma,CA,94952
Charley's Grilled Subs,2104 Santa Rosa Plz,Santa Rosa,CA,95401
Moustache Baked Goods LLC,381 Healdsburg Ave,Healdsburg,CA,95448
Lepe's Meat Company Inc,3659 Standish Ave,Santa Rosa,CA,95407
Reading Cinemas,555 W Rohnert Park Expy #A,Rohnert Park,CA,94928
Subway #46961,1199 Yulupa Ave Ste C,Santa Rosa,CA,95405
Michelle Maries Patisserie,2404 Magowan Dr,Santa Rosa,CA,95405
Union Hotel Restaurant,280 Mission Blvd,Santa Rosa,CA,95409
Fircrest Convalescent Hospital LHC,7025 Corline Ct,Sebastopol,CA,954724520
Himalayan Restaurant,810 McClelland Dr,Windsor,CA,95492
Rosso & Bianco winery,300 Via Archimedes,Geyserville,CA,94558
Tamales Giselle,5256 Aero Dr,Santa Rosa,CA,95403
Bettys English Fish & Chips,4046 Highway 12,Santa Rosa,CA,95409
Water Street Bistro,100 N Petaluma Blvd #106,Petaluma,CA,94952
Ridgway High School,325 Ridgway Ave,Santa Rosa,CA,95401
Lagunitas Brewery,1280 N McDowell Blvd,Petaluma,CA,94952
Acre Coffee,21 4th St,Petaluma,CA,94952
El Tarasco,7231 Healdsburg Ave,Sebastopol,CA,95472
Flour Creations,459 Portal St #D,Cotati,CA,94931
Wright School,4389 Price Ave,Santa Rosa,CA,95407
Gaia's Garden,1899 Mendocino Ave # B,Santa Rosa,CA,95401
Medlock Ames Tasting Room,3487 Alexander Valley Rd,Healdsburg,CA,95448
Strawberry School,2311 Horseshoe Dr,Santa Rosa,CA,95405
Wingstop Restaurants,760 Stony Point Rd Ste C-120,Santa Rosa,CA,95407
Aroma Roasters and Coffee House,95 5th St,Santa Rosa,CA,95401
Sees Candies #SF 2117,333 N McDowell Blvd,Petaluma,CA,94952
7-Eleven #18019 D,124 S Petaluma Blvd,Petaluma,CA,94952
Quick Shop & Deli #4,8197 Old Redwood Hwy,Windsor,CA,95492
Pick N Go Market,905 E Washington St,Petaluma,CA,94952
Sonoma Mountain Zen Center,6367 Sonoma Mountain Rd,Santa Rosa,CA,95404
Relish Culinary Adventures,14 Matheson St,Healdsburg,CA,95448
Sees Candies #35,432 Coddingtown Ctr,Santa Rosa,CA,95401
Montgomery High School,1250 Hahman Dr,Santa Rosa,CA,95405
Union Hotel Pizza & Pasta Co,1007 W College Ave #D,Santa Rosa,CA,95401
Easy Stop Market #2,6475 Redwood Dr,Rohnert Park,CA,94928
Norms Kitchen,478 Larkfield Ctr,Santa Rosa,CA,95403
Pizza Politana,434 Payran St Ste A,Petaluma,CA,94952
Go Go Wok,1791 Marlow Rd #4,Santa Rosa,CA,95401
Camellia Inn,211 North St,Healdsburg,CA,95448
Della Santina,133 E Napa St,Sonoma,CA,95476
MD Liquor & Food #1,500 Mission Blvd #A,Santa Rosa,CA,95409
Pizza Hut,140 Stony Point Rd #F,Santa Rosa,CA,95401
AFC Sushi @ Raleys #341,8852 Lakewood Dr,Windsor,CA,95492
MD Liquor & Food #4,2743 Yulupa Ave,Santa Rosa,CA,95405
Fircrest Market,998 S Highway 116,Sebastopol,CA,95472
Sonoma Valley Bagel & Coffee,1451 Southwest Blvd #107,Rohnert Park,CA,94928
Helen Lehman School,1700 Jennings Ave,Santa Rosa,CA,95401
J X Wilson School,246 Brittain Ln,Santa Rosa,CA,95401
MD Liquor & Food #3,2446 W 3rd St,Santa Rosa,CA,95401
F.H. Berry Inc. dba Little Ceasars,750 Stony Point Rd Ste A-140,Santa Rosa,CA,95407
"Vine and Barrel, LLC",113 Petaluma Blvd,Petaluma,CA,94952
MD Liquor & Food #10,11812 Old Redwood Hwy,Healdsburg,CA,95448
Safeway Store #911,477 W Napa St,Sonoma,CA,95476
Sonoma Valley Hospital,347 Andrieux St,Sonoma,CA,95476
Fork Catering,9890 Bodega Hwy,Sebastopol,CA,95472
Tacos El Gitano L# 6L80785,2995 Wiljan Ct,Santa Rosa,CA,95407
Subway Petaluma Development Inc.,221 N McDowell Dr,Petaluma,CA,94954
Cape Cod Fish N Chips,7530 Commerce Blvd Ste C,Cotati,CA,94931
Plank Coffee,227 N Cloverdale Blvd,Cloverdale,CA,95425
Glen Ellen Star,13648 Arnold Dr,Glen Ellen,CA,95442
Wills Deli,155 Southwest Blvd,Rohnert Park,CA,94928
Micheles Corner Cakes,459 Portal St #C,Cotati,CA,94931
Little Caesers Pizza,173 N McDowell Blvd #A,Petaluma,CA,94954
Ana's Cafe & Espresso,10333 Old Redwood Hwy #103,Windsor,CA,95492
Rohnert Park Grocery Outlet,6335 Commerce Blvd,Rohnert Park,CA,94928
Benziger Family Winery,1883 London Ranch Rd,Glen Ellen,CA,95442
Chateau St Jean Winery,8555 Highway 12,Kenwood,CA,95452
Hikuni Japanese Seafood & Steakhous,4100 Montgomery Dr #C,Santa Rosa,CA,95405
Target Store - Petaluma,401 Kenilworth Dr Ste 510,Petaluma,CA,94952
Maya Restaurant,103 E Napa St,Sonoma,CA,95476
Burger King #4504,700 N Highway 116,Sebastopol,CA,95472
Selby Winery,215 Center St,Healdsburg,CA,95448
Wilson School,3775 Bodega Ave,Petaluma,CA,94954
University Square Liquor LLC,1451 Southwest Blvd #125,Rohnert Park,CA,94928
Javamore Cafe,10101 Main St,Penngrove,CA,94951
Toad In The Hole,116 5th St,Santa Rosa,CA,95401
Haydon Street Inn,321 Haydon St,Healdsburg,CA,95448
Colleen's Coffee Shop,17175 Bodega Hwy # 1,Bodega,CA,94922
Old Chicago Pizza Delivery,203 N McDowell Blvd,Petaluma,CA,94954
Celebrations Unlimited,545 Pacific Ave,Santa Rosa,CA,95404
Sebastopol Fast Gas,1080 S Gravenstein Hwy,Sebastopol,CA,95472
Carniceria Juanita,1031 Sebastopol Rd,Santa Rosa,CA,95407
Fulton ARCO AM-PM,2500 Guerneville Rd,Santa Rosa,CA,95401
Panda Express #648,301 S McDowell Blvd #A,Petaluma,CA,94952
Donut City,1331 Guerneville Rd #M,Santa Rosa,CA,95403
Palms Grill,18999 Highway 12,Sonoma,CA,95476
Paradise Sushi & Grill,20 E Washington St,Petaluma,CA,94952
Sonoma Hills Retirement Center,405 W MacArthur St,Sonoma,CA,95476
Big Daddy's Diner,913 Golf Course Dr,Rohnert Park,CA,94928
Fresh Donuts,2790 Santa Rosa Ave # 100D,Santa Rosa,CA,95407
Michoacana Natural Ice Cream,18495 Highway 12 #A,Sonoma,CA,95476
AFC Sushi @ Safeway #713,100 Calistoga Rd,Santa Rosa,CA,95409
East West Restaurant,557 Summerfield Rd #A,Santa Rosa,CA,95405
Santa Rosa High School,1235 Mendocino Ave,Santa Rosa,CA,95401
Honey Cuisine,1712 E Cotati Ave,Rohnert Park,CA,94928
KFC / A&W,6610 Hembree Ln,Windsor,CA,95492
Wikiup Racquet & Swim Club,500 Wikiup Dr,Santa Rosa,CA,95401
Buckhorn,615 S Petaluma Blvd,Petaluma,CA,94952
Chipotle Mexican Grill,6325 Commerce Blvd,Rohnert Park,CA,94928
Angelos Meats,2700 Adobe Rd,Petaluma,CA,94952
Pedroncelli Winery,1220 Canyon Rd,Geyserville,CA,95441
Holiday Inn Express,870 Hopper Ave,Santa Rosa,CA,95403
Beltane Ranch Bed & Brkfst,11775 Highway 12,Glen Ellen,CA,95442
Amys Restaurant #2,500 W Napa St #546,Sonoma,CA,95476
Simoncini Vineyards,2303 W Dry Creek Rd,Healdsburg,CA,95448
"Rose Catering, Inc",600 Martin Ave #105,Rohnert Park,CA,94928
Lolas Market & Restaurant,1680 Petaluma Hill Rd,Santa Rosa,CA,95407
Lodge at Paulin Creek,2375 Range Ave,Santa Rosa,CA,95403
Cloverdale High School,509 N Cloverdale Blvd,Cloverdale,CA,95425
Angelos Wine Country Deli,23400 Arnold Dr,Sonoma,CA,95476
Redwood Cafe,8240 Old Redwood Hwy,Cotati,CA,94931
Java Hut,100 Fairgrounds St,Petaluma,CA,94954
Shige Sushi,8235 Old Redwood Hwy,Cotati,CA,94931
Ratna Ling Retreat Center,35755 Hauser Bridge Rd,Cazadero,CA,95421
Jimtown Store,6706 Highway 128,Healdsburg,CA,95448
Round Table Pizza #11,1791 Marlow Rd,Santa Rosa,CA,95401
Ravenswood Winery,18701 Gehricke Rd,Sonoma,CA,95476
Madrone Elementary School,4550 Rinconada Dr,Santa Rosa,CA,95409
Scopa II,330 Healdsburg Ave,Healdsburg,CA,95448
Miwok Elementary School,1010 St Francis,Petaluma,CA,94954
"Shed, The",25 North St,Healdsburg,CA,95448
Round Table Pizza Takeout,2406 Magowan DR,Santa Rosa,CA,95405
Villa,3901 Montgomery Dr,Santa Rosa,CA,95405
Diane Glotzer Catering,5755 Mountain Hawk,Santa Rosa,CA,95409
Sams Market #8,212 S E St,Santa Rosa,CA,95404
Horicon School,35555 Annapolis Rd,Annapolis,CA,95412
Picazo Deli & Cafe,19100 Arnold Dr #A,Sonoma,CA,95476
Santa Rosa Community Market,1899 Mendocino Ave,Santa Rosa,CA,95401
Round Table Pizza #06,550 Montecito Ctr,Santa Rosa,CA,95409
Tov Tofu,1169 Yulupa Ave,Santa Rosa,CA,95405
Los Pinos Deli & Market,3 Tarman Dr,Cloverdale,CA,95425
Pool Mart,16721 Highway 12,Sonoma,CA,95476
Recherche du Plaisir,3401 Cleveland Ave Ste 9,Santa Rosa,CA,95403
Bonneau's at Grove,19080 Arnold Dr,Sonoma,CA,95476
Bennett Valley Senior Center,702 Bennett Valley Rd,Santa Rosa,CA,95404
Hanks Creekside Restaurant,2800 4th St,Santa Rosa,CA,95404
Corby Shell,2575 Corby Ave,Santa Rosa,CA,95407
Taqueria El Gran Taco,40 Calle Del Monte,Sonoma,CA,95476
Johnnys Concession,866 E Washington St #1,Petaluma,CA,94952
La Famiglia,3931 Sebastopol Rd #4,Santa Rosa,CA,95407
Wild Oak Saddle Club,550 White Oak Dr,Santa Rosa,CA,95409
Sonoma Catering II/L#3H22717,2995 Wiljan Ct,Santa Rosa,CA,95407
Sonoma County Catering Commissary#2,2995 Wiljan Ct,Santa Rosa,CA,95407
Larkfield Chevron,4840 Old Redwood Hwy,Santa Rosa,CA,95403
AFC Sushi @ Safeway #998,1115 Vine St,Healdsburg,CA,95448
"Fairgrounds Chevron, Aztec Grill",1100 Bennett Valley Rd,Santa Rosa,CA,95404
Industrial Kitchen/Jimmys Catering Company,1340 Industrial Ave Ste E,Petaluma,CA,94952
Safari West Wildlife Preserve,3115 Porter Creek Rd,Santa Rosa,CA,95404
Thai Taste Restaurant,170 Farmers Ln #8,Santa Rosa,CA,95405
Episcopal Homes Foundation,7777 Bodega Ave,Sebastopol,CA,95472
Rued Winery,3850 Dry Creek Rd,Healdsburg,CA,95448
Lakeville Service Station,5100 Lakeville Hwy,Petaluma,CA,94954
Bernard Eldredge School,207 Maria Dr,Petaluma,CA,94954
Bodega Bay Elementary School,1200 Canon St,Bodega Bay,CA,94923
Subway Sandwiches,1101 Vine St,Healdsburg,CA,95448
E-Saan Thai House Restaurant,18629 Highway 12 #88,Sonoma,CA,95476
Round Table Pizza #01,2424 Magowan Dr,Santa Rosa,CA,95405
Panaderia & Pastries el Palomo,122 E 1st St,Cloverdale,CA,95425
Kika Sushi/Ito Inc dba Kikka at Mol,522 Larkfield Ctr,Santa Rosa,CA,95403
Baker Ave Chevron,1715 Santa Rosa Ave,Santa Rosa,CA,95404
Sweet Spot Pub & Lounge,619 4th St,Santa Rosa,CA,95404
Berrys Market & Deli,3690 Moorland Ave,Santa Rosa,CA,95407
Old Adobe School,2856 Old Adobe Rd,Petaluma,CA,94954
Bodega Coast Inn,521 Highway 1,Bodega Bay,CA,94923
Inn at Sonoma,630 Broadway,Sonoma,CA,95476
C & T's shack dba Mary's Pizza Shack,101 Golf Course Dr Ste B,Rohnert Park,CA,95476
AFC Sushi @ G & G 001,1211 W College Ave,Santa Rosa,CA,95401
Los Tres Chiles,2765 Yulupa Ave,Santa Rosa,CA,95405
Ray' Deli and Tavern Inc,900 Western Ave,Petaluma,CA,94952
El Farolito Mexican Restaurant,128 Plaza St,Healdsburg,CA,95448
Bartletts Market,9890 Main St,Monte Rio,CA,95462
Starbucks Coffee #6764,2780 Stony Point Rd #K,Santa Rosa,CA,95407
Cafe Noto,630 McClelland Dr,Windsor,CA,95492
Boon Eat & Drink,16248 Main St,Guerneville,CA,95446
Eurest @ Medtronic @ Brickway,3850 Brickway Blvd Bldg,Santa Rosa,CA,95403
"Cloverdale Chevron, Aztec Grill",1165 S Cloverdale Blvd,Cloverdale,CA,95425
Starbucks Coffee #6762,459 Rohnert Park Expy,Rohnert Park,CA,94928
Tonayan Mexican Restaurant,500 Raleys Towne Center,Rohnert Park,CA,94928
AMF Boulevard Lanes Bar,1100 S Petaluma Blvd,Petaluma,CA,94952
Ledson Winery & Vineyards,7335 Sonoma Hwy,Santa Rosa,CA,95409
Sebastopol Chevron,5640 Sebastopol Rd,Sebastopol,CA,95472
Austin Creek Elementary School,1480 Snowy Egret Dr,Santa Rosa,CA,95409
Andys Liquors,18002 Highway 12,Boyes Hot Springs,CA,95416
Dominos Pizza #8188,1561 Farmers Ln,Santa Rosa,CA,95405
Madrona Manor Wine Country Inn,1001 Westside Rd,Healdsburg,CA,95448
Duncans Mills General Store,25200 Highway 116,Duncans Mills,CA,95430
Togos Eatery,3573 Industrial Dr,Santa Rosa,CA,95403
Starbucks Coffee #5849,1511 Farmers Ln,Santa Rosa,CA,95405
Proctor Terrace School,1711 Bryden Ln,Santa Rosa,CA,95404
Macs Delicatessen,630 4th St,Santa Rosa,CA,95404
St Francis Solano School,342 W Napa St,Sonoma,CA,95476
Genji Sushi,390 Coddingtown Ctr,Santa Rosa,CA,95401
Sunflower Caffe,421 W 1st St,Sonoma,CA,95476
Hang Ah Dim Sum,2130 Armory Dr,Santa Rosa,CA,95401
Petaluma Pie Company LLC,125 N Petaluma Blvd Ste D/E,Petaluma,CA,94952
Ds Diner,7260 Healdsburg Ave,Sebastopol,CA,95472
Veterans of Foreign Wars,1094 S Petaluma Blvd,Petaluma,CA,94952
Isis Oasis,20889 Geyserville Ave,Geyserville,CA,95441
Lucca Liquors,495 S Main St,Sebastopol,CA,95472
Hunan Kitchen,6650 Commerce Blvd #19,Rohnert Park,CA,94928
Ca Bianca,835 2nd St,Santa Rosa,CA,95404
Macks Bar & Grill,10056 Main St,Penngrove,CA,94951
Chevys Fresh Mex,24 4th St,Santa Rosa,CA,95401
John B Riebli School,315 Mark West Springs Rd,Santa Rosa,CA,95404
"COLORES Ice Cream, Cakes & Food",1546 Sebastopol Rd Ste 5,Santa Rosa,CA,95407
Berrys Market #8,5290 Aero Dr,Santa Rosa,CA,95401
Awesome Food Services Inc. dba Tutti Fruiti,1425 Fulton Rd Ste 301,Santa Rosa,CA,95403
Amista Vineyards,3320 Dry Creek Rd,Healdsburg,CA,95448
San Miguel School,5350 Faught Rd,Santa Rosa,CA,95403
Jack In The Box #3497,2755 Santa Rosa Ave,Santa Rosa,CA,95407
Rotten Robbie #41,201 Southwest Blvd,Rohnert Park,CA,94928
Frozen Art,500 Sebastopol Rd #B,Santa Rosa,CA,95407
Marshalls #549,1966 Santa Rosa Ave,Santa Rosa,CA,95404
Sonoma County Indian Health Project,144 Stony Point Rd,Santa Rosa,CA,95401
Jo-Ann Fabric & Craft Stores #154,3620 Industrial Dr,Santa Rosa,CA,95403
Howards Station Cafe,3611 Main St,Occidental,CA,95465
Olive & Vine,14301 Arnold Dr #3,Glen Ellen,CA,95442
Sonoma Golf Club,17700 Arnold Dr,Sonoma,CA,95476
Carniceria Coalcoman GC,1415 Maple Ave,Santa Rosa,CA,95404
Sam's Market #11,2780 Stony Point Rd Ste P,Santa Rosa,CA,95407
Taqueria El Tapatio,6364 Commerce Blvd,Rohnert Park,CA,94928
Santa Rosa Commissary/La Texanita,250 Sebastopol Rd,Santa Rosa,CA,95407
Starbucks Coffee #640,200 D St,Santa Rosa,CA,95404
Sonoma Valley High School,20000 Broadway,Sonoma,CA,95476
Dierks Parkside Cafe,404 Santa Rosa Ave,Santa Rosa,CA,95404
Flying Goat Coffee,324 Center St,Healdsburg,CA,95448
Sonoma Highway Chevron,4925 Highway 12,Santa Rosa,CA,95409
"Wurst, The",22 Matheson St,Healdsburg,CA,95448
Second Wind,1805 Highway 1,Bodega Bay,CA,94923
Cenaduria La Fondita,816 Sebastopol Rd,Santa Rosa,CA,95407
Wild Goat Bistro,6 N Petaluma Blvd A5,Petaluma,CA,94952
Kaffe Mocha and Grill,397 Aviation Blvd #A,Santa Rosa,CA,95403
AFC Sushi @ Big Johns Market,1345 Healdsburg Ave,Healdsburg,CA,95448
Petaluma Valero,5153 Old Redwood Hwy,Petaluma,CA,94952
Glen Ellen Inn,13670 Arnold Dr,Glen Ellen,CA,95442
Gohan Japanese Restaurant,1367 N McDowell Blvd Ste 150,Petaluma,CA,94954
Subway Sandwich Shop,5306 Old Redwood Hwy #B,Petaluma,CA,95452
La Palapa,590 Lewis Rd,Santa Rosa,CA,95404
Muffin Street Baking Co,52 Mission Cir #112,Santa Rosa,CA,95409
Binkley Elem School,4965 Canyon Dr,Santa Rosa,CA,95409
Simply Strudels,600 S Petaluma Blvd,Petaluma,CA,94952
True North Health,1551 Pacific Ave #6,Santa Rosa,CA,95404
H2 Hotel,219 Healdsburg Ave,Healdsburg,CA,95448
K & L Bistro,119 S Main St,Sebastopol,CA,95472
Starbucks Coffee #5863,205 N McDowell Blvd,Petaluma,CA,94952
Los Arcos Restaurant,1791 Marlow Rd Ste 6,Santa Rosa,CA,95401
Rite Aid #6029,525 Healdsburg Ave,Healdsburg,CA,95448
Burbank School,203 S A St,Santa Rosa,CA,95401
AFC Sushi @ Safeway #1562,2751 4th St,Santa Rosa,CA,95404
Tahoe Chinese Restaurant,6484 Mirabel Rd,Forestville,CA,95436
AFC Sushi @ Olivers Market #3,461 Stony Point Rd,Santa Rosa,CA,95401
Big Boys Buns & Burgers,406 Larkfield Ctr,Santa Rosa,CA,95401
Volpi Grocery & Bar,124 Washington St,Petaluma,CA,94952
Cash & Carry Smart Foodservice,565 Barham Ave,Santa Rosa,CA,95404
El Charro,5979 Commerce Blvd #3&4,Rohnert Park,CA,94928
Colibri Grill Cafe,4233 Montgomery Dr,Santa Rosa,CA,95405
Imagery Estate Winery,14335 Highway 12,Glen Ellen,CA,95442
Lunch Stop @ Kaiser Cafeteria,401 Bicentennial WY #C,Santa Rosa,CA,95403
Levy Premium Food-Event Kit-BLDG M,29355 Arnold Dr,Sonoma,CA,95476
Fast & Easy Mart,7285 Snyder Ln #C,Rohnert Park,CA,94928
Safeway Store #713,100 Calistoga Rd,Santa Rosa,CA,95409
Vitamin Shoppe The,2661 Santa Rosa Ave,Santa Rosa,CA,95407
Golden Spring Mandarin Cuisine,18995 Sonoma Hwy Ste 105,Sonoma,CA,95476
McDonalds #3474,103 N McDowell Blvd,Petaluma,CA,94954
Yeti,14301 Arnold Dr #19,Glen Ellen,CA,95442
Laguna High School,445 Taft St,Sebastopol,CA,95472
7-Eleven #14125G,1401 Maple Ave,Santa Rosa,CA,95404
El Charro Mexican Restaurant,1529 Farmers Ln,Santa Rosa,CA,95405
Hilliard Comstock Middle School,2750 W Steele Ln,Santa Rosa,CA,95403
Fru-ta,2770 Stony Point Rd Ste H,Santa Rosa,CA,95407
9th Street Market,766 Wilson St,Santa Rosa,CA,95401
AFC Sushi @ Olivers,546 E Cotati Ave #AFC,Cotati,CA,94928
Pegi Ball Catering,3308 Industrial Dr #1,Santa Rosa,CA,95403
Piacere Ristorante Italiano,504 N Cloverdale Blvd,Cloverdale,CA,95425
Sonoma Community Center,276 E Napa St,Sonoma,CA,95476
Taqueria Lagos,2995 Wiljan Ct,Santa Rosa,CA,95407
Red Boy Pizza #7,1420 S McDowell Blvd Ste A,Petaluma,CA,94954
Meals On Wheels,275 E Spain St,Sonoma,CA,95476
Steele Lane School,301 Steele Ln,Santa Rosa,CA,95403
Hopmonk Tavern Sonoma,691 Broadway,Sonoma,CA,95476
Spring Lake Restaurant,4219 Montgomery Dr,Santa Rosa,CA,95405
Sonoma Bagel & Deli,515 Hahman Dr,Santa Rosa,CA,95405
McDonalds,1702 E Cotati Ave,Rohnert Park,CA,94928
Lodge at Sonoma,1325 Broadway,Sonoma,CA,95476
Dinuccis Italian Dinners,14485 Highway 1,Valley Ford,CA,94972
BJ's Restaurant and Brewhouse,334 Coddingtown Ctr A,Santa Rosa,CA,95401
Fika Pizza @ Scandia,5301 Redwood Dr,Rohnert Park,CA,94928
Hidden Valley School,3435 Bonita Vista Ln,Santa Rosa,CA,95404
Amarosa Academy,3261 Dutton Ave,Santa Rosa,CA,95407
River Inn Grill,16141 Main St,Guerneville,CA,95446
Cloverdale Healthcare Center LHC,300 Cherry Creek Rd,Cloverdale,CA,95425
Papas and Pollo Corp,915 S Gravenstein Hwy,Sebastopol,CA,95472
Santa Rosa Middle School,500 E St,Santa Rosa,CA,95404
Walgreen #3297,3093 Marlow Rd,Santa Rosa,CA,95403
Walgreen #06722,4610 Highway 12,Santa Rosa,CA,95409
Atlas Coffee Company,300 S A St #4,Santa Rosa,CA,95401
Traxx Bar & Grill,219 Lakeville St,Petaluma,CA,94952
Freds Liquors,6679 Front St,Forestville,CA,95436
Elsie Allen High School,599 Bellevue Ave,Santa Rosa,CA,95407
Andys Donuts & Bagel,1784 Piner Rd,Santa Rosa,CA,95403
24/7 Gas Service Company Inc,701 Mendocino Ave,Santa Rosa,CA,95401
Casa Del Mar,3660 Stony Point Rd,Santa Rosa,CA,95407
Mi Casita Oaxaquena,5503 Old Redwood Hwy,Santa Rosa,CA,95403
7-Eleven #34334A,1760 Piner Rd,Santa Rosa,CA,95403
Fourth & Sea Fish & Chips,101 4th St,Petaluma,CA,94952
Jack and Tony's,115 4th St,Santa Rosa,CA,95401
McDonalds-Walmart #3764,4625 Redwood Dr,Rohnert Park,CA,94928
SSU Charlie Browns,1801 E Cotati Ave,Rohnert Park,CA,94928
Roasters Espresso Bar,6656 Front St,Forestville,CA,95436
Levy Premium Food Service-BLDG A,29355 Arnold Dr,Sonoma,CA,95476
Corks Restaurant,5700 N Gravenstein Hwy,Forestville,CA,95436
Jaya Guru Maharaj LLC dba Kafal Restaurant,535 Ross Rd,Santa Rosa,CA,95401
Starbucks Coffee #5778,4575 Highway 12,Santa Rosa,CA,95409
Lewis & Hylas LLC DBA Locals,21023 Geyserville Ave #A,Geyserville,CA,95441
Dollar Tree Store #3827,18615 Highway 12 #103,Sonoma,CA,95476
SSU Gymnasium Snackbar,1801 E Cotati Ave,Rohnert Park,CA,94928
Martins Taqueria,10333 Old Redwood Hwy #105,Windsor,CA,95492
AFC Sushi @ G&G #2,701 Sonoma Mountain Pky #AFC,Petaluma,CA,94954
Dollar Tree Stores #2262,1041 Vine St,Healdsburg,CA,95448
China Chef Restaurant,7991 Old Redwood Hwy,Cotati,CA,94931
Lakeville Shell,1001 Lakeville St,Petaluma,CA,94952
Dollar Tree Stores #2168,2747 Yulupa Ave,Santa Rosa,CA,95405
"Catered Affair, A",5440 State Farm Dr Ste 3,Rohnert Park,CA,94928
Safeway Store #950,16405 River Rd,Guerneville,CA,95446
Feast Catering,3100 Dutton Ave #132,Santa Rosa,CA,95407
Bergamot Alley,328 Healdsburg Ave Ste A,Healdsburg,CA,95448
Tex Wasabis,515 4th St,Santa Rosa,CA,95404
SSU - Green Music Center Complex,1801 E Cotati Ave,Rohnert Park,CA,94928
Chevron #1511,4999 N Petaluma Blvd,Petaluma,CA,94952
Flying Goat Coffee #419,419 Center St,Healdsburg,CA,95448
Cucina Paradiso,114 N Petaluma Blvd,Petaluma,CA,94952
D'Argenzio Winery Inc,1301 Cleveland Ave Ste A,Santa Rosa,CA,95401
AFC Sushi @ Safeway 1434,9080 Brooks Rd,Windsor,CA,95492
Valero,1101 Yulupa Ave,Santa Rosa,CA,95405
Davis Family Vineyards,52 Front St,Healdsburg,CA,95448
Spinster Sisters LLC,401 S A St,Santa Rosa,CA,95405
Chevron #1755,540 W Napa St,Sonoma,CA,95476
Huna Kitchen,400 W 3rd St,Santa Rosa,CA,95403
Sonoma Valley Moose Lodge #2048,20580 Broadway,Sonoma,CA,95476
Pho Vietnam,711 Stony Point Rd # 8-A,Santa Rosa,CA,95407
Lupes Diner,710 McClelland Dr,Windsor,CA,95492
Raleys,157 N McDowell Blvd,Petaluma,CA,94954
S & K Subs Inc dba Subway,2688 Santa Rosa Ave Ste B,Santa Rosa,CA,95404
Coffee Catz,6761 Sebastopol Ave Ste 600,Sebastopol,CA,95472
Chevron Extra Mile,483 E Washington St,Petaluma,CA,94952
Finley Aquatic Center Concession,2060 W College Ave,Santa Rosa,CA,95401
Crystals Corner,1185 Yulupa Ave,Santa Rosa,CA,95405
Tans Donut,2550 Guerneville Rd #E,Santa Rosa,CA,95401
Thomas George Estates,8075 Westside Rd,Healdsburg,CA,95448
Santa Rosa Jr College (Petaluma),680 Sonoma Mountain PKY,Petaluma,CA,94952
Dollar Tree Stores #1868,4675 Redwood Dr,Rohnert Park,CA,94928
Monte Vista School,1400 Magnolia Ave,Rohnert Park,CA,94928
Petaluma Health & Rehabilitation,300 Douglas St,Petaluma,CA,94952
Bonneaus Tire & Auto,23003 Arnold Dr,Sonoma,CA,95476
College Oak Montessori School,1925 W College Ave,Santa Rosa,CA,95401
Gio's Pizza,2700 Yulupa Ave Ste 5,Santa Rosa,CA,95405
Petaluma Elks Lodge #901,2105 S McDowell Ext,Petaluma,CA,94954
El Verano School,18606 Riverside Dr,El Verano,CA,95433
Toyo Japanese Bistro,3082 Marlow Rd #B-3,Santa Rosa,CA,95403
Ozzie's Grill,799 Montecito Ctr,Santa Rosa,CA,95409
Dollar Tree #2162,777 Sebastopol Rd,Santa Rosa,CA,95401
Petaluma 76 & Hong Kong Cafe,4998 N Petaluma Blvd,Petaluma,CA,94952
Mels Fish & Chips,1016 Hopper Ave,Santa Rosa,CA,95403
Ting Hau Restaurant,717 4th St,Santa Rosa,CA,95404
La Reyna Bakery,1201 Piner Rd Ste 210,Santa Rosa,CA,95403
Cloverdale KOA Store,1166 Asti Ridge Rd,Cloverdale,CA,95425
Bistro Twenty-nine,620 5th St,Santa Rosa,CA,95404
Pack Jack Barbeque Inn,3963 Gravenstein Hwy,Sebastopol,CA,95472
"La Texanita Restaurant, Inc",1667 Sebastopol Rd,Santa Rosa,CA,95407
Dennys Restaurant #7453,4986 N Petaluma Blvd,Petaluma,CA,94952
Petaluma High School Cafeteria,201 Fair St,Petaluma,CA,94952
"Restaurant at Hotel La Rose-Bistro 1907, The",308 Wilson St,Santa Rosa,CA,95401
Andresens Tavern,19 Western Ave,Petaluma,CA,94952
Salmon Creek Middle School,1935 Bohemian Hwy,Occidental,CA,95465
Friar Tucks Pub & Spirits,8201 Old Redwood Hwy #2,Cotati,CA,94931
Flowery School,17600 Highway 12,Sonoma,CA,95476
Peloton Catering,417 Healdsburg Ave,Healdsburg,CA,95448
El Taco Grande,425 Center St,Healdsburg,CA,95448
Spud Point Crab Co,1860 Bay Flat Rd,Bodega Bay,CA,94923
Coddingtown Valero & Subway,100 Coddingtown Ctr,Santa Rosa,CA,95401
Maguire's Irish Pub,145 Kentucky St,Petaluma,CA,94952
Asiana Market,7665 Old Redwood Hwy,Cotati,CA,94931
San Antonio School,500 Vallejo St,Petaluma,CA,94952
McNear Elementary School,605 Sunnyslope Ave,Petaluma,CA,94952
Safeway Store #1562,2751 4th St,Santa Rosa,CA,95404
Finley Center Rental Kitchen,2060 W College Ave,Santa Rosa,CA,95401
Scottish Rite Masonic,600 Acacia Ln,Santa Rosa,CA,95409
Ohana BBQ,205 S McDowell Blvd,Petaluma,CA,94954
Thumbprint Cellars,102 Matheson St,Healdsburg,CA,95448
Canton Restaurant,951 Lakeville,Petaluma,CA,94952
Ursuline High School,90 Ursuline Rd,Santa Rosa,CA,95403
Straw Hat Pizza,919 Golf Course Dr,Rohnert Park,CA,94928
Raleys #313,1407 Fulton Rd,Santa Rosa,CA,95403
La Perla Market,6650 Commerce Blvd #1,Rohnert Park,CA,94928
Parkpoint Health Club,195 Foss Creek Cir,Healdsburg,CA,95448
Starbucks Coffee #3470,2755 Yulupa Ave,Santa Rosa,CA,95405
Yogurt Time,755 Farmers Ln Ste 100,Santa Rosa,CA,95405
Los Caballos,3125 Cleveland Ave,Santa Rosa,CA,95403
Citi Coffee,401 Bicentennial Way,Santa Rosa,CA,95403
Casa Del Mole,434 Center St,Healdsburg,CA,95448
Jack In The Box #596,1401 N McDowell Blvd,Petaluma,CA,94952
Starbucks Coffee #10339,640 E Cotati Ave #S,Cotati,CA,94931
China Star,2101 W College Ave #101,Santa Rosa,CA,95401
Taqueria Santa Rosa,1950 Mendocino Ave,Santa Rosa,CA,95401
Jack In The Box #484,837 E Washington St,Petaluma,CA,94952
La Bufa,703 4th St,Santa Rosa,CA,95404
Druids Santa Rosa #121,1011 College Ave,Santa Rosa,CA,95404
Roseland Creek Elementary School,1683 Burbank Ave,Santa Rosa,CA,95407
Sees Candies,1071 Santa Rosa Plaza,Santa Rosa,CA,95404
Hot Shots Espresso #2,18709 Arnold Dr,Sonoma,CA,95476
McKinley Elementary School,110 Ellis St,Petaluma,CA,94952
Lucky #741,1000 N Petaluma Blvd,Petaluma,CA,94952
Starbucks Coffee #5975,5306 Old Redwood Hwy #C,Petaluma,CA,94954
Jojo Sushi & Restaurant,645 4th St,Santa Rosa,CA,95404
Starks Steakhouse,521 Adams St,Santa Rosa,CA,95401
Foppiano L Wine Co,12707 Old Redwood Hwy,Healdsburg,CA,95448
Fountaingrove Golf & Athletic Club,1525 Fountain Grove PKY,Santa Rosa,CA,95403
Lone Palm Coffee von Tillow Venture,1400 Fountain Grove Pky 2Link,Santa Rosa,CA,95403
Healdsburg Inn On The Plaza,112 Matheson St,Healdsburg,CA,95448
Lucky #778,19181 Highway 12,Sonoma,CA,95476
Grant School,200 Grant Ave,Petaluma,CA,94952
Penngrove Elementary School,365 Adobe Rd,Penngrove,CA,94951
Rosso's Pizzaria & Wine Bar,53 Montgomery Dr,Santa Rosa,CA,95404
Ortegas Market,1331 Guerneville Rd # J,Santa Rosa,CA,95403
Petaluma Market,210 Western Ave,Petaluma,CA,94952
Truett Hurst Winery,5610 Dry Creek Rd,Healdsburg,CA,95448
Juice Shack #105,2154 Santa Rosa Ave,Santa Rosa,CA,95401
Preferred Sonoma Caterers,416 E D St,Petaluma,CA,94952
Valley Vista School,730 N Webster St,Petaluma,CA,94952
"Fremont, The",2698 Fremont Dr,Sonoma,CA,95476
Tamales Magos,3448 Santa Rosa Ave,Santa Rosa,CA,95407
Raleys #337,100 Raleys Towne Center,Rohnert Park,CA,94928
Roseland Collegiate Prep,100 Sebastopol Rd,Santa Rosa,CA,95407
Birria Medrano,10333 Old Redwood Hwy #101,Windsor,CA,95492
"Jaded Toad BBQ & Grill, The",275 Windsor River Rd,Windsor,CA,95492
Montis,714 Village Ct,Santa Rosa,CA,95405
Infusions,6988 McKinley St,Sebastopol,CA,95472
9 Islands Bakery,1 Padre Pky Ste D,Rohnert Park,CA,94928
Casa Grande High School,333 Casa Grande Rd,Petaluma,CA,94954
Kenilworth Junior High School,800 Reisling Rd,Petaluma,CA,94954
Willowbrook Ale House,3600 N Petaluma Blvd,Petaluma,CA,94952
El Coronel Catering Truck,1015 S Gravenstein Hwy,Sebastopol,CA,95472
Remy's Bar & Grill,130 Stony Point Rd Ste A,Santa Rosa,CA,95401
Big Johns Market,1345 Healdsburg Ave,Healdsburg,CA,95448
Tayman Park Golf Group Inc,927 S Fitch Mountain Rd,Healdsburg,CA,95448
Skillets Cafe,8776 Lakewood Dr,Windsor,CA,95492
Juice Shack #106,447 W Rohnert Park Expy,Rohnert Park,CA,94928
Brixx,16 Kentucky St,Petaluma,CA,94952
Portalupi Wine Co Inc,107 North St,Healdsburg,CA,95448
"Casino, The",17000 Bodega Hwy,Bodega,CA,94922
Lucky #776,915 Village Ct,Santa Rosa,CA,95405
Sams For Play Cafe & Catering,2630 Cleveland Ave,Santa Rosa,CA,95403
Bear Republic Brewing Co,345 Healdsburg Ave,Healdsburg,CA,95448
Sunce Winery,1839 Olivet Rd,Santa Rosa,CA,95401
Gloria Ferrer Winery,23555 Highway 121,Sonoma,CA,95476
Friedman Center,4676 Mayette Ave,Santa Rosa,CA,95405
Spring Hill Jersey Cheese,711 Western Ave,Petaluma,CA,94952
Peter Lowells,7385 Healdsburg Ave,Sebastopol,CA,95472
Merriam Vineyards,11650 Los Amigos Rd,Healdsburg,CA,95448
Canteen Service of N CA Inc,3025 Dutton Ave,Santa Rosa,CA,95407
Lynn's Thai Restaurant,8492 Highway 116 Ste M,Cotati,CA,94931
Clos du Bois Wines Vineyard,910 Lytton Station Rd,Geyserville,CA,95441
Juice Shack #109,750 Stony Point Rd #A-14,Santa Rosa,CA,95407
Lucky #775,150 Bicentennial WY,Santa Rosa,CA,95403
Page's Diner,1039 W College Ave,Santa Rosa,CA,95401
M Ks Jelly Donut & Pure Water,7237 Healdsburg Ave,Sebastopol,CA,95472
Fritz Cellars,24691 Dutcher Creek Rd,Cloverdale,CA,95425
Kettles Vietnamese Bistro,1202 W Steele Ln,Santa Rosa,CA,95403
Healdsburg District Hospital,1375 University Ave,Healdsburg,CA,95448
Stop N Save,1078 Wright Rd,Santa Rosa,CA,95407
Mexico Lindo,9030 Graton Rd,Graton,CA,95444
Rivers End Restaurant,11048 Highway 1,Jenner,CA,95450
Don Panchos Mexican Restaurant,285 N McDowell Blvd,Petaluma,CA,94954
Downtown Bakery & Creamery Inc,308 Center St #A,Healdsburg,CA,95448
Bravas Bar de Tapas,420 Center St,Healdsburg,CA,95448
Delorimier Vineyards & Winery,2001 Highway 128,Geyserville,CA,95441
North Valley School-Multipurpose,3164 Condo Ct,Santa Rosa,CA,95403
Taqueria Santa Rosa #5,791 Montecito Ctr,Santa Rosa,CA,95409
"Original Superburger, The",1501 4th St,Santa Rosa,CA,95404
Hartford Family Winery,8075 Martinelli Rd,Forestville,CA,95436
Marys Pizza Shack #1,18636 Highway 12,Boyes Hot Springs,CA,95416
Tipp Thai Cuisine,1778 Piner Rd,Santa Rosa,CA,95403
Swiss Hotel,18 W Spain St,Sonoma,CA,95476
Pub Republic,3120 Lakeville Hwy Ste A,Petaluma,CA,94954
Sake O,505 Healdsburg Ave,Healdsburg,CA,95448
AFC Sushi/Tik Tok Wok @ Safeway #3011,389 S McDowell Rd,Petaluma,CA,94952
Grand Chevron,2145 Mendocino Ave,Santa Rosa,CA,95401
Eight Cuisine and Wine,7503 Healdsburg Ave,Sebastopol,CA,95472
Hawkes,6734 Highway 128,Healdsburg,CA,95448
Willowside School,5285 Hall Rd,Santa Rosa,CA,95401
Petaluma Shell,801 E Washington St,Petaluma,CA,94952
Inn At The Tides,800 Highway 1,Bodega Bay,CA,94923
Chalk Hill Estates Winery,10300 Chalk Hill Rd,Healdsburg,CA,95448
A La Heart Catering,600 Wilson St,Santa Rosa,CA,95401
Brooks Elementary School,750 Natalie Dr,Windsor,CA,95492
The Oaks,450 Hayes Ln,Petaluma,CA,94952
Oak Grove School,8760 Bower St,Sebastopol,CA,95472
Mary's Pizza Shack Inc.,1143 S Cloverdale Blvd,Cloverdale,CA,95425
Salvation Army,93 Stony Cir,Santa Rosa,CA,95401
Sprouts Farmers Market,401 Kenilworth Dr Ste 1040,Petaluma,CA,94952
Redwood Gospel Mission,101 6th St,Santa Rosa,CA,95401
Marys Pizza Shack #5,535 Summerfield Rd,Santa Rosa,CA,95405
Teriyaki Chicken Bowl,473 Stony Point Rd,Santa Rosa,CA,95401
Steel Bear Deli,5155 N Old Redwood Hwy,Petaluma,CA,94954
LoCocos Cucina Rustica,117 4th St,Santa Rosa,CA,95401
Windsor Care Center of Petaluma,523 Hayes St,Petaluma,CA,94952
O Sushi,443 Dutton Ave #2,Santa Rosa,CA,95407
Healdsburg Senior High,1024 Prince St,Healdsburg,CA,95448
Ochoas Mexican Food,777 S Gravenstein Hwy,Sebastopol,CA,95472
Mattie Washburn Elementary School,75 Pleasant Ave,Windsor,CA,95492
Juice Shack #104,901 Village Ct,Santa Rosa,CA,95405
St Eugenes School,300 Farmers Ln,Santa Rosa,CA,95405
Point Reyes Oyster Co Inc dba: Bodega Oyster Co,12830 Valley Ford Rd,Petaluma,CA,94952
Dutton - Goldfield Winery,3100 Gravenstein Hwy,Sebastopol,CA,95472
Windsor High School,8695 Windsor Rd,Windsor,CA,95492
Cotijas Market,228 S Cloverdale Blvd,Cloverdale,CA,95425
Roadhouse Coffee,1580 Eastshore Rd Ste I,Bodega,CA,94923
Beverages & More!,2090 Santa Rosa Ave,Santa Rosa,CA,95404
Swirl Time Yogurt,1718 E Cotati Ave,Cotati,CA,94931
China Bowl Bistro,1940 Piner Rd Ste 600,Santa Rosa,CA,95403
Farmhouse Inn,7871 River Rd,Forestville,CA,95436
Taqueria El Favorito #1,565 Sebastopol Rd,Santa Rosa,CA,95407
Hunan Village,295 N McDowell Blvd,Petaluma,CA,94954
Gundlach Bundschu Winery,2000 Denmark St,Sonoma,CA,95476
Taqueria El Favorito #2,6466 Redwood Dr,Rohnert Park,CA,94928
Paradise Ridge Winery,8860 Sonoma Hwy,Kenwood,CA,95452
Cal Skate of Rohnert Park,6100 Commerce Blvd,Rohnert Park,CA,94928
Ochoas Mexican Restaurant,3080 Marlow Rd #A-10,Santa Rosa,CA,95403
Taqueria El Coronel,1015 S Gravenstein Hwy,Sebastopol,CA,95472
Sbarro Italian Eatery,2108 Santa Rosa Plaza,Santa Rosa,CA,95401
Acropolis,5381 S Redwood Hwy,Petaluma,CA,94952
Wayne's Grill & Sushi,6620 Commerce Blvd,Rohnert Park,CA,94928
Pelican Plaza Grocery & Deli,1400 Highway 1,Bodega Bay,CA,94923
7-Eleven,43 Middle Rincon Rd,Santa Rosa,CA,95409
Airport Cinema 12,409 Aviation WY,Santa Rosa,CA,95403
Healdsburg Junior High,315 Grant St,Healdsburg,CA,95448
El Patio Mexican Food,425 Stony Point Rd,Santa Rosa,CA,95401
St Johns School,217 Fitch St,Healdsburg,CA,95448
Jack In The Box #456,6299 Commerce Blvd,Rohnert Park,CA,94928
Piner Cafe,975 Piner Rd,Santa Rosa,CA,95403
Healdsburger,48 Healdsburg Ave,Healdsburg,CA,95448
Dry Creek Vineyard,3770 Lambert Bridge Rd,Healdsburg,CA,95448
St Luke Evangelical Lutheran Church,905 Mendocino Ave,Santa Rosa,CA,95401
Happy Hen Diner,3020 Santa Rosa Ave,Santa Rosa,CA,95407
Blue Heron Restaurant & Tavern,25300 Steelhead Blvd,Duncans Mills,CA,95430
Quick Pick Market,925 Corporate Center Pky #J,Santa Rosa,CA,95401
Santa Rosa Liquor & Deli,3355 Santa Rosa Ave,Santa Rosa,CA,95407
7-Eleven #2231-17464 C,860 Perry Ln,Petaluma,CA,94954
Idanias Gourmet,2995 Wiljan Ct,Santa Rosa,CA,95407
Food Max #468/Save Mart Supermarkets,605 Rohnert Park Expy,Rohnert Park,CA,94928
St Rose Parish Center,348 10th St #C,Santa Rosa,CA,95401
Friends House,684 Benicia Dr,Santa Rosa,CA,95409
Healdsburg Elementary,400 1st St,Healdsburg,CA,95448
S Y Ice Cream L#7F07698,40 California St,Vallejo,CA,94567
7-Eleven #24288,904 Healdsburg Ave,Healdsburg,CA,95448
S F North/Petaluma KOA,20 Rainsville Rd,Petaluma,CA,94952
Los Amigos Billiards LLC,3020 Santa Rosa Ave #A,Santa Rosa,CA,95407
Su Casa Mexican Restaurant,108 Calistoga Rd,Santa Rosa,CA,95409
Marys Pizza Shack #3,359 E Washington St,Petaluma,CA,94952
Baskin Robbins,130 Calistoga Rd,Santa Rosa,CA,95409
Starbucks Coffee #8675,1196 S Cloverdale Blvd,Cloverdale,CA,95425
Cost Plus Imports,2685 Santa Rosa Ave,Santa Rosa,CA,95401
Costco Wholesale #41,1900 Santa Rosa Ave,Santa Rosa,CA,95407
Dry Creek Kitchen,317 Healdsburg Ave,Healdsburg,CA,95448
Taqueria La Tapatia Inc,16632 Highway 116,Guerneville,CA,95446
Healdsburg Elementary-Fitch Campus,520 Monte Vista Ave,Healdsburg,CA,95448
Lasseter Family Winery,12200 Vintage Ln,Glen Ellen,CA,95442
Pic & Pay Market,15195 Arnold Dr,Glen Ellen,CA,95442
Fundamental Foods,463 Sebastopol Ave,Santa Rosa,CA,95401
In-N-Out Burger Restaurant #113,5145 Redwood Dr,Rohnert Park,CA,94928
Sushiko,6265 Commerce Blvd Ste 174,Rohnert Park,CA,94928
Hana Japanese Restaurant,101 Golf Course Dr,Rohnert Park,CA,94928
Coffee ala Cart,3413 Petaluma Blvd,Petaluma,CA,94952
Big 5 Sporting Goods #152,105 N McDowell Blvd,Petaluma,CA,94952
Twomey Cellars LLC,3004 Westside Rd,Healdsburg,CA,95448
Quality Inn - Petaluma,5100 Montero WY,Petaluma,CA,94954
Belle De Jour Inn,16276 Healdsburg Ave,Healdsburg,CA,95448
Korbel Delicatessen & Market,13250 River Rd,Guerneville,CA,95446
Costco Wholesale #659,5901 Redwood Dr,Rohnert Park,CA,94928
El Patio Mexican Food #2,901 4th St,Santa Rosa,CA,95404
7-Eleven #14144F,1779 Corby Ave,Santa Rosa,CA,95407
Albert F Biella School,2140 Jennings Ave,Santa Rosa,CA,95401
Toys R Us,2705 Santa Rosa Ave,Santa Rosa,CA,95407
Big River Coffee Co Inc,3345 Industrial Dr #18,Santa Rosa,CA,95403
Lombardis Gourmet Deli & BBQ,3413 N Petaluma Blvd,Petaluma,CA,94952
Trader Joes,169 N McDowell Blvd,Petaluma,CA,94954
Schaefer Elementary School,1370 San Miguel Ave,Santa Rosa,CA,95403
Herbert Slater Middle School,3500 Sonoma Ave,Santa Rosa,CA,95405
Noodle Palace,1310 Petaluma Hill Rd,Santa Rosa,CA,95405
CVS/Pharmacy #00345,1111 S Cloverdale Blvd,Cloverdale,CA,95425
CVS/Pharmacy #9163,291 N McDowell Blvd,Petaluma,CA,94954
7-Eleven #14159,2100 W Steele Ln,Santa Rosa,CA,95403
CVS/Pharmacy #01173,455 Center St,Healdsburg,CA,95448
Petaluma Care & Rehabilitation,1115 B St,Petaluma,CA,94952
Rancho Cotati High School,5450 Snyder Ln,Rohnert Park,CA,94928
CVS/Pharmacy #314,6378 Commerce Blvd,Rohnert Park,CA,94928
CVS/Pharmacy #09393,2075 Mendocino Ave,Santa Rosa,CA,95401
Robert L Stevens School,2345 Giffen Ave,Santa Rosa,CA,95407
Sophys Donuts,202 Douglas St,Petaluma,CA,94952
Odd Fellows Hall Association,545 Pacific Ave,Santa Rosa,CA,95404
Buffalo Billiards,246 N Petaluma Blvd,Petaluma,CA,94952
El Brinquito Restaurant,810 Piner Rd Ste A,Santa Rosa,CA,95403
Piner Elementary School,2590 Piner Rd,Santa Rosa,CA,95401
Super 8 Cloverdale,1147 S Cloverdale Blvd,Cloverdale,CA,95425
Odd Fellows Park Store,13350 Riverside Rd,Guerneville,CA,95446
Hidden Oak Inn,214 E Napa St,Sonoma,CA,95476
Calderwood Inn,25 W Grant,Healdsburg,CA,95448
Tudor Rose,733 4th St,Santa Rosa,CA,95404
Mr. Pickle's Sandwich Shop,4100 Montgomery Dr Ste D,Santa Rosa,CA,95405
Thomas Page Elementary,1075 Madrone Ave,Rohnert Park,CA,94928
CVS/Pharmacy #362,463 Stony Point Rd,Santa Rosa,CA,95401
Sova Gardens,5186 S Highway 116,Sebastopol,CA,95472
Smart & Final #409,2805 Santa Rosa Ave,Santa Rosa,CA,95407
Sprenger's Tap Room,446 B St,Santa Rosa,CA,95401
Barley and Hops,3688 Bohemian Hwy,Occidental,CA,95465
Taqueria Las Palmas,415 Santa Rosa Ave,Santa Rosa,CA,95404
Council on Aging @ Cloverdale Sr Ctr,311 N Main St,Cloverdale,CA,95425
7-Eleven #14137,430 Washington St,Petaluma,CA,94952
M G Events LLC,3695 N Petaluma Blvd,Petaluma,CA,94952
Burger King #7861,2106 Santa Rosa Plaza,Santa Rosa,CA,95401
"Windsor Chevron, Aztec Grill",9120 Old Redwood Hwy,Windsor,CA,95492
K-Mart Little Caesars #4340,3771 Cleveland Ave,Santa Rosa,CA,95403
Agius Market & Batemon Meats,4691 Bodega Ave,Petaluma,CA,94954
TCBY & Moxie Java,7285 Snyder Ln #A,Rohnert Park,CA,94928
Johnny Garlics,1460 Farmers Ln,Santa Rosa,CA,95405
Apple Blossom Mini Market,865 N Gravenstein Hwy,Sebastopol,CA,95472
Walnut Park Grill,310 D St,Petaluma,CA,94952
Phyllis Giant Burgers,4910 Highway 12 #A,Santa Rosa,CA,95409
Mandarin Chinese Restaurant,2781 Yulupa Ave,Santa Rosa,CA,95405
Quik Stop Market #118,990 Grove St,Sonoma,CA,95476
Thumbs Up Burgers and Deli,8465 Old Redwood Hwy #300,Windsor,CA,95492
Vineyards Inn,8445 Highway 12,Kenwood,CA,95452
Quik Stop Market #106,501 W 9th St,Santa Rosa,CA,95401
Sonoma Coast Villa & Spa,16702 Highway 1,Valley Ford,CA,94972
Bovine Bakery,23 Kentucky St,Petaluma,CA,94952
Stryker Sonoma Winery,5110 Highway 128,Geyserville,CA,95441
Brighton Gardens,300 Fountaingrove PKY,Santa Rosa,CA,95403
Flavor,96 Old Courthouse Sq,Santa Rosa,CA,95404
Westside Grill,3082 Marlow Rd #B8,Santa Rosa,CA,95403
Council on Aging-Hlbg Senior Ctr,133 Matheson St,Healdsburg,CA,95448
Fountaingrove Inn & Conference Ctr,101 Fountaingrove PKY,Santa Rosa,CA,95403
Taqueria El Capitan,544 Mendocino Ave,Santa Rosa,CA,95401
VML,4035 Westside Rd,Healdsburg,CA,95448
Subway #46154,16316 Main St,Guerneville,CA,95446
Christy's on The Square,96 Old Courthouse Sq 2nd Floor,Santa Rosa,CA,95404
Garcia's Bakery,555 W 5th St,Sonoma,CA,95476
Red Horse Pizza,431 Payran St #B,Petaluma,CA,94952
San's Market,2790 Santa Rosa Ave Ste 100A,Santa Rosa,CA,95407
G & G Supermarket,1211 W College Ave,Santa Rosa,CA,95401
Council on Aging-Frstvle Dn,6550 Covey St,Forestville,CA,95436
Subway Sandwiches & Salads #29636,2424 Midway Dr,Santa Rosa,CA,95405
Berry Yummy,708 E Washington St,Petaluma,CA,94952
Sonoma's Best,1190 East Napa St,Sonoma,CA,95476
Scopa,109 Plaza St #A,Healdsburg,CA,95448
Ikes Place,1780 Mendocino Ave,Santa Rosa,CA,95404
Taco Bell #15389,860 N Highway 116,Sebastopol,CA,95472
Papas Pizza Cafe,117 E 1st St,Cloverdale,CA,95425
Sandys Take N Bake Pizza,2015 Elizabeth WY,Santa Rosa,CA,95404
Mayacamas Ranch,3975 Mountain Home Ranch Rd,Calistoga,CA,94515
Yulupa School,2250 Mesquite Dr,Santa Rosa,CA,95405
Vintage House,264 E 1st St,Sonoma,CA,95476
Kawana School,2121 Moraga Dr,Santa Rosa,CA,95404
Graffiti,101 2nd St #190,Petaluma,CA,94952
Giorgis Wedding Cakes,1221 El Cobar Ct,Windsor,CA,95492
Taco Bell #17329,923 Hopper Ave,Santa Rosa,CA,95403
Mark West School,4600 Lavell Rd,Santa Rosa,CA,95403
Pohleys Deli,341 Windsor River Rd,Windsor,CA,95492
Sonoma County Junior College District,1670 Mendocino Ave,Santa Rosa,CA,95401
Westwood Winery Tasting Salon,11 E Napa St #3,Sonoma,CA,95476
Boat House Sushi,6278 Redwood Dr,Rohnert Park,CA,94928
Cotati Food & Gas Mart - Chevron,766 E Cotati Ave,Cotati,CA,94931
Golden China Restaurant,5306 Old Redwood Hwy #A,Petaluma,CA,94954
Vintage Valley Catering,149 Healdsburg Ave,Healdsburg,CA,95448
Rubios Fresh Mexican Grill #153,1016 Santa Rosa Plaza,Santa Rosa,CA,95401
La Dolce Vita Wine Lounge,151 S Petaluma Blvd #117,Petaluma,CA,94952
Jefferson Elementary School,315 North St,Cloverdale,CA,95425
Dianas Taqueria,8430 Old Redwood Hwy,Windsor,CA,95492
Old Mexico,4501 Montgomery Dr,Santa Rosa,CA,95409
Geyserville School Cafeteria,1300 Moody Ln,Geyserville,CA,95441
La Plaza Garibaldi,6650 Commerce Blvd #5,Rohnert Park,CA,94928
Mi Burrito Mexican Restaurant & Bar,385 Aviation Blvd #D,Santa Rosa,CA,95403
Meadow View Elementary School,2665 Dutton Meadow Ave,Santa Rosa,CA,95407
El Rancho Taqueria,1451 Southwest Blvd #106,Rohnert Park,CA,94928
Soda Rock Winery,8015 Highway 128,Healdsburg,CA,95448
"Sandwich Spot, The",7285 Snyder Ln #B,Rohnert Park,CA,94928
Chevron #1528,4990 Commerce Blvd,Rohnert Park,CA,94928
Ravenette,117 North St,Healdsburg,CA,95448
Gold Coast Coffee & Bakery Co,25377 Steelhead Blvd,Duncans Mills,CA,95430
Council on Aging-Vintage House,264 E 1st St,Sonoma,CA,95476
Nectar / Hilton Sonoma Wine Country,3555 Round Barn Blvd,Santa Rosa,CA,95403
Rocket,18816 Highway 12 #E&F,Sonoma,CA,95476
Taqueria Los Primos #2,2227 Mendocino Ave,Santa Rosa,CA,95403
Perrys Delicatessen,1220 Mendocino Ave,Santa Rosa,CA,95401
Brody's Burgers & Brews,3135 Cleveland Ave,Santa Rosa,CA,95403
Thai Orchid Cuisine,1005 Vine St,Healdsburg,CA,95448
Bon Appetit,466 Larkfield Ctr,Santa Rosa,CA,95403
Chubbys Diner,2032 Santa Rosa Ave,Santa Rosa,CA,95407
Broadway Catering & Events Inc,3695 N Petaluma Blvd,Petaluma,CA,94952
Owl Cafe,485 S Cloverdale Blvd,Cloverdale,CA,95425
Rancho Viejo,18976 Highway 12,Sonoma,CA,95476
Marvins,7991 Old Redwood Hwy,Cotati,CA,94931
Thai Kitchen Restaurant,538 E Cotati Ave,Cotati,CA,94931
Murphys Irish Pub,464 E 1st St #C,Sonoma,CA,95476
Rincon Valley Wine Beer & Tasting,4927 Sonoma Hwy Ste H,Santa Rosa,CA,95409
Forget Me Not Cakes,1435 N McDowell Blvd Ste 100,Petaluma,CA,94954
Dry Creek General Store Inc,3495 Dry Creek Rd,Healdsburg,CA,95448
FranciscanVineyards dba Simi Winery,16275 Healdsburg Ave,Healdsburg,CA,95448
Dos Amigos Restaurant,8197 La Plaza,Cotati,CA,94931
Aroon Thai Market,2770 Cleveland Ave,Santa Rosa,CA,95403
Mama Taninos,500 W Napa St #512,Sonoma,CA,95476
Council on Aging-SR Multi Purpose,704 Bennett Valley Rd,Santa Rosa,CA,95404
Tacos La Bamba #1  L#5W89352,2995 Wiljan Ct,Santa Rosa,CA,95407
Baskin Robbins #2072,6585 Commerce Blvd #F,Rohnert Park,CA,94928
Carniceria Contreras,1391 Todd Rd,Santa Rosa,CA,95407
Dempseys Restaurant & Brewery,50 E Washington St,Petaluma,CA,94952
Big Boys Bar-B-Que,1350 Bennett Valley Rd,Santa Rosa,CA,95404
Trends Catering,5235 Aero Dr,Santa Rosa,CA,95403
7-Eleven #14140,18000 Railroad Ave,Sonoma,CA,95476
Charleys Liquors,601 S Petaluma Blvd,Petaluma,CA,94952
Baskin Robbins #2083,2700 Yulupa Ave,Santa Rosa,CA,95405
Cafe Europe Restaurant,104 Calistoga Rd,Santa Rosa,CA,95409
Free Range - Provisions and Eats,25 4th St,Petaluma,CA,94952
Lala's Creamery,134 N Petaluma Blvd,Petaluma,CA,94952
Mekong Market,206 Sebastopol Rd,Santa Rosa,CA,95407
Vineyard Creek Gas & Market LLC,275 Aviation Blvd,Santa Rosa,CA,95403
Final Edition,412 Larkfield Ctr,Santa Rosa,CA,95403
Sebastopol Cookie Company,168 N Main St A,Sebastopol,CA,95472
Patisserie Angelica,6821 Laguna Park WY,Sebastopol,CA,95472
Playa Azul Marisco,228 N Petaluma Blvd,Petaluma,CA,94952
SRJC - AG Pavilion,6225 Eastside Rd,Forestville,CA,95436
Cafe Petit Choux,755 Petaluma Ave,Sebastopol,CA,95472
Thai Issan,208 N Petaluma Blvd,Petaluma,CA,94952
Taverna Sofia,244 Healdsburg Ave,Healdsburg,CA,95448
North American Cinemas Inc,620 3rd St,Santa Rosa,CA,95401
Barley & Hops Tavern,3688 Bohemian Hwy,Occidental,CA,95465
McDonalds #11169,981 Lakeville St,Petaluma,CA,94952
McDonalds #8028,775 S Highway 116,Sebastopol,CA,95472
McDonalds #14584,2642 Santa Rosa Ave,Santa Rosa,CA,95407
Sazon Peruvian Cuisine,1129 Sebastopol Rd,Santa Rosa,CA,95407
Rite Aid #6032,19205 Highway 12,Sonoma,CA,95476
Blackbird Cafe and Soda Fountain,312 Center St,Healdsburg,CA,95448
Wolf House @ the Jack London Lodge,13740 Arnold Dr,Glen Ellen,CA,95442
Taqueria Los Primos,18375 Highway 12,Boyes Hot Springs,CA,95416
Subway #30656,953 Golf Course Dr,Rohnert Park,CA,94928
Home Run Pizza & Sports Bar,484 Larkfield Ctr,Santa Rosa,CA,95403
Bodega Country Store,17190 Bodega Hwy,Bodega,CA,94922
Glen Ellen Village Market,13751 Arnold Dr,Glen Ellen,CA,95442
The Hummus Guy Corp,1370 Redwood Way Ste A,Petaluma,CA,94954
Garys at the Belvedere,727 Mendocino Ave,Santa Rosa,CA,95404
Rumba Cuban Kitchen,8750 Old Redwood Hwy,Windsor,CA,95492
Taqueria Los Altos de Jalisco,2700 Yulupa Ave #8,Santa Rosa,CA,95405
C Market #5,630 Lewis Dr,Santa Rosa,CA,95404
A & M Market,28 Healdsburg Ave,Healdsburg,CA,95448
Nieve,380 Windsor River Rd #B,Windsor,CA,95492
Safeway Store #918,6340 Commerce Blvd,Rohnert Park,CA,94928
Togos of Healdsburg,111 Healdsburg Ave Ste B,Healdsburg,CA,95448
Namaste Cafe,1390 N McDowell Blvd #A,Petaluma,CA,94954
Oak Park Swim & Racquet Club,4669 Badger Rd,Santa Rosa,CA,95409
Timothy Sweeney dba Papa Murphys Pizza,7231 Healdsburg Ave Ste A,Sebastopol,CA,95472
Beverly Living Center London House,678 W 2nd St,Sonoma,CA,95476
Planet Organic,19449 Riverside Dr #100,Sonoma,CA,95476
Thang Long Vietnamese Restaurant,175 N McDowell Blvd,Petaluma,CA,94954
Rio Nido Lodge,4444 Wood Rd,Guerneville,CA,95446
Willis Wine Bar LLC,4404 Old Redwood Hwy,Santa Rosa,CA,95403
La Rosa Market,6555 Front St,Forestville,CA,95436
Quiznos 1878,449 W Rohnert Park Expy,Rohnert Park,CA,94928
Marisco La Jaiba,1099 Sebastopol Rd,Santa Rosa,CA,95407
Surf City Squeeze,1071 Santa Rosa Plz #A,Santa Rosa,CA,95401
La Guadalupana Taqueria & Rest,400 W 3rd St #C,Santa Rosa,CA,95401
Doubletree Hotel Sonoma County,1 Doubletree Dr,Rohnert Park,CA,94928
Casbar Market,3345 Santa Rosa Ave,Santa Rosa,CA,95407
Simply Vietnam,966 N Dutton Ave,Santa Rosa,CA,95401
SRJC Petaluma Cafeteria,680 Sonoma Mountain Pky,Petaluma,CA,94954
Hanna Boys Center Multi-Use Bldg Kitchen,17000 Arnold Dr,Sonoma,CA,95476
Bertolini Student Services Center (SRJC),123 Elliott Ave,Santa Rosa,CA,95401
Pasteles Cristina Bakery,320 W 3rd St #E,Santa Rosa,CA,95401
Main Street Station,16280 Main St,Guerneville,CA,95446
Park 121,23584 Arnold Dr Unit A,Sonoma,CA,95476
Rohnert Park Community Center,5401 Snyder Ln,Rohnert Park,CA,94928
Ulias Delicatessen,130 Stony Point Rd #F,Santa Rosa,CA,95401
Zee's Diner,173 N McDowell Blvd,Petaluma,CA,94954
"BBQ Spot, The",458 B St,Santa Rosa,CA,95401
Yanni's Sausage Grill,10007 Main St,Penngrove,CA,94951
Council on Aging-Hld/Windsor Day,209 Matheson St,Healdsburg,CA,95448
Chilis Grill & Bar #319,4851 Redwood Dr,Rohnert Park,CA,94928
"Town Square, The",482 E 1st St,Sonoma,CA,95476
Lucky #740,939 Lakeville St,Petaluma,CA,94952
Fuji Japanese & Mongolian BBQ,253 N McDowell Blvd,Petaluma,CA,94954
La Morenita Market #2 Inc.,17400 Highway 12,Sonoma,CA,95476
Panera Bread #1734,6305 Commerce Blvd,Rohnert Park,CA,94928
Jenner Sea Store,10444 Highway 1,Jenner,CA,95450
Penngrove Pub,10005 Main St,Penngrove,CA,94951
Salvation Army Adult Rehab,200 Lytton Springs,Healdsburg,CA,95448
Simply Delicious,2780 Stony Point Rd #M,Santa Rosa,CA,95407
Pizzeria Capri Ristorante,1266 Broadway,Sonoma,CA,95476
Girl & The Fig,110 W Spain St,Sonoma,CA,95476
Rob's Lunchbox Deli & Cafe,5701 State Farm Dr Ste 122,Rohnert Park,CA,94928
Starbucks Coffee #10548,970 S Gravenstein Hwy,Sebastopol,CA,95472
Paolo's Ravioli Deli Cafe,3033 Cleveland Ave #160,Santa Rosa,CA,95403
Jolly Washer Service Station,19249 Sonoma Hwy,Sonoma,CA,95476
Andornos,16205 1st St,Guerneville,CA,95446
Shangrila Cafe & Grill,1706 E Cotati Ave,Rohnert Park,CA,94931
Jason P Sutton dba Chick-fil-A at Mendocino Avenue FSR,1452 Mendocino Ave,Santa Rosa,CA,95401
Larkfield Liquor & Deli,4777 N Old Redwood Hwy,Santa Rosa,CA,95401
Bohemian Club,20601 Bohemian Grove,Monte Rio,CA,95462
Taco Del Mar,750 Stony Point Rd A-190,Santa Rosa,CA,95407
Bills Deli,3705 S Gravenstein Hwy,Sebastopol,CA,95472
Ben & Jerrys Scoop Shop,408 E 1st St,Sonoma,CA,95476
Applewood Inn Restaurant & Spa,13555 Highway 116,Guerneville,CA,95446
Garden Court Cafe,13647 Arnold Dr,Glen Ellen,CA,95442
Bruno's on Fourth,1226 4th St,Santa Rosa,CA,95404
Windsor Shell,9033 Old Redwood Hwy,Windsor,CA,95492
"Zoo, The",527 Barham Ave,Santa Rosa,CA,95404
CVS/Pharmacy #218,788 N Gravenstein Hwy,Sebastopol,CA,95472
La Victoria Catering,555 Sebastopol Rd #D,Santa Rosa,CA,95407
Bistro Ralph,109 Plaza St,Healdsburg,CA,95448
Redwood Adventist Academy,385 Mark West Springs Rd,Santa Rosa,CA,95404
Faron's New Orleans Style BBQ & Sides,501 N Lakeville St # C,Petaluma,CA,94952
McDonalds #3944,6600 Commerce Blvd,Rohnert Park,CA,94928
Subway #54700,780 N Gravenstein Hwy,Sebastopol,CA,95472
ISCREAM Cafe',8252 Old Redwood Hwy,Cotati,CA,94931
Washoe House,2840 Roblar Rd,Petaluma,CA,94952
Forestville Pizzeria,6484 Mirabel Rd,Forestville,CA,95436
Angela Center,535 Angela Dr,Santa Rosa,CA,95403
Douglas L Whited School,4995 Highway 12,Santa Rosa,CA,95409
Carl's Jr.,2245 Santa Rosa Ave,Santa Rosa,CA,95407
Broadway Market,20511 Broadway,Sonoma,CA,95476
La Gare Restaurant,208 Wilson St,Santa Rosa,CA,95401
Wild Flowers Saloon,9 Mitchell Ln,Healdsburg,CA,95448
Round Table Pizza #061,6314 Commerce Blvd,Rohnert Park,CA,94928
Black Bean BBQ at Sonny's Petaluma Golf Center,200 Stony Point Rd,Petaluma,CA,94952
Pacific Christian Academy,8877 Donald Ave,Graton,CA,95472
Omelette Express,112 4th St,Santa Rosa,CA,95401
Airport Club,432 Aviation Blvd,Santa Rosa,CA,95403
Apple Blossom School,700 Water Trough Rd,Sebastopol,CA,95472
Cazsonoma Inn,1000 Kidd Creek Rd,Cazadero,CA,95421
Arbys Restaurant,4799 Redwood Dr,Rohnert Park,CA,94928
Art's Place,563 Rohnert Park Expy Ste A&B,Rohnert Park,CA,94928
Sams Donuts,1080 Sebastopol Rd,Santa Rosa,CA,95407
Sushi to Dai For,119 4th St,Santa Rosa,CA,95404
Teriyaki House,706 E Washington St,Petaluma,CA,94952
Burger King,8510 S Highway 116,Cotati,CA,94931
Round Table Pizza #852,890 N Petaluma Blvd,Petaluma,CA,94952
D & D Hot Dogs,4825 Redwood Dr,Rohnert Park,CA,94928
Cake Bloom,400 W Napa St,Sonoma,CA,95476
Bistrot des Copains,3782 Bohemian Hwy,Occidental,CA,95465
"BSC Partners, LLC dba Brain Freeze Frozen Yogurt",231 N McDowell Blvd Ste B,Petaluma,CA,94954
China Garden,429 Stony Point Rd,Santa Rosa,CA,95401
Round Table Pizza #049,131 S Main St,Sebastopol,CA,95472
Washoe Creek Golf Course,1475 W Sierra Ave,Cotati,CA,94931
Bridget Adelaide's Cake Gallery,3695 N Petaluma Blvd,Petaluma,CA,95476
IHOP #696,2745 4th St,Santa Rosa,CA,95404
DTE Inc,6930 Burnett St,Sebastopol,CA,95472
IHOP 690,1401 Fulton Rd,Santa Rosa,CA,95403
Petaluma Gas & Shop,4550 S Redwood Hwy,Petaluma,CA,94952
Extreme Pizza,3100 Lakeville Hwy # E,Petaluma,CA,94954
Muscardini Cellars,8910 Highway 12 #13-B,Kenwood,CA,95452
Sandpiper Restaurant,1400 Highway 1,Bodega Bay,CA,94923
Pho Ngoc Thanh,1390 N McDowell Blvd Ste B1,Petaluma,CA,94954
Petaluma Valley Athletic Club,85 Old Corona Rd,Petaluma,CA,94952
Cyrus Restaurant LLC,417 Foss St # A,Healdsburg,CA,95448
Port of Subs,350 Raleys Towne Center,Rohnert Park,CA,94928
Sur La Table,2323 Magowan Dr,Santa Rosa,CA,95405
Carniceria La Favorita,17484 Highway 12,Sonoma,CA,95476
Studebaker Cheesecake,248 W Napa St # A,Sonoma,CA,95476
Hop Kiln Winery,6050 Westside Rd,Healdsburg,CA,95448
Trattoria Lupo,4776 Sonom Hwy,Santa Rosa,CA,95409
Lolitas Market,451 Lakeville Hwy,Petaluma,CA,94952
Ninja Star Coffee Bar,992 S Gravenstein Hwy,Sebastopol,CA,95472
Koala Fine Foods,16380 Mill St #A,Guerneville,CA,95446
Willowside Meats Inc,3421 Guerneville Rd,Santa Rosa,CA,95401
Los Girasoles Restaurant,1195 W College Ave,Santa Rosa,CA,95401
Karla's Ice Cream,127 Healdsburg Ave,Healdsburg,CA,95448
New York Bagels,6400 Commerce Blvd #361,Rohnert Park,CA,94928
Stony Point Academy,3223 Primrose Ave,Santa Rosa,CA,95407
D & D Liquor and Deli,8492 Highway 116,Cotati,CA,94931
Mi Casita Mexican Restaurant,16380 Mill St #B,Guerneville,CA,95446
7 Eleven #2365-39470A,101 N McDowell Blvd,Petaluma,CA,94954
Martin's Market and Deli,7180 S Highway 116,Cotati,CA,94931
Council On Aging-Meals on Wheels,40 Kawana Springs Rd,Santa Rosa,CA,95401
Tower Mart #5,1300 Farmers Ln,Santa Rosa,CA,95405
Melt Down Cafe,90 Mark West Springs Ste 160,Santa Rosa,CA,95403
Flowering Tea House,1367 N. McDowell Blvd Ste 110,Petaluma,CA,94954
Sweet T's,2097 Stagecoach Rd Ste 100,Santa Rosa,CA,95404
Santa Rosa Fuel LP Arco AM PM,1010 4th St,Santa Rosa,CA,95404
La Vera Pizza,629 4th St,Santa Rosa,CA,95404
Olan European Foods,2790 Santa Rosa Ave Ste M,Santa Rosa,CA,95407
Bean Affair,1270 Healdsburg Ave #101,Healdsburg,CA,95448
North Bay Subs LLC Subway #5073,18915 Sonoma Hwy,Sonoma,CA,95476
Mayacama Golf Club,525 Mayacama Club Dr,Santa Rosa,CA,95403
Good Licks Frozen Yogurt Stop,126 Kentucky St #A,Petaluma,CA,94952
Torch of India,507 4th St,Santa Rosa,CA,95401
Goji Kitchen,1965 Mendocino Ave,Santa Rosa,CA,95401
Rooster Run Golf Club & Event Center,2301 E Washington St,Petaluma,CA,94954
New China Restaurant,2265 Cleveland Ave,Santa Rosa,CA,95403
AFC Sushi @ Petaluma Market,210 Western Ave,Petaluma,CA,94952
Creative Cuisine,702 Bennett Valley Rd,Santa Rosa,CA,95404
Sonoma Orchid Inn,12850 River Rd,Guerneville,CA,95446
Cellars of Sonoma,133 4th St,Santa Rosa,CA,95401
"Cheese Shop, The",423 Center St,Healdsburg,CA,95448
Community Cafe,875 W Napa St,Sonoma,CA,95476
Taqueria Los Potrillos #1,355 E Washington St,Petaluma,CA,94954
Grapevine Catering Company LLC,5755 Mountain Hawk Way,Santa Rosa,CA,95409
Drews Sandwich & Burger,2105 S McDowell Blvd B,Petaluma,CA,94954
Hiros Japanese Restaurant,107 N Petaluma Blvd,Petaluma,CA,94952
"Briar Patch, The",464 E 1st St #H,Sonoma,CA,95476
Summerfield Cinemas,551 Summerfield Rd,Santa Rosa,CA,95405
Sabor Latino,1709 Santa Rosa Ave,Santa Rosa,CA,95404
"Adair & Co., LLC, Bistro 100",140 2nd St Ste 100,Petaluma,CA,94952
Viola Ent.,21712 Geyserville Ave,Geyserville,CA,95441
Kenwood Market & Deli,8910 Sonoma Hwy,Kenwood,CA,95452
Bay Laurel Culinary,3695 N Petaluma Blvd,Petaluma,CA,94952
Hickory Farms Inc,1071 Santa Rosa Plz #B,Santa Rosa,CA,95401
Da Vincis,2200 N Petaluma Blvd #801,Petaluma,CA,94952
Mountain Home Ranch,3400 Mountain Home Ranch Rd,Calistoga,CA,94515
Summer Home Park Lodge,11809 Summer Home Park Rd,Forestville,CA,95436
Bianchini's,1367 N McDowell Blvd Ste 100,Petaluma,CA,94954
Starting From Scratch,275 Windsor River Rd Ste 312,Windsor,CA,95492
RKTO Coffee,512 Mendocino Ave,Santa Rosa,CA,95401
Taqueria Sonoma,18615 Highway 12 # 109,Sonoma,CA,95476
Andy's Kitchen & Sushi Bar,212 Western Ave,Petaluma,CA,94952
Relais du Soleil,1210 Nuns Canyon Rd,Glen Ellen,CA,95442
Lawrence Jones Middle School,5154 Snyder Ln,Rohnert Park,CA,94928
Berrys Market,10651 River Rd,Forestville,CA,95436
Saddles Restaurant/MacArthur Place,29 E MacArthur St,Sonoma,CA,95476
Sevaveg LLC,1000 N Gravenstein Hwy,Sebastopol,CA,95472
Flyers,300 College Ave,Santa Rosa,CA,95401
Hallies Diner,125 Keller St,Petaluma,CA,94952
Jackson's Bar & Oven,135 4th St,Santa Rosa,CA,95401
La Casa Restaurant & Bar,121 E Spain St,Sonoma,CA,95476
Taqueria El Mariachi,1110 Petaluma Hill Rd Ste 3,Santa Rosa,CA,95404
Lasertag of Santa Rosa,3011 Santa Rosa Ave,Santa Rosa,CA,95407
Active Sports Club,1201 Redwood Way,Petaluma,CA,94954
GS Market,1150 River Rd,Fulton,CA,95439
High Tech Burrito,6560 Hembree Ln Ste 178,Windsor,CA,95492
Driven Raceway,4601 Redwood Dr,Rohnert Park,CA,94928
Tacos El Brinquito,17380 Sonoma Hwy,Sonoma,CA,95476
R3 Hotel,16390 4th St,Guerneville,CA,95446
Apple Box,224 B St,Petaluma,CA,94952
Trio,16225 Main St,Guerneville,CA,95446
Burger King #6099,2739 Santa Rosa Ave,Santa Rosa,CA,95407
Arbys Restaurant #6320,919 Hopper Ave,Santa Rosa,CA,95403
Bills Market #3,1020 Hopper Ave,Santa Rosa,CA,95403
Golden Living Center Petaluma,101 Monroe St,Petaluma,CA,94954
Jamba Juice,617 E Washington St,Petaluma,CA,94952
Hole in the Wall,970 S Gravenstein Hwy Ste 100,Sebastopol,CA,95472
"Repose Coffee Bar and Gallery, LLC",130 S Main St # 103,Sebastopol,CA,95472
Catered by Patti,1 Citrus Fair Dr,Cloverdale,CA,95425
"Chef Du Jour, The",276 E Napa St,Sonoma,CA,95476
Fu Zhou,450 Mendocino Ave,Santa Rosa,CA,95401
McDonalds #12248,2521 Guerneville Rd,Santa Rosa,CA,95401
Alexander Valley Vineyards,8644 Highway 128,Healdsburg,CA,95448
Whiskey Tip,1910 Sebastopol Rd,Santa Rosa,CA,95407
Hilton Garden Inn,417 Aviation Blvd,Santa Rosa,CA,95403
"Epicurean Connection LLC,The",122 W Napa St,Sonoma,CA,95476
Sports City,921 Piner Rd,Santa Rosa,CA,95403
"La Chatita Market, Inc",201 W 7th St,Santa Rosa,CA,95401
Full Of Flavor Catering,1 Citrus Fair Dr,Cloverdale,CA,95425
Patterson Pub & Grill,9057 Windsor Rd,Windsor,CA,95492
Jalisco Mexican Food,1800 Mendocino Ave,Santa Rosa,CA,95401
Dynasty Restaurant,6555 Hunter Dr,Rohnert Park,CA,94928
Mortons Resort,1651 Warm Springs Rd,Glen Ellen,CA,95442
Foster Freeze #135,1400 4th St,Santa Rosa,CA,95404
Redwood Parkway Subway,5085 Redwood Dr,Rohnert Park,CA,94928
Forchetta Bastoni,6948 Sebastopol Ave,Sebastopol,CA,95472
India Cuisine Inc,6480 Redwood Dr,Rohnert Park,CA,94928
Sonoma Springs Community Hall,18627 Sonoma Hwy,Sonoma,CA,95476
Harvey and Thistle,399 Business Park Ct Ste 312,Windsor,CA,95492
Bella Rosa Coffee Co.,5491 Skylane Blvd Ste #140,Santa Rosa,CA,95403
Boathouse,1445 Highway 1,Bodega Bay,CA,94923
7-Eleven #19232,2700 Yulupa Ave #A,Santa Rosa,CA,95405
Jack in the Box #463,1004 W Steele Ln,Santa Rosa,CA,95401
Council on Aging-R R Comm Sr Ctr,15010 Armstrong Woods Rd,Guerneville,CA,95446
Romeos Pizza & Pasta,35 Washington St,Petaluma,CA,94952
Sonoma Cake Creations,2060 W College Ave,Santa Rosa,CA,95401
QQ Noodle Bistro LLc,538 E Cotati Ave,Cotati,CA,94931
Castaneda's Marketplace,8465 Old Redwood Hwy #601,Windsor,CA,95492
Togos Great Sandwiches,441 N McDowell Blvd Ste 10,Petaluma,CA,94954
Buddies Pizza,177 N Pleasant Hill Ave,Sebastopol,CA,95472
Sonoma Market,520 W Napa St,Sonoma,CA,95476
Viva Oaxaca,1880 N Petaluma Blvd,Petaluma,CA,94952
Dadas Deli,3100 Dutton Ave,Santa Rosa,CA,95407
Verdure,237 Westside Rd,Healdsburg,CA,95448
Josie's Star,1123 S Cloverdale Blvd Ste A-C,Cloverdale,CA,95424
J. Keverson Winery,53 Front St,Healdsburg,CA,95448
Annadeli,2700 Yulupa Ave #10,Santa Rosa,CA,95405
Martins Market,10333 Old Redwood Hwy #101,Windsor,CA,95492
Cinnabon #260,1066 Santa Rosa Plaza,Santa Rosa,CA,95401
C K House Chinese Restaurant,1525 Healdsburg Ave,Healdsburg,CA,95448
Yogurt Farms,626 McClelland Dr,Windsor,CA,95492
Arrowood Vineyards & Winery,14347 Highway 12,Glen Ellen,CA,95442
Twist - An Eatery,6536 Front St,Forestville,CA,95436
Super Latino Market-Bakery,1665 Sebastopol Rd,Santa Rosa,CA,95407
Fusion,1410 S McDowell Blvd D,Petaluma,CA,94954
Corkscrew,100 N Petaluma Blvd Ste 103,Petaluma,CA,94952
Panera Bread #1529,150 Steele Ln Ste 100,Santa Rosa,CA,95401
Council on Aging-Silvercrest,1050 3rd St,Santa Rosa,CA,95401
For Locals Only,177 Healdsburg Ave,Healdsburg,CA,95448
"Vault Cafe, The",6580 Oakmont Dr Ste C,Santa Rosa,CA,95409
Sonoma Valley Bagel Cafe,2194 Santa Rosa Ave,Santa Rosa,CA,95407
Cafe Salsa,8230 Old Redwood Hwy,Cotati,CA,94931
Ancient Oak Cellars & Downtown Deli,621 4th St,Santa Rosa,CA,95404
Stax Social Eatery,8204 Old Redwood Hwy,Cotati,CA,94931
Tango Mango,465 Stony Point Rd # B,Santa Rosa,CA,95401
McDonalds / Windsor,125 Windsor River Rd,Windsor,CA,95492
Cape Fear Cafe/Duncans Mills Rest,25191 Main St,Duncans Mills,CA,95430
Sizzling Tandoor,9960 Highway 1,Jenner,CA,95450
Fit for a King Catering,3695 N Petaluma Blvd,Petaluma,CA,94952
Plaza Tequila,19315 Sonoma Hwy,Sonoma,CA,95476
Marigold Indian Bistro,7225 Healdsburg Ave,Sebastopol,CA,95472
Rendezvous Bistro,614 4th St,Santa Rosa,CA,95404
Santa Rosa American Little League,2567 Marlow Rd,Santa Rosa,CA,95403
Marthas Old Mexico,305 N Main St,Sebastopol,CA,95472
Subway #45955,151 S Petaluma Blvd #11,Petaluma,CA,94952
Pepper's Cafe,1451 Southwest Blvd Ste 123,Rohnert Park,CA,94928
Caprara's Pizzeria,10101 Main St # F,Penngrove,CA,94951
Top That Yogurt,1940 Piner Rd Ste 400,Santa Rosa,CA,95403
Council on Aging-St Phillips,3770 Bohemian Hwy,Occidental,CA,95465
Adafina Culinary,399 Business Park Ct # 311,Windsor,CA,95492
Petes Henny Penny,4995 N Petaluma Blvd,Petaluma,CA,94952
Geyserville Elementary School,21485 Geyserville Ave,Geyserville,CA,95441
Fruit In Motion,3 4th St,Petaluma,CA,94954
Annex Wine Bar,865 W Napa St,Sonoma,CA,95476
"Secret Kitchen LLC, The",4701 Bodega Ave #4691,Petaluma,CA,94952
Council on Aging @ Seb Area Sr Ctr,167 N High St,Sebastopol,CA,95472
Yao-Kiku,2700 Yulupa Ave,Santa Rosa,CA,95405
Santa Rosa Moose Lodge #458,3559 Airway Dr,Santa Rosa,CA,95403
Socorro's Mexican Restaurant,8465 Old Redwood Hwy,Windsor,CA,95492
Dairy Queen Orange Julius,2102 Santa Rosa Plaza,Santa Rosa,CA,95401
Little Caesars,19209 Sonoma Hwy,Sonoma,CA,95476
Redwood Parkway Shell,5085 Redwood Dr,Rohnert Park,CA,95407
Pepe's Mexican Restaurant,1510 Sebastopol Rd,Santa Rosa,CA,95407
Taqueria Mi Pueblo,800 N Petaluma Blvd,Petaluma,CA,94952
Crisp Bake Shop,720 W Napa St,Sonoma,CA,95476
Starbucks Coffee #5233,8786 Lakewood Ctr,Windsor,CA,95492
Kaiser Hospital of Santa Rosa,401 Bicentennial WY,Santa Rosa,CA,95403
Clos Du Bois Winery,19410 Geyserville Ave,Geyserville,CA,95441
Jennie Lows,140 2nd St,Petaluma,CA,94952
Roseland University Prep,100 Sebastopol Rd,Santa Rosa,CA,95407
Baskin Robbins #2040,214 Coddingtown Ctr,Santa Rosa,CA,95401
Taqueria Mi Pueblo El Centro,108 Kentucky St,Petaluma,CA,94952
Kenwood Restaurant,9900 Highway 12,Kenwood,CA,95452
Kenwood Inn & Spa,10400 Highway 12,Kenwood,CA,95452
Twin Oaks Tavern,5745 Old Redwood Hwy,Penngrove,CA,94951
Cocos #184,1513 Farmers Ln,Santa Rosa,CA,95404
Formosa Bistro,799 S Gravenstein Hwy,Sebastopol,CA,95472
El Azteca,3260 Airway Dr,Santa Rosa,CA,95403
Chalk Hill Cookery,399 Business Park Ct Ste 311,Windsor,CA,95492
Shuffle's Magical ice Cream Shoppe Inc.,528 7th St,Santa Rosa,CA,95401
Peking Chinese Restaurant,1426 E Washington St,Petaluma,CA,94954
2 London Foodies,122 American Alley Ste B,Petaluma,CA,94952
Golden Spoon,90 Raleys Towne Center,Rohnert Park,CA,94928
The Deli by Sazon,1117 Sebastopol Rd,Santa Rosa,CA,95407
Subway Sandwiches #57170,401 Kenilworth Dr Ste 630,Petaluma,CA,94952
Matanzas Elem School,1687 Yulupa Ave,Santa Rosa,CA,95405
Pascaline Fine Catering,8400 Old Redwood Hwy,Windsor,CA,95492
Wine Emporium Inc,125 N Main St,Sebastopol,CA,95472
Fourchette,1435 N McDowell Blvd Ste 100,Petaluma,CA,94954
Sea Thai Bistro,2323 Sonoma Ave,Santa Rosa,CA,95405
Park Avenue Catering Co Inc,591 Mercantile Dr,Cotati,CA,94931
Spencer's Fish & Chips,801 S Gravenstein Hwy,Sebastopol,CA,95472
ABBIE'S Taqueria,512 N Cloverdale Blvd,Cloverdale,CA,95425
McDonalds #10068,50 Mission Cir McDon,Santa Rosa,CA,95409
Fishetarian  (Fish Market & Deli),599 S Highway 1,Bodega Bay,CA,94923
Segura Farms,5280 Aero Dr,Santa Rosa,CA,95403
Abyssinia Ethiopian Restaurant,913 4th St,Santa Rosa,CA,95404
Taqueria La Hacienda,17960 Highway 12,Sonoma,CA,95476
K R Catering,8400 Old Redwood Hwy,Windsor,CA,95492
Sequoia School,5305 Dupont Dr,Santa Rosa,CA,95409
"Brasa Churrascaria & Brewpub Inc (""Brasa"")",505 Mendocino Ave,Santa Rosa,CA,95404
Quiznos Subs,6580 Hembree Ln #260,Windsor,CA,95492
Restaurant El Michoacano,500 Sebastopol Rd Ste A,Santa Rosa,CA,95407
Safeway Store #1265,2785 Yulupa Ave,Santa Rosa,CA,95405
Sbragia Family Vineyards,9990 Dry Creek Rd,Geyserville,CA,95441
Cordoza's Catering,3695 N Petaluma Blvd,Petaluma,CA,94952
Ultra Crepes,6760 McKinley St #120,Sebastopol,CA,95472
McDonalds #7155,1264 Mendocino Ave,Santa Rosa,CA,95401
Lorena's Mexican Restaurant,600 Larkfield Ctr,Santa Rosa,CA,95403
Carneros Deli,23001 Arnold Dr,Sonoma,CA,95476
Panera Bread Cafe #1634,401 Kenilworth Dr Ste 720,Petaluma,CA,94952
Russian River Pub,11829 River Rd,Forestville,CA,95436
"California Bagel, Deli & Cafe",124 Calistoga Rd #B,Santa Rosa,CA,95409
Wedgewood Banquet Center @ Foxtail,100 Golf Course Dr,Rohnert Park,CA,94928
Crossing the Jordan dba Sonoma Mountain Market Place,1400 Valley House Dr Ste 120,Rohnert Park,CA,94928
Ito Inc dba Kikka,201 W Napa St,Sonoma,CA,95476
Joey's Pizza,727 Mendocino Ave,Santa Rosa,CA,95401
Wine Country Treats by Lila,900 Chanticleer Way,Healdsburg,CA,95448
Roy's Chicago Dogs at the Yard,84 Corona Rd,Petaluma,CA,94954
"Fig Cafe, The",13690 Arnold Dr,Glen Ellen,CA,95442
Starbucks Coffee Company #14542,1001 McClelland Dr,Windsor,CA,95492
Eagles Nest Deli,113 N Cloverdale Blvd,Cloverdale,CA,95425
Terry's Southern Style Fish & BBQ,5979 Commerce Blvd Ste 8,Rohnert Park,CA,94928
Baskin Robbins #2302,201 W Napa St #6,Sonoma,CA,95476
Savvy Productions & Events,116 E 1st St,Cloverdale,CA,95425
"Backyard, LLC",6566 Front St,Forestville,CA,95436
Taqueria Los Hermanos,100 Burt St Ste N,Santa Rosa,CA,95401
Summerfield Waldorf School and Farm,501 Lakeville St # C,Petaluma,CA,94952
College Shell,266 College Ave,Santa Rosa,CA,95401
Armida Winery,2201 Westside Rd,Healdsburg,CA,95448
La Plaza Mexican Restaurant,602 Elsa Dr,Santa Rosa,CA,95407
"Sonoma Meals, LLC",400 W Spain St,Sonoma,CA,95476
Your Sweet Expectations,1100 Valley House Dr,Rohnert Park,CA,94928
Rocky Mountain Chocolate Factory,2200 N Petaluma Blvd Ste 410,Petaluma,CA,94952
Lua Viet Inc,966 S Gravenstein Hwy,Sebastopol,CA,95472
Zini's Diner,796 S Cloverdale Blvd,Cloverdale,CA,95425
Picks Drive-In,117 S Cloverdale Blvd,Cloverdale,CA,95425
Osake Japanese Restaurant,2446 Patio Ct,Santa Rosa,CA,95405
Bellevue School,3223 Primrose Ave,Santa Rosa,CA,95407
Giorgio's Italian Restaurant,25 Grant Ave,Healdsburg,CA,95448
Hot Box Grill,18350 Sonoma Hwy,Sonoma,CA,95476
Fleur de Lisa,463 Sebastopol Ave,Santa Rosa,CA,95407
McDonald's Restaurant,110 Healdsburg Ave,Healdsburg,CA,95448
Namaste Liquor & Deli Store,3590 N Petaluma Blvd,Petaluma,CA,94952
Sonoma Taco Shop,57 Montgomery Dr,Santa Rosa,CA,95404
Popeyes Louisiana Kitchen,3 Padre Pky,Rohnert Park,CA,94928
My Friend Joe,1810 Mendocino Ave Ste #B,Santa Rosa,CA,95401
Carrs Drive-In,6533 Covey Rd,Forestville,CA,95436
Raven Film Center,415 Center St,Healdsburg,CA,95448
Seed To Leaf Organics,25 Old Courthouse Sq,Santa Rosa,CA,95404
AFC Sushi @ Raley's #329,157 N McDowell Blvd,Petaluma,CA,94954
Deli on Wheels-Commissary,607 Martin Ave #109,Rohnert Park,CA,94928
La Chaparrita Taqueria,2101 W College Ave Ste J,Santa Rosa,CA,95401
4th Street Market & Deli,300 Mendocino Ave,Santa Rosa,CA,95401
Geyserville Mud LLC,21001 Geyserville Ave,Geyserville,CA,95441
In-N-Out Burgers #249,2131 County Center Dr,Santa Rosa,CA,95403
Nancys Fancys,3480 Airway Dr,Santa Rosa,CA,95403
El Chile,711 Stony Point Rd #5,Santa Rosa,CA,95407
Casa Bella Inn,8790 Highway 12,Kenwood,CA,95452
Honey Badger Coffee,101 Golf Course Dr A-3,Rohnert Park,CA,94928
Grape Leaf Cafe & Grill,101 E Cotati Ave,Cotati,CA,94931
Episcopal Senior Communities,1080 Jennings Ave,Santa Rosa,CA,95401
Subway #33995,490 Mendocino Ave Ste #106,Santa Rosa,CA,95401
Peking Chef Restaurant,7233 Healdsburg Ave,Sebastopol,CA,95472
Topel Winery,125 Matheson St,Healdsburg,CA,95448
Petaluma Community Center,320 N McDowell Blvd,Petaluma,CA,94952
Steiners Tavern,465 W 1st St #100,Sonoma,CA,95476
Larkfield Foods,4856 Old Redwood Hwy,Santa Rosa,CA,95403
Legends at Bennett Valley,3328 Yulupa Ave,Santa Rosa,CA,95405
French Garden,8050 Bodega Ave,Sebastopol,CA,95472
Ursula Hall,400 Angela Dr,Santa Rosa,CA,95403
Ramekins,450 W Spain St,Sonoma,CA,95476
Panka Peru,522 7th St,Santa Rosa,CA,95401
Ruthy's Real Meals / Ruthy's To-Go,8492 Gravenstein Hwy #O,Cotati,CA,94931
Bay Laurel Culinary Inc,1370 Industrial Ave Ste A,Petaluma,CA,94952
El Torito Restaurant,5090 Redwood Dr,Rohnert Park,CA,94928
AFC Sushi @ Pacific Market,550 Highway 116,Sebastopol,CA,95472
Husarys 76 Food Mart,2110 N Highway 116,Sebastopol,CA,95472
Cotati Thai,538 E Cotati Ave,Cotati,CA,94931
Bryter Estates,25 E Napa St Ste E,Sonoma,CA,95476
Chelinos Mexican Restaurant,1079 4th St,Santa Rosa,CA,95404
Burger King #3157,211 N McDowell Blvd,Petaluma,CA,94954
King Falafael,100 Brown St #150,Sebastopol,CA,95472
Santa Rosa Golf & Country Club,333 Country Club Dr,Santa Rosa,CA,95401
Panaderia Costa Chica,113 Healdsburg Ave,Healdsburg,CA,95448
J's Grill & Cafe Inc,104 Calistoga Rd,Santa Rosa,CA,95409
Little Caesar's Pizza,1470 Mendocino Ave,Santa Rosa,CA,95401
Hopmonk Tavern,268 Petaluma Ave,Sebastopol,CA,95472
Brown & Sons LLC dba Apple Junction Smoke House,6761 Sebastopol Ave Ste 600,Sebastopol,CA,95472
Round Table Pizza #056,1520 E Washington St,Petaluma,CA,94952
Hibachi San #24,2105 Santa Rosa Plaza #2105,Santa Rosa,CA,95401
Ensign Sonoma LLC DBA Sonoma Health,1250 Broadway,Sonoma,CA,95476
Earth's Bounty Fine Food Inc  DBA: Earth's Bounty Kitchen And Wine Bar,5755 Mountain Hawk Way,Santa Rosa,CA,95409
Baskin Robbins Sebastopol,704 N Gravenstein Hwy,Sebastopol,CA,95472
J Vineyards & Winery,11447 Old Redwood Hwy,Healdsburg,CA,95448
Jeffs Food Tea World,1620 Mendocino Ave #C,Santa Rosa,CA,95401
Wild Sage Delicatessen,177 Dry Creek Rd,Healdsburg,CA,95448
Taqueria Guanajuato L#4Y71285,10351 Old Redwood Hwy #100,Windsor,CA,95492
Council on Aging - Santa Rosa Day,2150 Giffen Ave,Santa Rosa,CA,95407
Toppings,969 Golf Course Dr Ste C,Rohnert Park,CA,94928
My Deli,1035 2nd St,Santa Rosa,CA,95404
Tortilleria Jalisco,897 W Napa St,Sonoma,CA,95476
Petaluma Blvd Bowl Coffee Shop,1100 S Petaluma Blvd,Petaluma,CA,94952
"Golden Gate Bell, LLC Taco Bell #30936",5000 Redwood Dr,Rohnert Park,CA,94928
Le Bistro Restaurant,312 S Petaluma Blvd,Petaluma,CA,94952
AJs Mini Mart,21079 Geyserville Ave #1,Geyserville,CA,95441
Creekside Convalescent Hospital,850 Sonoma Ave,Santa Rosa,CA,95404
Cafe Sonoma,6580 Oakmont Dr,Santa Rosa,CA,95409
Hot Spot Eatery,8246 Old Redwood Hwy,Cotati,CA,94931
House Of Curry & Grill,409 Mendocino Ave,Santa Rosa,CA,95401
La Pizza,133 Healdsburg Ave,Healdsburg,CA,95448
Lutz Chevron,1440 E Washington St,Petaluma,CA,94952
Donut & Bagel Cafe,750 Stony Point Rd Ste A 120,Santa Rosa,CA,95407
Deli on Wheels L#6T31619,2995 Wiljan Ct,Santa Rosa,CA,95407
Flamez Grill LLC,8499 Old Redwood Hwy Ste 114,Windsor,CA,95492
Star Restaurant,6480 Redwood Dr,Rohnert Park,CA,94928
Sonoma Concierge,14450 Highway 1,Valley Ford,CA,94972
Hospitality & Beyond dba: Kitchen 707,138 Calistoga Rd,Santa Rosa,CA,95409
Fandee's Restaurant,7824 Covert Ln,Sebastopol,CA,95472
Baci Cafe & Winebar,336 Healdsburg Ave,Healdsburg,CA,95448
Le Nguyens Catering L#5N62163,2995 Wiljan Ct,Santa Rosa,CA,95407
Ferns Market,20348 Highway 116,Monte Rio,CA,95462
St. Seraphim Orthodox Church,90 Mountain View Ave,Santa Rosa,CA,95407
101 Thai Way,1198 Cloverdale Blvd,Cloverdale,CA,95425
Karma Cafe,124 S Cloverdale Blvd,Cloverdale,CA,95425
Country Lunch Box,450 W Spain St,Sonoma,CA,95476
Starlite Vineyards LLC,5511 Highway 128,Geyserville,CA,95441
Koop's Katering,439 N Cloverdale Blvd,Cloverdale,CA,95425
West Side School (K-6),1201 Felta Rd,Healdsburg,CA,95448
Thrifty Payless dba Rite Aid,955 Stony Point Rd,Santa Rosa,CA,95407
River Bend Resort LLC,11820 River Rd,Forestville,CA,95436
Ensaladas Luna,1410 W Sebastopol Rd,Santa Rosa,CA,95407
Martin Ray Winery,2191 Laguna Rd,Santa Rosa,CA,95401
Cricklewood,4618 Old Redwood Hwy,Santa Rosa,CA,95403
Joyeria Santa Rosa,1110 Petaluma Hill Rd # 5,Santa Rosa,CA,95404
Park View Gardens,3751 Montgomery Dr,Santa Rosa,CA,95405
Panda Express #1598,6560 Hembree Ln,Windsor,CA,95492
Healdsburg Senior Living Community,725 Grove St,Healdsburg,CA,95448
Doras Kitchen,1410 Sebastopol Rd,Santa Rosa,CA,95407
Frozen Yogurt Spot,175 N Pleasant Hill Ave,Sebastopol,CA,95472
Golden Spoon Frozen Yogurt,1791 Marlow Rd #1C,Santa Rosa,CA,95401
Supreme Sweets,1301 Maurice Ave,Rohnert Park,CA,94928
Apple Trees,124 S Main St,Sebastopol,CA,95472
Happy Gyro,1105 Bodega Ave,Petaluma,CA,94952
Dog House Billiards LLC,8492 Gravenstein Hwy,Cotati,CA,94931
Quik Stop Market #57,1510 E Washington St,Petaluma,CA,94954
Soigne Feast Facilitators,399 Business Park Ct # 311,Windsor,CA,95492
Breakaway Cafe,19101 Highway 12,Sonoma,CA,95476
Twofish Baking Co,35590 Verdant View #1,Sea Ranch,CA,95497
Genesis Cakes,5256 Aero Dr # 4,Santa Rosa,CA,95403
Latitude Restaurant,9098 Brooks Rd,Windsor,CA,95492
Bambu,9010 Graton Rd,Graton,CA,95444
Adobe Beverage & Deli,1410 S McDowell Blvd,Petaluma,CA,94954
Crossing,7300 Healdsburg Ave #A,Sebastopol,CA,95472
West County Coffee & Wine,130 S Main St Ste 103,Sebastopol,CA,95472
Project Salad,875 W Napa St,Sonoma,CA,95476
Best Buy Company #120,2200 Santa Rosa Ave,Santa Rosa,CA,95401
Revibe Cafe & Scoop Bar,7365 Healdsburg Ave,Sebastopol,CA,95472
Puerto Vallarta Restaurant,3333 Cleveland Ave,Santa Rosa,CA,95403
The Hideaway @ Montesano Station,18084 Highway 116,Guerneville,CA,95446
Kacees World of Water,320 W Rohnert Park Expy,Rohnert Park,CA,94928
In-N-Out Burger,1010 Lakeville Hwy,Petaluma,CA,94952
Panda Express #795,431 Rohnert Park Expy,Rohnert Park,CA,94928
Chloes Inc,3883 Airway Dr #145,Santa Rosa,CA,95403
Bumblebee Farms Bakery & Cafe,2661 S Gravenstein Hwy,Sebastopol,CA,95472
Old Crocker Inn,1126 Old Crocker Inn Rd,Cloverdale,CA,95425
Native Fermentation LLC,110 N Petaluma Blvd,Petaluma,CA,94952
Tip Top Liquor,90 Dry Creek Rd,Healdsburg,CA,95448
"Green Grocer Green Markets Inc, The",6761 Sebastopol Ave Ste 600,Sebastopol,CA,95472
Au Energy LLC / Redwood Parkway Subway,5085 Redwood Dr,Rohnert Park,CA,95407
DeTurk Round Barn,819 Donahue St,Santa Rosa,CA,95405
Teavana #28457,1071 Santa Rosa Plz ste 1021A,Santa Rosa,CA,95401
Siduri,241 Healdsburg Ave,Healdsburg,CA,95448
City Chopsticks,127 N McDowell Blvd,Petaluma,CA,94954
Shiso Sushi & Grill,19161 Highway 12,Sonoma,CA,95476
Sportsman's Warehouse Inc,5195 Redwood Dr,Rohnert Park,CA,94928
Viva La Baja,5256 Aero Dr #4,Santa Rosa,CA,95403
Big Bowl Teriyaki,1331 Guerneville Rd Ste Q,Santa Rosa,CA,95403
Gary Chus Restaurant,611 5th St,Santa Rosa,CA,95404
KCs Downtown Grill,9501 Duvander Ln,Windsor,CA,95492
Stewarts Point Store,32000 Highway 1,Stewarts Point,CA,95480
Phyllis' Giant Burgers,1774 Piner Rd # B,Santa Rosa,CA,95401
Jack in the Box #497,2550 Hoen Frontage Rd,Santa Rosa,CA,95405
Big 3 Cafe @ Sonoma Mission Inn,18140 Sonoma Hwy,Sonoma,CA,95476
Sourdough Barrel,2301 E Washington St,Petaluma,CA,94954
Passionate Pizza LLC/Rosso Pizzeria Mozzarella,151 S Petaluma Blvd Ste 123,Petaluma,CA,94952
Robert Mueller Cellars dba Mueller Winery,118 North St,Healdsburg,CA,95448
"Discount Alley, Inc",1382 S Gravenstein Hwy,Sebastopol,CA,95472
Mr Pickles Sandwich Shop,3100 Lakeville Hwy #C,Petaluma,CA,94954
Luma,500 1st St,Petaluma,CA,94952
Taco Bell #5029,1429 Fulton Rd,Santa Rosa,CA,95403
Sonoma Farm Dinners LLC,501 Lakeville St #C,Petaluma,CA,94953
Yogurtland,401 Kenilworth Dr Ste 540,Petaluma,CA,94952
Velascos,190 Kentucky St,Petaluma,CA,94952
Don Chuy Mexican Restaurant,3935 Sebastopol Rd,Santa Rosa,CA,95407
Adobo Taqueria,2550 Guerneville Rd #E,Santa Rosa,CA,95403
Appaloosa Room/Bucks,16440 4th St,Guerneville,CA,95446
Cafe La Haye,140 E Napa St,Sonoma,CA,95476
Spring Creek School,4675 Mayette Ave,Santa Rosa,CA,95405
Adel's Restaurant,456 College Ave,Santa Rosa,CA,95401
7-Eleven Store #33277,2648 Santa Rosa Ave,Santa Rosa,CA,95407
Santa Rosa Convalescent Hospital,446 Arrowood Dr,Santa Rosa,CA,95401
Mavericks,397 Aviation Blvd Suit #E,Santa Rosa,CA,95403
Penngrove Market & Deli,10070 Main St Ste B,Penngrove,CA,94951
Bad Ass Coffee,90 Mark West Springs Rd Ste 100,Santa Rosa,CA,95403
Heritage Public House,1901 Mendocino Ave,Santa Rosa,CA,95401
Farm Stand Cafe,9725 Main St,Monte Rio,CA,95462
Tiny Town Cafe,6544 Front St,Forestville,CA,95436
"Golden Gate Bell, LLC Taco Bell #30933",1416 Farmers Ln,Santa Rosa,CA,95405
Panda Express #1021,2240 Mendocino Ave #C-2,Santa Rosa,CA,95403
Foster Freeze #12,855 Sebastopol Rd,Santa Rosa,CA,95401
Adels Restaurant,456 College Ave,Santa Rosa,CA,95401
Friendly Joe,150 Weeks Way,Sebastopol,CA,95472
Rite Aid #6031,218 N Main St,Sebastopol,CA,95472
Plaza Garibaldi & Fish & Chips,6650 Commerce Blvd Ste 5,Rohnert Park,CA,94931
Carls Jr,373 Aviation Blvd,Santa Rosa,CA,95403
Jasper O'Farrells,6957 Sebastopol Ave,Sebastopol,CA,95472
Oilstop Car Wash,5070 Redwood Dr,Rohnert Park,CA,94928
Janesco Enterprises Inc. dba McDonalds,879 Hopper Ln,Santa Rosa,CA,95403
Harvest Moon Cafe,487 W 1st St,Sonoma,CA,95476
Refreshmix,8499 Old Redwood Hwy Ste 108A,Windsor,CA,95492
Sonoma County BBQ,10333 Old Redwood Hwy,Windsor,CA,95492
Asia Mart,2481 Guerneville Rd,Santa Rosa,CA,95403
El Verano Inn,705 Laurel Ave,El Verano,CA,95433
El Pollo Loco,5225 Redwood Dr,Rohnert Park,CA,94928
Giacomos Ristorante & Pizzeria,2000 Lakeville Hwy #F,Petaluma,CA,94954
Burgers & Vine BBQ Joint,400 E 1st St,Sonoma,CA,95476
Target Store T-2804,950 Coddingtown Ctr,Santa Rosa,CA,95401
North Bay Cafe,25 S Petaluma Blvd,Petaluma,CA,94952
Nicholson Ranch Winery,4200 Napa Rd,Sonoma,CA,95476
La Tradicion Market,113 Healdsburg Ave,Healdsburg,CA,95448
Mister Kelleys,1910 Sebastopol Rd,Santa Rosa,`,95407
Hanna Boys Center,17000 Arnold Dr,Sonoma,CA,95476
Zosia Cafe and Kitchen,9010 Graton Rd,Graton,CA,95444
Penngrove Superburger,10070 Main St Ste A,Penngrove,CA,94951
Ariel Ross Foods,1 Citrus Fair Dr,Cloverdale,CA,95425
Saigon Bistro,610 McClelland Dr,Windsor,CA,95407
Tubby's Restaurant,199 Southwest Blvd,Rohnert Park,CA,94928
GAWFCO,370 Sebastopol Rd,Santa Rosa,CA,95407
Food Bar,139 N Petaluma Blvd,Petaluma,CA,94952
Sonoma Valley Foods Inc,3645 Standish Ave,Santa Rosa,CA,95407
Taqueria Guanajuato,8465 Old Redwood Hwy,Windsor,CA,95492
Eagle Creek,322 N Washington St Bldg C,Cloverdale,CA,95425
Urban Sunshine 11 Inc dba Jacks Urban Eats #11,342 Coddingtown Ctr,Santa Rosa,CA,95401
Hot Dog on a Stick,2103 Santa Rosa Plz,Santa Rosa,CA,95401
AFC Sushi @ Safeway #918,6340 Commerce Blvd #AFC,Rohnert Park,CA,94928
Golf Course 76,5060 Redwood Dr,Rohnert Park,CA,94928
AFC Sushi @ Raleys #313,1407 Fulton Rd,Santa Rosa,CA,95403
Zodiacs,256 N Petaluma Blvd,Petaluma,CA,94952
McDonalds-Walmart #24653,6650 Hembree Ln,Windsor,CA,95492
Black Bear Diner LLC,201 W Napa St #34,Sonoma,CA,95476
Alvarez Mexican Restaurant,443 Dutton Ave # 9,Santa Rosa,CA,95407
Forestville School,6321 Highway 116,Forestville,CA,95436
Rack and Cue Billiards,8492 Highway 116 #K,Cotati,CA,94931
16236 Main Street LLC  (Pat's / Dick Blomster's),16236 Main St,Guerneville,CA,95446
Bodega Liquor & Market,1105 Bodega Ave,Petaluma,CA,94954
Shree Indian Cuisine,220 Western Ave,Petaluma,CA,94952
El Rodeo Taqueria,3577 Industrial Dr,Santa Rosa,CA,95403
Palms Grill Inc,100 S McDowell Blvd,Petaluma,CA,95492
Sea Ranch Lodge,60 Seawalk Dr,Sea Ranch,CA,95497
Lucky Star,116 S Main St,Sebastopol,CA,95472
"Super La Favorita, Inc.",17484 Sonoma Hwy,Sonoma,CA,95476
Dre's Bar & Grill,8099 La Plaza,Cotati,CA,94931
AFC Sushi @ Safeway #911,477 W Napa St,Sonoma,CA,95476
Fern's Market & Deli,20348 Highway 116,Monte Rio,CA,95462
Gabys Mexican Restaurant,443 Dutton Ave #9,Santa Rosa,CA,95407
Companey's Ice Cream Cafe,8252 Old Redwood Hwy,Cotati,CA,94931
Borolos Original Pizza,500 Mission Blvd #B,Santa Rosa,CA,95409
24 Hour Fitness Inc #510,3550 Industrial Dr,Santa Rosa,CA,95403
D & D Hot Dogs @ Friedmans,4055 Santa Rosa Ave,Santa Rosa,CA,95407
Whisked Away Baking Company,5755 Mountain Hawk Way,Santa Rosa,CA,95405
Mariscos El Patron,458 B St,Santa Rosa,CA,95401
Valley of the Moon Trap Club,27000 Burndale Rd,Schellville,CA,95476
AFC Sushi @ Safeway #933,406 N Main St #AFC,Sebastopol,CA,95472
Frozen Flavors,1620 Mendocino Ave Ste C,Santa Rosa,CA,95401
Subconscious Coffee,1080 N Petaluma Blvd,Petaluma,CA,94952
Maxwell Fun Center,19171 Highway 12,Sonoma,CA,95476
St Josephs Camp,22776 Moscow Rd,Duncans Mills,CA,95430
Reeb Ice Cream #5,250 Sebastopol Rd,Santa Rosa,CA,95407
Pho 90,6358 Commerce Blvd,Rohnert Park,CA,94928
Ben's Ice Cream,250 Sebastopol Rd,Santa Rosa,CA,95407
"Avalon, A Luxury B & B",11910 Graton Rd,Sebastopol,CA,95472
Eatery by the Sea,10400 Highway 1,Jenner,CA,95450
Cabanna's Grill,3577 Industrial Dr,Santa Rosa,CA,95403
Flipside Bar and Burger,630 3rd St,Santa Rosa,CA,95404
King Richard Catering,399 Business Park Cir Ste 311,Windsor,CA,95492
Taqueria Morelos,2101 W College Ave Ste J,Santa Rosa,CA,95401
Yogurtdale Blvd,240 N Cloverdale Blvd Ste C,Cloverdale,CA,95425
Cinnabar School,286 Skillman Ln,Petaluma,CA,94952
Green Papaya Thai Restaurant,538 E Cotati Ave,Cotati,CA,94931
El Michoacano Taco Truck,250 Sebastopol Rd,Santa Rosa,CA,95407
Marc Mezzetta's Deli & BBQ,173 N Pleasant Hill Ave,Sebastopol,CA,95472
McDonalds #21184,879 Hopper Ave B,Santa Rosa,CA,95403
Russian River Brewing Co,725 4th St,Santa Rosa,CA,95404
Salsa Zone Restaurant,821 Russell Ave Ste L,Santa Rosa,CA,95403
"M Healdsburg, Inc",110 Healdsburg Ave,Healdsburg,CA,95448
A&I Market,3401 Cleveland Ave # 1,Santa Rosa,CA,95403
Della Fattoria,141 N Petaluma Blvd,Petaluma,CA,94952
Kin,740 McClelland Dr,Windsor,CA,95492
"Cafe, The",3576 Unocal Pl,Santa Rosa,CA,95404
Council on Aging - Charles Street,42 Charles St,Cotati,CA,94931
Food For Humans,16385 1st St,Guerneville,CA,95446
Fast Lane Gas & Food Mart #2,111 Healdsburg Ave #208,Healdsburg,CA,95448
AFC Sushi @ Safeway #956,1799 Marlow Rd,Santa Rosa,CA,95401
Cloverdale Firehouse BBQ and Ribs,485 S Cloverdale Blvd,Cloverdale,CA,95425
EZ Stop Market & Deli,1117 Sebastopol Rd,Santa Rosa,CA,95407
Beyond The Glory Sports Bar & Grill,1371 N McDowell Blvd,Petaluma,CA,94954
Mi Casa Cafe #2,8465 Old Redwood Hwy Ste 510,Windsor,CA,95492
Samuel Jones Hall,4020 Finley Ave,Santa Rosa,CA,95407
Foodie Farmhouse,3308 Industrial Dr #4,Santa Rosa,CA,95403
Patty Cakes Catering,2060 College Ave,Santa Rosa,CA,95401
Stony Point Breakast & Burgers,750 Stony Point Rd A-190,Santa Rosa,CA,95407
Santa Rosa SeaFood & Catering,946 Santa Rosa Ave,Santa Rosa,CA,95407
West Coast Wine Partners dba Valley of the Moon Winery,777 Madrone Rd,Glen Ellen,CA,95442
AFC Sushi @ Safeway #1576,2300 Mendocino Ave,Santa Rosa,CA,95403
Wildflour Bread,140 Bohemian Hwy,Freestone,CA,95492
Shogun Japanese Restaurant,1531 Farmers Ln,Santa Rosa,CA,95405
Franco-American Bakery,202 W 7th St,Santa Rosa,CA,95401
Blue Beagle Coffee,540 Larkfield Ctr,Santa Rosa,CA,95403
Taqueria Y Torteria Timilpan,18976 Highway 12,Sonoma,CA,95476
"Hideaway, The",128 Kentucky St,Petaluma,CA,94952
Los Magos y sus Delicias,2995 Wiljan Ct,Santa Rosa,CA,95403
Cheesesteak Shop,401 Kenilworth Dr Ste 930,Petaluma,CA,94954
VJB Vineyards & Cellars,60 Shaw Ave,Kenwood,CA,95452
White Oak Vineyards & Winery,7505 Highway 128,Healdsburg,CA,95448
A & L Market,1435 E Cotati Ave,Rohnert Park,CA,94928
Jo-Ann Fabric & Craft Stores #1763,425 W Rohnert Park Expy,Rohnert Park,CA,94928
Petaluma Sport Shop & Dive,884 Bodega Ave,Petaluma,CA,94952
Kastania Vineyards,4415 Kastania Rd,Petaluma,CA,94952
Mangia at JDSU,1405 Thunderbolt Way,Santa Rosa,CA,95407
"DaVero Sonoma, Inc.",766 Westside Rd,Healdsburg,CA,95448
Westerbeke Ranch,2300 Grove St,Sonoma,CA,95476
Fisherman's Cove Deli & Bait,1850 Bay Flat Rd,Bodega Bay,CA,94923
Borolos Original Pizza LLC,500 Mission Blvd #B,Santa Rosa,CA,95409
Magical Ice Cream,625 Sebastopol Rd #B,Santa Rosa,CA,95407
Joey's Original Pizza,131 S Main St,Sebastopol,CA,95472
Starbucks #5418,6277 Commerce Blvd,Rohnert Park,CA,94928
Balletto Vineyards,5700 Occidental Rd,Santa Rosa,CA,95401
Train Town,20264 Broadway,Sonoma,CA,95476
Dollar General Retail Store,2025 Sebastopol Rd,Santa Rosa,CA,95407
Roxy Stadium 14,85 Santa Rosa Ave,Santa Rosa,CA,95401
Mariscos El Dorado,6480 Redwood Dr,Rohnert Park,CA,94928
Kirin Restaurant,2700 Yulupa Ave,Santa Rosa,CA,95405
SRJC Food Facilities,1501 Mendocino Ave,Santa Rosa,CA,95401
Speakeasy,139 N Petaluma Blvd Ste B,Petaluma,CA,94952
Cafe Lucia,235 Healdsburg Ave Ste 105,Healdsburg,CA,95448
Sonoma Coast Shuckers,900 Chanticleer Way Rd,Healdsburg,CA,95448
Mark West Lodge,2520 Mark West Springs Rd,Santa Rosa,CA,95404
Kaiser Permanente,3900 Lakeville Hwy,Petaluma,CA,94954
Kabuki Restaurant,17 N Petaluma Blvd,Petaluma,CA,94952
Jazzy's Grill & Curry,1105 Bodega Ave,Petaluma,CA,94952
Canneti LLC,6675 Front St,Forestville,CA,95436
Thistle Meats Inc.,160 N Petaluma Blvd,Petaluma,CA,94952
Coffee Bazaar,14045 Armstrong Woods Rd,Guerneville,CA,95446
Rivers Edge Kayak & Canoe Trips,13840 Old Redwood Hwy,Healdsburg,CA,95448
Sonoma Acres Care Center,765 Donald St,Sonoma,CA,95476
Cazadero General Store,6125 Cazadero Hwy,Cazadero,CA,95421
"Salt Point Lodge, Inc.",23255 Highway 1,Jenner,CA,95450
Taco Chido,57 Montgomery Dr,Santa Rosa,CA,95405
Talk of the Town Catering,531 Broadway St,Sonoma,CA,95476
Ceres Community Project,7351 Bodega Ave,Sebastopol,CA,95473
Kunde Estate Winery,9825 Highway 12,Kenwood,CA,95452
AFC Sushi @ Safeway 1265,2785 Yulupa Ave,Santa Rosa,CA,95405
Sonoma Mountain Pizza,701 Sonoma Mountain Pky Ste B4,Petaluma,CA,94954
V Tea,1620 Mendocino Ave #C,Santa Rosa,CA,95401
Chalkboard,29 North St,Healdsburg,CA,95448
Kashia Elementary School,31510 Skaggs Springs Rd,Stewarts Point,CA,95480
"California Park Ventures ""Lakeside Grill""",400 Violetti Dr,Santa Rosa,CA,95405
SSU Bookstore,1801 E Cotati Ave,Rohnert Park,CA,94928
"Seed Bank, The",199 N Petaluma Blvd,Petaluma,CA,94952
Kabob And Tandoori Ghar,1280 Healdsburg Ave #101,Healdsburg,CA,95448
Valley Wine Education & Sales LLC,535 W Napa St,Sonoma,CA,95476
Little Caesar,1470 Mendocino Ave,Santa Rosa,CA,95404
Senju Japanese Restaurant,8960 S Brooks Rd,Windsor,CA,95492
Sonoma Enlivened dba The Kefiry,972 S Gravenstein Hwy Ste 120,Sebastopol,CA,95472
Fairwest Grocery Beer & Wine,741 Western Ave,Petaluma,CA,94952
Tiddle E. Winks,115 E Napa St # A,Sonoma,CA,95476
Redwood Empire Food Bank,3990 Brickway Blvd,Santa Rosa,CA,95403
C Donatiello Winery,320 Center St,Healdsburg,CA,95448
Sigh,29 E Napa St Ste C,Sonoma,CA,95476
Fast & Easy Mart #7,2101 W College Ave #B,Santa Rosa,CA,95401
Indian Peach Food Co Inc.,1370 Industrial Ave Ste A,Petaluma,CA,94952
Haku Sushi,518 7th St,Santa Rosa,CA,95401
Oakmont Gardens,301 White Oak Dr,Santa Rosa,CA,95409
Belly Left Coast Kitchen and Tap Room LLC,523 4th St,Santa Rosa,CA,95401
Guayaki SRP Inc Yerba Mate Bar,6782 Sebastopol Ave,Sebastopol,CA,95472
Baskin Robbins Franchise  PC# 348158,9075 Windsor Rd,Windsor,CA,95492
Sal's New Yorker Pizzeria,8270 Old Redwood Hwy,Cotati,CA,94931
El Primo's Inc dba Acapulco Mexican Grill,90 Mark West Springs Rd Ste 160,Santa Rosa,CA,95403
Blue Moon Saloon,19380 Highway 12,Sonoma,CA,95476
Himalayan Cafe & Grill,1880 Mendocino Ave #D,Santa Rosa,CA,95401
Field Stone Winery,10075 Highway 128,Healdsburg,CA,95448
Lupitas Ice Cream,52 W Barham Ave,Santa Rosa,CA,95407
Persona Wood Fired Pizza,701 4th St,Santa Rosa,CA,95404
Momo Grill,750 Stony Point Rd A-155,Santa Rosa,CA,95407
Lulu & Hill,1211 W College Ave # D,Santa Rosa,CA,95401
Wildwood Retreat Inc,20111 Old Cazadero Rd,Guerneville,CA,95446
Q Sub,449 Rohnert Park Expy,Rohnert Park,CA,94928
7 Eleven Store #2365-35064B,1194 S Cloverdale Blvd,Cloverdale,CA,95452
Cafe Unity,4825 Redwood Dr,Rohnert Park,CA,94928
Drifter Pizza Co,6780 Depot St #130,Sebastopol,CA,95472
Live It Up Wellness,711 Stony Point Rd Ste 12,Santa Rosa,CA,95407
Kwik Shop #2,1311 Guerneville Rd,Santa Rosa,CA,95403
Freestone Country Store,500 Bohemian Hwy A,Freestone,CA,95472
Taqueria Guadalajara,125 Healdsburg Ave,Healdsburg,CA,95448
Wine Country Chocolates,14301 Arnold Dr #2,Glen Ellen,CA,95442
Wetzels Pretzels,2053 Santa Rosa Plz,Santa Rosa,CA,95401
Fregene's,356 Petaluma Blvd,Petaluma,CA,94954
Bodega Harbour HOA,21301 Heron Dr,Bodega Bay,CA,94923
Dech Foods Inc Subway,804 Coddingtown Ctr,Santa Rosa,CA,95403
Off The Hook Sonoma Style Smoked Meats,18816 Sonoma St Ste E & F,Sonoma,CA,95476
Papa Murphy's Pizza Sonoma,678 W Napa St,Sonoma,CA,95476
Cardinal Newman High School,50 Ursuline Rd,Santa Rosa,CA,95403
"SCSD Acquisitions, LLC Subway Sandwiches #6048",1940 Piner Rd Ste 100,Santa Rosa,CA,95403
Olea Hotel,5131 Warm Springs Rd,Glen Ellen,CA,95442
Dickey's Barbecue Pit,417 N McDowell Blvd Ste 10,Petaluma,CA,94952
Wagon Wheel Liquor & Deli,960 W College Ave,Santa Rosa,CA,95401
Tuck Box/ 2C Catering Inc,545 Pacific Ave,Santa Rosa,CA,95404
Stony Point Market,3207 Stony Point Rd,Santa Rosa,CA,95407
Chevron #1759,879 Hopper Ave A,Santa Rosa,CA,95403
Aventine Glen Ellen,14301 Arnold Dr Ste 32,Glen Ellen,CA,95442
El Mariachi,3595 Bohemian Hwy,Occidental,CA,95465
Slam Burger,5 S Petaluma Blvd C,Petaluma,CA,94952
Bianchinis the Sandwich & Salad Market,2240 Mendocino Ave # C-1,Santa Rosa,CA,95403
See's Candies,9098 S Brooks Rd,Windsor,CA,95492
Tacos Los 3 Hermanos,600 Washington St,Petaluma,CA,94952
Hillside School,365 Kuck Ln,Petaluma,CA,94952
Dierk's Midtown Cafe,1422 4th St Ste D,Santa Rosa,CA,95404
Compass Group / Eurest @ Agilent,1400 Fountain Grove PKY,Santa Rosa,CA,95403
Homegrown Baking Co,201 W Napa St #21,Sonoma,CA,95476
Santa Rosa Charter School for The Arts,2230 Lomitas Ave,Santa Rosa,CA,95404
Mister Moms,931 S Petaluma Blvd,Petaluma,CA,94952
Purely Simple Catering,49103 Milmont Dr,Fremont,CA,94538
Janesco Enterprises Inc. dba McDonald's,6650 Hembree Ln,Windsor,CA,95492
Carrows Restaurant #121,3441 Cleveland Ave,Santa Rosa,CA,95403
Fioris Grill,722 Village Ct,Santa Rosa,CA,95405
Julianne's Espresso Connection,3355 Santa Rosa Ave,Santa Rosa,CA,95407
Cambiando tu Vida,6555 Hunter Dr Ste 5,Rohnert Park,CA,94928
Eli Grace Catering,399 Business Park Ct,Windsor,CA,95492
Biscotti Diva's Karma Cafe,124 S Cloverdale Blvd,Cloverdale,CA,95425
Keith & Dons 76,1311 4th St,Santa Rosa,CA,95404
Kenwood Farms,9250 Sonoma Hwy,Kenwood,CA,95452
Kitchen 335,335 Healdsburg Ave,Healdsburg,CA,95448
Productos Toni,640 Sebastopol Rd,Santa Rosa,CA,95407
Friedman Bros Hardware,4055 Santa Rosa Ave,Santa Rosa,CA,95407
Jolly Pig BBQ,276 E Napa St,Sonoma,CA,95476
Blended Choice LLC,14028 Armstrong Woods Rd,Guerneville,CA,95446
H Park Pool Snack Bar,1200 Golf Course Dr,Rohnert Park,CA,94928
Sag Monkey,3730 Bohemian Hwy,Occidental,CA,95465
Raymonds Bakery,5400 Cazadero Hwy,Cazadero,CA,95421
CocoaPlanet Factory and Tasting Room,921 Broadway,Sonoma,CA,95476
"Mama Tina's Ravioli, LLC",399 Business Park Ct Ste 311,Windsor,CA,95492
Spreckels Performing Arts Center,5409 Snyder Ln,Rohnert Park,CA,94928
Nature's Grove,2097 Stagecoach Rd Ste 105,Santa Rosa,CA,95404
Stillwater Catering,545 Pacific Ave,Santa Rosa,CA,95404
Bodega Bay Hospitality,3919 Bay Hill St,Bodega Bay,CA,94523
Benecia Pool Concsn Std,7469 Bernice Ave,Rohnert Park,CA,94928
Ridgway Swim Center Concession,455 Ridgway Ave,Santa Rosa,CA,95401
McTs Bullpen Inc,16246 1st St,Guerneville,CA,95446
Arista Winery,7015 Westside Rd,Healdsburg,CA,95448
Santa Rosa Chevron,2225 Cleveland Ave,Santa Rosa,CA,95403
Stonestreet Winery,7111 Highway 128,Healdsburg,CA,95448
Panda Express #903,2020 Santa Rosa Ave,Santa Rosa,CA,95407
Jacuzzi Family Vineyards,24724 Highway 121,Sonoma,CA,95476
SCSF Newco Inc dba Sweet Factory,2051 Santa Rosa Plz,Santa Rosa,CA,95401
Cutty Muggs Coffee,9725 Main St,Monte Rio,CA,95462
La Chulada,1420 S McDowell Blvd Ste D,Petaluma,CA,94954
Duke's Common,109 Plaza St Ste A,Healdsburg,CA,95448
Taco Bell #5182,8900 Brooks Rd,Windsor,CA,95492
Zambala Enterprises Karma,702 Bennett Valley Rd,Santa Rosa,CA,95404
Sam's Donuts,1080 Sebastopol Rd,Santa Rosa,CA,95404
Ledson Hotel,484 E 1st St,Sonoma,CA,95476
Inn at Occidental,3657 Church St,Occidental,CA,95465
De Loach Vineyards,1791 Olivet Rd,Santa Rosa,CA,95401
Sonoma Chalet Bed & Breakfast,18935 W 5th St,Sonoma,CA,95476
Mrs. Fields - Treat time,2101 Santa Rosa Plz,Santa Rosa,CA,95401
Basque Boulangerie Cafe,460 E 1st St,Sonoma,CA,94576
Guerneville Liquor,16297 Main St,Guerneville,CA,95446
Beyond The Glory Sportsw Bar & Grill,1371 N McDowell Blvd,Petaluma,CA,94954
Chinatown Restaurant,157 Kentucky St,Petaluma,CA,94952
Pinoli Cucina Rustica,13555 Highway 116,Guerneville,CA,95446
"Horatius, Inc",14301 Arnold Dr Ste 1,Glen Ellen,CA,95442
Cline Cellars,24737 Arnold Dr,Sonoma,CA,95476
Office Depot #2208,6400 Hembree Ln #100,Windsor,CA,95492
La Escondida,8492 S Gravenstein Hwy #O,Cotati,CA,94931
Pizza Guys #182 - Petaluma,701 Sonoma Mountain Pky Ste B-4,Petaluma,CA,94954
Gators Rustic Burger & Catering,501 Lakeville St Ste C,Petaluma,CA,94952
Patriot,690 S Cloverdale Blvd,Cloverdale,CA,95425
Cloverdale Unified School District Concession Building,97 School St,Cloverdale,CA,95405
Vista Coffee & Snacks,3569 Round Barn Cir,Santa Rosa,CA,95403
Nam Catering,2995 Wiljan Ct,Santa Rosa,CA,95407
Melted Petaluma,136 N Petaluma Blvd,Petaluma,CA,94954
Sonoma Culinary Hive,7300 Healdsbur Ave #A,Sebastopol,CA,95472
MD Liquor & Food #2,1930 Sebastopol Rd,Santa Rosa,CA,95407
Auberge on the Vineyard,29955 River Rd,Cloverdale,CA,95425
Panda Express,740 Stony Point Rd #A,Santa Rosa,CA,95407
Pony Espresso,10315 Bodega Hwy,Sebastopol,CA,95472
Origenes dba: Creative Palate Wooks,1760 Industrial Way,Napa,CA,94558
"Sky Shack Enterprises, LLC",4825 Redwood Dr,Rohnert Park,CA,94928
Mi Tierra Mexican Restaurant,2000 Sebastopol Rd,Santa Rosa,CA,95407
WBCMT 2006-C27 Arnold Drive LP dba Gaige House Inn,13540 Arnold Dr,Glen Ellen,CA,95442
Hey Misstir Bar & Grill,52 Mission Cir Ste 111,Santa Rosa,CA,95405
Cafe Des Croissant,450 Raley Towne Ctr,Rohnert Park,CA,94928
Speers Market,7891 Mirabel Rd,Forestville,CA,95436
Gonnellas Country Market,3707 Main St,Occidental,CA,95465
Ray's Food Center/Steveo's Meat & Deli,2455 Dutton Ave,Santa Rosa,CA,95407
Boys & Girls Club Rohnert Park,7450 Santa Barbara Dr,Rohnert Park,CA,94928
Imwalle Gardens,685 W 3rd St,Santa Rosa,CA,95401
Silver Moon Restaurant,1880 Mendocino Ave #C,Santa Rosa,CA,95401
Fort Ross Winery,15725 Meyers Grade Rd,Jenner,CA,95450
Walgreens #15549,6285 Commerce Blvd,Rohnert Park,CA,94928
Adobe Creek Investments LLC,1901 Frates Rd,Petaluma,CA,94954
Los Gallos Taqueria GMB,1722 E Cotati Ave,Rohnert Park,CA,94828
Wine Country Chevron,1496 Healdsburg Ave,Healdsburg,CA,95448
Vitamin World #4906,2200 N Petaluma Blvd #315,Petaluma,CA,94952
Rotten Robbie #62,7200 Healdsburg Ave,Sebastopol,CA,95472
Depot 1870 Restaurant,241 W 1st St,Sonoma,CA,95476
Taqueria El Molcajete,1129 S Cloverdale Blvd Ste G,Cloverdale,CA,95425
Bodega Harbour Homeowners Assn. -Snack Bar,21295 Heron Dr,Bodega Bay,CA,94923
Panera Bread,401 Kenilworth Dr,Petaluma,CA,94952
"Parish Cafe, The",60 Mill St Ste A,Healdsburg,CA,95448
Sonoma Valley Bagel,130 Stony Point Rd Ste G,Santa Rosa,CA,95401
Soltes Family Corporation DBA Pasta etc.,1010 N Dutton Ave,Santa Rosa,CA,95401
Redwood Empire Food Bank - Olive Grove,3990 Brickway Blvd,Santa Rosa,CA,95403
Tup Tim Thai Cuisine LLC,208 N Petaluma Blvd,Petaluma,CA,94952
Redwood Empire Food Bank - Rancho Feliz,6607 Redwood Dr,Rohnert Park,CA,94928
Sonoma-Cutrer Vineyards,4401 Slusser Rd,Windsor,CA,95492
Gales Central Club Inc,106 N Petaluma Blvd,Petaluma,CA,94952
Arlene Francis Center,99 6th St,Santa Rosa,CA,95401
Happy Donuts,8962 S Brooks Rd,Windsor,CA,95492
Goodwill Culinary Center,3400 Chanate Rd,Santa Rosa,CA,95403
"Lodge at Wikiup, The",4900 Carriage Ln,Santa Rosa,CA,95403
Cotati Market,8285 Old Redwood Hwy,Cotati,CA,94931
Grape Leaf Inn,539 Johnson St,Healdsburg,CA,95448
Buds Custom Meats,7750 Petaluma Hill Rd,Penngrove,CA,94951
G & M Chevron-Food Mart,1855 Guerneville Rd,Santa Rosa,CA,95403
East Cotati Shell,1484 East Cotati,Rohnert Park,CA,94928
Stout Brothers Irish Pub & Restaurant,527 4th St,Santa Rosa,CA,95401
Valero Rohnert Park,175 Southwest Blvd,Rohnert Park,CA,94928
Expressway Valero,6301 Commerce Blvd,Rohnert Park,CA,94928
Silver Screen Video,860 N Petaluma Blvd,Petaluma,CA,94952
Bastardo Legg Enterprise dba Rafy's Pizzeria,615 E Washington St Ste B,Petaluma,CA,94952
Petaluma Coffee & Tea,212 2nd St,Petaluma,CA,94952
Redwood Oil Service Station,7716 Old Redwood Hwy,Cotati,CA,94931
Walgreen #03084,7800 Old Redwood Hwy,Cotati,CA,94931
Wal-Mart #2553,6650 Hembree Ln,Windsor,CA,95492
Delicias Elenita,2995 Wiljan Ct,Santa Rosa,CA,95407
Community Church,1000 N Gravenstein Hwy,Sebastopol,CA,95473
Santa Rosa Food Store,451 Sebastopol Rd,Santa Rosa,CA,95407
Rodney Strong Vineyards,11455 Old Redwood Hwy,Healdsburg,CA,95448
Michael's Arts & Crafts Store #2019,2775 Santa Rosa Ave,Santa Rosa,CA,95407
Mill Creek Vineyards,1401 Westside Rd,Healdsburg,CA,95448
Fast & Easy #47,2550 Guerneville Rd #A,Santa Rosa,CA,95401
Rotten Robbie,2515 Guerneville Rd,Santa Rosa,CA,95401
Simmer Vietnamese Kitchen,299 N McDowell Blvd,Petaluma,CA,94954
Quick Pick Liquors,1198 S Cloverdale Blvd #B,Cloverdale,CA,95425
"Home Depot #6667, The",6280 Hembree Ln,Windsor,CA,95492
Taylor & Norton Wine Merchants,19210 Highway 12,Sonoma,CA,95476
Mission Car Wash,257 College Ave,Santa Rosa,CA,95401
K-Mart #3501,261 N McDowell Blvd,Petaluma,CA,94954
Steele Lane Shell,777 Steele Ln,Santa Rosa,CA,95403
Richard Crane Elementary School,1290 Southwest Blvd,Rohnert Park,CA,94928
Thai House Restaurant,525 4th St 2nd Floor,Santa Rosa,CA,95401
Ridge Lytton Springs Winery,650 Lytton Springs Rd,Healdsburg,CA,95448
Healdsburg Performing Arts Theater,115 North St,Healdsburg,CA,95448
The Smoked Olive LLC,133 Copeland St # B,Petaluma,CA,94952
Santa Rosa Unocal,3551 Cleveland Ave,Santa Rosa,CA,95401
Olde Sonoma Public House,18615 Hwy 12,Sonoma,CA,95476
Meadow School,880 Maria Dr,Petaluma,CA,94954
Corona Creek Elementary,1851 Hartman Ln,Petaluma,CA,94954
General Nutrition Center #1084,521 Santa Rosa Plaza,Santa Rosa,CA,95401
Tamales Salazar,2995 Wiljan Ct,Santa Rosa,CA,95407
Matanzas Creek Winery,6097 Bennett Valley Rd,Santa Rosa,CA,95404
Emily Taco Truck,1410 Sebastopol Rd,Santa Rosa,CA,95407
Casini Ranch Campground,22855 Moscow Rd,Duncans Mills,CA,95430
General Nutrition Center #5143,6368 Commerce Blvd,Rohnert Park,CA,94928
Forestville Club,6520 Highway 116,Forestville,CA,95436
Taylor Childrens Preschool,500 N Main St,Sebastopol,CA,95472
Big Ds Dogs,14400 Highway 1,Valley Ford,CA,94972
Many Rivers Books & Tea,130 S Main St #101,Sebastopol,CA,95472
Criminal Baking Co.,463 Sebastopol Ave,Santa Rosa,CA,95404
Garden Inn,1500 Santa Rosa Ave,Santa Rosa,CA,95404
Wingstop,229 N McDowell Blvd,Petaluma,CA,94954
Kendall-Jackson Winery,337 Healdsburg Ave,Healdsburg,CA,95448
Petaluma Golf Center Bar,200 Stony Point Rd,Petaluma,CA,94952
Round Robin,616 Mendocino Ave,Santa Rosa,CA,95401
El Verano Market,19050 Bay St,El Verano,CA,95433
The Bia Cafe,19420 Highway 116 # A,Monte Rio,CA,95462
Quivira Vineyards,4900 W Dry Creek Rd,Healdsburg,CA,95448
San Lorenzo Winery dba Journeyman Meat Co.,404 Center St,Healdsburg,CA,95448
Plaza Tequila Taqueria,600 E Washington St,Petaluma,CA,94952
Mazzocco Winery,1400 Lytton Springs Rd,Healdsburg,CA,95448
Village Bakery At The Barlow,6760 McKinley St Ste #150,Sebastopol,CA,95472
"Beverages & More, Inc dba BevMo",401 Kenilworth Dr Ste 1110,Petaluma,CA,94952
Dutch Bros Coffee,1300 Mendocino Ave,Santa Rosa,CA,95401
Sea Noodle Bar,286 Coddingtown Ctr,Santa Rosa,CA,95401
Kieth & Don's II,4180 Montgomery Dr,Santa Rosa,CA,95405
Fairfield Inn & Suites,1101 S Gravenstein Hwy,Sebastopol,CA,95472
Chipotle Mexican Grill #2059,401 Kenilworth Dr Ste 710,Petaluma,CA,94952
Tea Rex,1 Padre Pky Ste E,Rohnert Park,CA,94931
Rainbow Cattle Company,16220 Main St,Guerneville,CA,95446
Fast & Easy Mart Windsor,8916 S Brooks Rd,Windsor,CA,95492
California Food & Gas,18605 Sonoma Hwy,Sonoma,CA,95476
Ocean Cove Grocery,23125 Highway 1,Jenner,CA,95450
Pho Crazy LLC,320 W 3rd St,Santa Rosa,CA,95401
Windsor Market #7,9025 Old Redwood Hwy #G,Windsor,CA,95492
Wine Truffle Boutique,60 Shaw Ave,Kenwood,CA,95452
Fast Gas & Market,1410 Santa Rosa Ave,Santa Rosa,CA,95404
"Nutty,The",995 Piner Rd,Santa Rosa,CA,95403
Highway Espresso,5505 Old Redwood Hwy,Santa Rosa,CA,95403
Bali Liquor & Foods,109 N Cloverdale Blvd,Cloverdale,CA,95425
Wagon Wheel Saloon,3320 Mendocino Ave,Santa Rosa,CA,95401
Rochioli Winery,6192 Westside Rd,Healdsburg,CA,95448
Westside Shell,421 Washington St,Petaluma,CA,94952
Liquor Mart,3096 Coffey Ln,Santa Rosa,CA,95492
Samnzar Smokeshack #2,9201 Bodega Hwy,Sebastopol,CA,95472
Camacho Market,645 Sebastopol Rd,Santa Rosa,CA,95407
"Olive Press LLC, The",24724 Highway 121 #B,Sonoma,CA,95476
Scandia Bakery,500 W Napa St Ste 542,Sonoma,CA,95476
Mikes Truck Garden,1319 River Rd,Fulton,CA,95439
Gasco,421 S Petaluma Blvd,Petaluma,CA,94952
Copain Wines,7800 Eastside Rd,Healdsburg,CA,95448
Cookie...take a bite!,432 Larkfield Ctr,Santa Rosa,CA,95403
Marys Churros,2995 Wiljan Ct,Santa Rosa,CA,95407
Toad Hollow Vineyards,409 Healdsburg Ave #A,Healdsburg,CA,95448
Hecht Cinemas LLC / Clover Theater,121 E 1st St,Cloverdale,CA,95425
Americas Best Value Inn & Suites,74 Healdsburg Ave,Healdsburg,CA,95448
Rite Aid #6023,1551 Farmers Ln,Santa Rosa,CA,95405
Los Plebes,2995 Wiljan Ct,Santa Rosa,CA,95407
China Legend Restaurant,500 Mission Blvd #E,Santa Rosa,CA,95409
Jenny Craig Weight Loss Ctr #3027,1401 Guerneville Rd,Santa Rosa,CA,95403
Domino's Pizza #8229,449 Stony Point Rd,Santa Rosa,CA,95406
Benton Market,801 Benton St,Santa Rosa,CA,95404
Video Tepa,275 N McDowell Blvd,Petaluma,CA,94954
TTY,531 Broadway St,Sonoma,CA,95476
Rotten Robbie #63,535 Healdsburg Ave,Healdsburg,CA,95448
Trentadue Winery LLC,19170 Geyserville Ave,Geyserville,CA,95441
Mendocino Avenue Car Wash,2700 Mendocino Ave,Santa Rosa,CA,95401
Matrix Winery,3291 Westside Rd,Healdsburg,CA,95448
Vineyard Inn Hotel,23000 Arnold Dr,Sonoma,CA,95476
BJ's Market,407 Santa Rosa Ave,Santa Rosa,CA,95404
Highlands Resort,14000 Woodland Dr,Guerneville,CA,95446
Riccardo's,2700 Yulupa Ave Ste 7,Santa Rosa,CA,95405
Perk Central,500 Doyle Park Dr,Santa Rosa,CA,95405
Sebastiani Theatre,476 E 1st St,Sonoma,CA,95476
Staples Inc,2222 Cleveland Ave,Santa Rosa,CA,95401
Trust Winery Ltd,243 Healdsburg Ave,Healdsburg,CA,95448
Sam's Market #12,3088 Marlow Rd,Santa Rosa,CA,95403
CVS/Pharmacy #09931,9030 S Brooks Rd,Windsor,CA,95492
Ibleto Meats,1492 Lowell Ave,Cotati,CA,94931
Macys,555 Coddingtown Ctr,Santa Rosa,CA,95401
Recreational Equipment Inc (REI),2715 Santa Rosa Ave,Santa Rosa,CA,95407
7 Eleven #2365-35353B,1950 Guerneville Rd,Santa Rosa,CA,95403
Passalacqua Winery,3805 Lambert Bridge Rd,Healdsburg,CA,95448
Ross Stores #221,151 N McDowell Blvd,Petaluma,CA,94952
General's Daughter,400 W Spain St,Sonoma,CA,95476
CVS/Pharmacy,365 E Washington St,Petaluma,CA,94952
Dry Creek General Store,208 Matheson St,Healdsburg,CA,95448
Santa Rosa Grocery Outlet,1116 4th St,Santa Rosa,CA,95404
Cambia Tu Vida,8465 Old Redwood Hwy Ste 202,Windsor,CA,95492
Taqueria La Fiesta / Noodle Soup,1410 Sebastopol Rd,Santa Rosa,CA,95407
Monroe School,2567 Marlow Rd,Santa Rosa,CA,95403
Kaede Japanese Restaurant,462 Larkfield Ctr,Santa Rosa,CA,95403
"Burlington Coat Factory of CA, LLC",311 W Rohnert Park Expy,Rohnert Park,CA,94928
Mana,1110 Petaluma Hill Rd #3,Santa Rosa,CA,95404
Villa Messina,316 Burgundy Rd,Healdsburg,CA,95448
Rosemarys Garden,132 N Main St,Sebastopol,CA,95472
Home Depot #641,4825 Redwood Dr,Rohnert Park,CA,94928
Boudin SF,2345 Midway St,Santa Rosa,CA,95405
R & B Market & Liquor,1130 S Gravenstein Hwy,Sebastopol,CA,95472
Reeb Ice Cream #3,250 Sebastopol Rd,Santa Rosa,CA,95407
Broadway Shell,616 Broadway,Sonoma,CA,95476
Mark West Market,5501 Old Redwood Hwy,Santa Rosa,CA,95403
Sees Candies #30,2360 Sonoma Ave,Santa Rosa,CA,95405
California Food & Fuel #2,18618 Sonoma Hwy,Sonoma,CA,95476
99 Cents Only Store,415 Rohnert Park Expy,Rohnert Park,CA,94928
NY Pie,65 Brookwood Ave Ste #1-2,Santa Rosa,CA,95404
Tamales Mobile,250 Sebastopol Rd,Santa Rosa,CA,95407
Big Lots # 4588,565 Rohnert Park Expy,Rohnert Park,CA,94928
Schwans Home Service Inc,440 E Todd Rd,Santa Rosa,CA,95407
Santa Rosa Junior College Bookstore,222 Elliott Ave,Santa Rosa,CA,95401
Topsy's Kitchen,131 Kentucky St,Petaluma,CA,94952
Red Boy Pizza Petaluma,401 Kenilworth Dr Ste 910,Petaluma,CA,94952
"Santa Rosa Grand Petroleum, Inc.",532 E Washington St,Petaluma,CA,94952
Hope Merrill House,21253 Geyserville Ave,Geyserville,CA,95441
Red Clover Workers Brigade Inc.  dba: Community Market,6762 Sebastopol Ave Ste 100,Sebastopol,CA,95472
Russian River Wine Co/Downtown Wine,132 Plaza St,Healdsburg,CA,95448
Brass Spatula Personal Chef & Catering Service,702 Bennett Valley Rd,Santa Rosa,CA,95404
Santa Rosa Seafood Grill Inc,958 Santa Rosa Ave,Santa Rosa,CA,95404
Dollar Tree Store #4593,3589 Industrial Dr,Santa Rosa,CA,95404
Staples The Office Superstore,207 S McDowell Blvd,Petaluma,CA,94954
Skippy's Incredible Egg Store,951 Transport Way,Petaluma,CA,94952
Freestone Artisan Cheese,380 Bohemian Hwy,Freestone,CA,95472
Pharmaca Integrative Pharmacy,303 W Napa St,Sonoma,CA,95476
Espresso 101,3900 Lakeville Hwy,Petaluma,CA,94954
Railroad Station Bar and Grill,236 S Cloverdale Blvd,Cloverdale,CA,95425
Viansa Winery,25200 Arnold Dr,Sonoma,CA,95476
Asian Market,1110 Petaluma Hill Rd #1,Santa Rosa,CA,95404
SR Food & Liquor,1750 Santa Rosa Ave,Santa Rosa,CA,95404
Martin Hawley Brewing Enterprises LLC,1305 Cleveland Ave Ste A,Santa Rosa,CA,95401
Java Jack's,1310 Casa Grande Rd,Petaluma,CA,94954
North Bay Subs LLC  DBA: Subway #55463,8500 Gravenstein Hwy #B,Cotati,CA,94931
SSU Kiosk / Toast,1801 E Cotati Ave,Rohnert Park,CA,94928
Franchettis,1229 N Dutton Ave #A,Santa Rosa,CA,95404
West College Gas & Mart,50 W College Ave,Santa Rosa,CA,95401
"Naked Pig Cafe, The",435 Santa Rosa Ave,Santa Rosa,CA,95404
"Birds Cafe LLC, The",1407 Highway 1,Bodega Bay,CA,94923
Pearlessence Vineyard Inn,4097 Hessel Rd,Sebastopol,CA,95472
Woodfour Brewing Co,6780 Depot St #160,Sebastopol,CA,95472
Mi Chatita Market and Taqueria,1471 Southwest Blvd,Rohnert Park,CA,94928
24 Hour Fitness #577,6 Petaluma Blvd,Petaluma,CA,94952
Sebastopol Community Center,390 Morris St,Sebastopol,CA,95472
7-Eleven 2365-39708A & Wine Country ...,5875 Highway 12,Santa Rosa,CA,95409
Boyes Spring Food Center,18285 Highway 12,Sonoma,CA,95476
Pizzeria Vignette LLC,6750 McKinley St,Sebastopol,CA,95472
Cafe Scooteria,500 W Napa St Ste 512,Sonoma,CA,95476
Red Bee Barbeque,750 Stony Point Rd Ste A-135,Santa Rosa,CA,95407
Ortega's Market #2,946 Caufield Ln,Petaluma,CA,94952
Spancky's Bar,8201 Old Redwood Hwy,Cotati,CA,94931
Healdsburg Gas Mart,1281 Healdsburg Ave,Healdsburg,CA,95448
Dollar Tree #5022,40 E Washington St,Petaluma,CA,94952
Guerneville Road Shell,2005 Guerneville Rd,Santa Rosa,CA,95403
Kenwood Vineyards,9592 Sonoma Hwy,Kenwood,CA,95452
Starbucks #22421,6560 Hembree Ln Ste 170,Windsor,CA,95492
Valero on 4th,1333 4th St,Santa Rosa,CA,95404
La Michoacana,5 Tarman Dr,Cloverdale,CA,95425
Howarth Park-Snack Bar,620 Summerfield Rd,Santa Rosa,CA,95405
Enoteca Della Santina,127 E Napa St,Sonoma,CA,95476
Zichichi Family Vineyard & Winery,8626 W Dry Creek Rd,Healdsburg,CA,95448
Berrys on the Go,5290 Aero Dr,Santa Rosa,CA,95403
Roseland Gas Mart,921 Sebastopol Rd,Santa Rosa,CA,95407
Vineburg Grocery and Deli,997 Napa Rd,Sonoma,CA,95476
7 Eleven #2365-27912D,2000 Lakeville Hwy,Petaluma,CA,94954
T J Maxx #1090,2226 Cleveland Ave,Santa Rosa,CA,95403
Sam's Market #10,1500 Humboldt St,Santa Rosa,CA,95404
"Taste of Tea, The",109 North St,Healdsburg,CA,95448
El Pueblo Inn,896 W Napa St,Sonoma,CA,95476
Papapietro & Perry Inc,4791 Dry Creek Rd,Healdsburg,CA,95448
Bangkok 9,201 W Napa St # 9,Sonoma,CA,95476
La Crema,235 Healdsburg Ave Ste 101,Healdsburg,CA,95448
"Pullman Kitchen, The",205 5th St Ste A,Santa Rosa,CA,95401
Jitterbug Coffee,1111 Sonoma Ave,Santa Rosa,CA,95404
Hardcore Espresso,81 Bloomfield Rd,Sebastopol,CA,95472
Wilson Winery,1960 Dry Creek Rd,Healdsburg,CA,95448
Hudson Street Wineries,428 Hudson St,Healdsburg,CA,95448
Hamel Family Wines,15401 Highway 12,Sonoma,CA,95476
Heidi West Catering,432 Larkfield Ctr,Santa Rosa,CA,95403
Chevron # 1520,302 Rohnert Park Expy,Rohnert Park,CA,94928
Windsor Boys & Girls Club,9640 Brooks Rd,Windsor,CA,95492
Ovations Fanfare LP / Foodservices,1350 Bennett Valley Rd,Santa Rosa,CA,95404
"GF Wines, LLC",10701 Westside Rd,Healdsburg,CA,95448
Annapolis Winery,26055 Soda Springs Rd,Annapolis,CA,95412
Patricks of Bodega Bay,915 Highway 1,Bodega Bay,CA,94923
Friedman's Home Improvement,1360 Broadway Ave,Sonoma,CA,95476
Menchie's Santa Rosa Marketplace,2188 Santa Rosa Ave,Santa Rosa,CA,95407
Trione Vineyards & Winery,19550 Geyserville Ave,Geyserville,CA,95441
"Flamez Grill II, LLC dba Flamez Gril",701 Sonoma Mountain Pky Ste D-1,Petaluma,CA,94954
The Dog house,537 Highway 1,Bodega Bay,CA,94923
Guerneville Taco Truck L#193004R,16632 Highway 116,Guerneville,CA,95446
Taps Restaurant,54 E Washington St,Petaluma,CA,94952
Tamales la Fondita,816 Sebastopol Rd,Santa Rosa,CA,95407
Chipotle Mexican Grill #2044,336 Coddingtown Ctr # A,Santa Rosa,CA,95401
Bellyfull Dinners,1340 Industrial Ave Ste E,Petaluma,CA,94952
Glen Ellen Grocery,13710 Arnold Dr,Glen Ellen,CA,95442
Fork Roadhouse,9890 Bodega Hwy,Sebastopol,CA,95472
Big 5 Sporting Goods #420,2503 Cleveland Ave,Santa Rosa,CA,95403
7 Eleven #2365-16885D,167 N Pleasant Hill Ave,Sebastopol,CA,95472
Comstock Wines,1290 Dry Creek Rd,Healdsburg,CA,95448
Russian River,33655 Geysers Rd,Cloverdale,CA,95425
Santa Rosa Veterans Memorial Building,1351 Maple Ave,Santa Rosa,CA,95404
Cafe Bagel Croissants,925 Corporate Center Pky #E,Santa Rosa,CA,95407
Slice Of Life,6970 McKinley St,Sebastopol,CA,95472
Vintage Wine Estates,308 Center St # B,Healdsburg,CA,95448
Stony Point Wine & Liquor,750 Stony Point Rd A-175,Santa Rosa,CA,95407
Tienda Iniguez,18175 Highway 12,Sonoma,CA,95476
Hembree Shell,6301 Hembree Ln,Windsor,CA,95492
SoCo Coffee,600 Administration Dr,Santa Rosa,CA,95403
The Nectary,6760 McKinley St #130,Sebastopol,CA,95472
MSB Enterprise LLC dba USAVE 2,7500 Commerce Blvd,Cotati,CA,94931
Domino's Pizza,10 E Washington St,Petaluma,CA,94952
"Fritti Fritti Fritti, Inc. dba Zazu",6770 McKinley St Ste #150,Sebastopol,CA,95472
Banshee Wines,325 Center St,Healdsburg,CA,95448
Santa Rosa Players dba 6th Street Playhouse,52 W 6th St,Santa Rosa,CA,95401
Sift Cupcake + Dessert Bar,401 Kenilworth Dr Ste 920,Petaluma,CA,94952
Technology High School,1801 E Cotati Ave,Rohnert Park,CA,94928
Jaded Toad BBQ & Grill,500 E Cotati Ave,Cotati,CA,94931
"Cinnamon Bear Creekside Inn, Inc",19455 Sonoma Hwy,Sonoma,CA,95476
Giovanni y Los Magos #2,2995 Wiljan Ct,Santa Rosa,CA,95407
Wal-Mart #1755,4625 Redwood Dr,Rohnert Park,CA,94928
Kenwood Gas,8850 Sonoma Hwy,Kenwood,CA,95452
West Payran Shell,900 N Petaluma Blvd,Petaluma,CA,94952
Sky Dragon,2770 Stony Point Rd #A,Santa Rosa,CA,95407
Mei-Don Chinese Cuisine,6576 Oakmont Dr Ste A,Santa Rosa,CA,95409
Walter Hansel Wine Bistro,3535 Guerneville Rd,Santa Rosa,CA,95401
Sonoma County Meat Co,35 Sebastopol Ave,Santa Rosa,CA,95407
Simply Vietnam Express,3381 Cleveland Ave,Santa Rosa,CA,95403
Starbucks Coffee #17601,440 E Washington St,Petaluma,CA,94952
Courtyard by Marriott Santa Rosa,175 Railroad St,Santa Rosa,CA,95401
John & Zekes,420 Healdsburg Ave,Healdsburg,CA,95448
La Bodeguita Mexican Grill,2001 Highway 1 #C,Bodega Bay,CA,94923
Chuck E. Cheese's #399,601 Rohnert Park Expy,Rohnert Park,CA,94928
Little Maya Bakery Inc,18981 Sonoma Hwy B,Sonoma,CA,95476
Flaky Cream Donut Shop,441 Center St,Healdsburg,CA,95448
"One Whirld, Inc dba:Jamba Juice",733 Coddingtown Ctr Ste #346,Santa Rosa,CA,95401
Amy's Chinese Kitchen,8577 Gravenstein Hwy,Cotati,CA,94931
Seared,170 N Petaluma Blvd,Petaluma,CA,94925
Sax's Joint,317 S Petaluma Blvd,Petaluma,CA,94952
Primetime Nutrition,1450 Guerneville Rd # 2,Santa Rosa,CA,95401
Sutter Santa Rosa Regional Hospital,30 Mark West Springs Rd,Santa Rosa,CA,95403
Cloverdale Food Center,138 E 1st St,Cloverdale,CA,95425
Yogurt Time LLC,6599 Montecito Blvd,Santa Rosa,CA,95409
Healdsburg Liquors,427 Center St,Healdsburg,CA,95448
"Reel Fish Shop & Grill, The",401 Grove St,Sonoma,CA,95476
Ross Dress For Less,2015 Sebastopol Rd,Santa Rosa,CA,95407
Two Dog Night Creamery,6760 McKinley St #110,Sebastopol,CA,95472
BurtoNZ Bakery,9076 S Brooks Rd,Windsor,CA,95492
Dollar Tree #5851,3080 Marlow Rd Ste A-11,Santa Rosa,CA,95403
Bird and The Bottle,1055 4th St,Santa Rosa,CA,95404
Meadowcroft Wines,23574 Arnold Dr,Sonoma,CA,95476
Penzys Spice Store,736 Farmers Ln,Santa Rosa,CA,95404
Roth Winery,10309 Chalk Hill Rd,Healdsburg,CA,95448
"Golden Gate Bell, LLC Taco Bell #30939",406 E Washington St,Petaluma,CA,94952
Dick Warner Wines,29 N Petaluma Blvd Ste F,Petaluma,CA,94952
Estrella's Market & Taqueria,10351 Old Redwood Hwy #100,Windsor,CA,95492
7 Eleven #2365-24323B,5300 Old Redwood Hwy # D,Petaluma,CA,94954
Anaba Winery Tasting Room,60 Bonneau Rd,Sonoma,CA,95436
JC Penney Corp Inc Store #1509,800 Coddingtown Ctr,Santa Rosa,CA,95401
Delicious Dish,18709 Arnold Dr,Sonoma,CA,95476
Council on Aging - Bethlehem Towers,801 Tupper St,Santa Rosa,CA,95404
Falafel House,548 E Cotati Ave,Cotati,CA,94931
Q Craft,276 E Napa St,Sonoma,CA,95476
Gourmet Taco Shop,19235 Sonoma Hwy,Sonoma,CA,95476
Tamales Magos Restaurant,3448 Santa Rosa Ave,Santa Rosa,CA,95407
"Keller Estate, Ltd.",5875 Lakeville Hwy,Petaluma,CA,94954
Vida Saludable,555 Sebastopol Rd Ste E,Santa Rosa,CA,95407
Buffalo Wild Wings,401 Kenilworth Dr Ste 810,Petaluma,CA,94952
Domino's Pizza #7914,1460 E Cotati Ave Ste D,Rohnert Park,CA,94928
Round Table Pizza #1002,1003 Guerneville Rd,Santa Rosa,CA,95403
Got Balls Meatball Factory,3695 Petaluma Blvd,Petaluma,CA,94952
El Pacifico Market,3020 Santa Rosa Ave Ste D,Santa Rosa,CA,95407
Quik Stop Market #4141,601 N Cloverdale Blvd,Cloverdale,CA,95425
Full Circle Baking Inc,10151 Main St Ste 120,Penngrove,CA,94951
Wishbone Restaurant,841 N Petaluma Blvd,Petaluma,CA,94952
C S Grocery,419 Stony Point Rd,Santa Rosa,CA,95401
A Guy and His Grill,545 Pacific Ave,Santa Rosa,CA,95404
Solstice Senior Living at Santa Rosa,3585 Round Barn Blvd,Santa Rosa,CA,95403
MD Liquor & Food #15,8499 Old Redwood Hwy # 116,Windsor,CA,95402
Fast Gas & Mini Mart,5321 Old Redwood Hwy,Santa Rosa,CA,95403
Roche Winery,122 W Spain St,Sonoma,CA,95476
China Village,8501 Gravenstein Hwy,Cotati,CA,94931
GNC,6400 Hembree Ln Ste A,Windsor,CA,95492
Summer's Market,555 Powell Ave,Healdsburg,CA,95448
Wal-Mart Market #2468,901 Golf Course Dr,Rohnert Park,CA,94928
Palooza Catering and Events Inc,8910 Highway 12 # 9-C,Kenwood,CA,95452
Ulia's Delicatessen,1000 Clegg Ct,Petaluma,CA,94954
Physis LLC  dba:  Physis Foods,2995 Wiljan Ct,Santa Rosa,CA,95407
Lombardis,1120 Industrial Ave,Petaluma,CA,95404
Safeway Fuel Center #1576,2200 Mendocino Ave,Santa Rosa,CA,95401
Orchard Supply Hardware,2230 Cleveland Ave,Santa Rosa,CA,95403
River Theater Jerrys Knight Club,16135 Main St,Guerneville,CA,95446
"Habit Burger Grill, The",447 N McDowell Blvd Ste 60,Petaluma,CA,94954
East Wind Bakery,3851 Sebastopol Rd #109,Santa Rosa,CA,95407
Prime Time Nutrition,443 Dutton Ave #14,Santa Rosa,CA,95407
Papa's Hot Dogs,3600 N Petaluma Blvd,Petaluma,CA,94952
Cloverdale Citrus Fair Rental Kitchen,1 Citrus Fair Dr,Cloverdale,CA,95425
AFC Sushi @ Olivers #2,560 Montecito Blvd,Santa Rosa,CA,95409
Weight Watchers,2240 Mendocino Ave Ste C-3,Santa Rosa,CA,95403
"Gables Wine Country Inn, The",4257 Petaluma Hill Rd,Santa Rosa,CA,95404
Hawley Tasting Room,36 North St,Healdsburg,CA,95448
Forest Hill Market,20293 N Highway 116,Monte Rio,CA,95462
MacPhail Family Wines Tasting Lounge,6761 McKinley St Bldg #C,Sebastopol,CA,95472
Noodle Rice Etc,17121 Highway 116,Guerneville,CA,95466
Harvey's Gourmet Donuts,19030 Railroad Ave,Sonoma,CA,95476
Mi Pueblo Windsor,8832 Lakewood Dr,Windsor,CA,95492
MD Liquor & Food #7,9050 Graton Rd,Graton,CA,95444
"Society of St Vincent de Paul, St Francis Solano Conference",469 W 3rd St,Sonoma,CA,95476
Sophie's Cellars,25179 Main St,Duncans Mills,CA,95430
CVS Pharmacy #9656,2771 4th St,Santa Rosa,CA,95405
Aurora Behavioral Health Care LLC,1287 Fulton Rd,Santa Rosa,CA,95404
Abbys Ice Cream,625 Sebastopol Rd #B,Santa Rosa,CA,95407
Charlie Brunos Chuckwagon,1226 4th St,Santa Rosa,CA,95404
R&R Produce,160 Tokay Ave,Modesto,CA,95350
Christopher Creek Winery,641 Limerick Ln,Healdsburg,CA,95448
Hardisty's Inc,1513 Farmers Ln,Santa Rosa,CA,95405
CVS/ Pharmacy #9872,6877 Sebastopol Ave,Sebastopol,CA,95472-3416
S'wine Country BBQ,399 Business Park Ct Ste 311,Windsor,CA,95492
Selvera Enterprises dba: Seaside Metal,16222 Main St,Guerneville,CA,95446
Rio Theater / Don's Dogs,20396 Bohemian Hwy,Monte Rio,CA,95462
"New Sizzling Tandoor, The",409 Mendocino Ave,Santa Rosa,CA,95401
General Nutrition Center #9166,352 Coddingtown Ctr,Santa Rosa,CA,95403
Bohemian Creamery Inc,7380 Occidental Rd,Sebastopol,CA,95472
Northwoods Restaurant & Bar,19400 Highway 116,Monte Rio,CA,95462
"Mikes At The Crossroads, LLC",840 N Petaluma Blvd,Petaluma,CA,94952
Staples #1488,977 W Napa St,Sonoma,CA,95476
"Coffee Doctor, The",5900 State Farm Dr Ste A,Rohnert Park,CA,94928
Chipotle Mexican Grill #1377,2182 Santa Rosa Ave,Santa Rosa,CA,95407
El Roy's Mexican Grill,2995 Wjiljan Ct,Santa Rosa,CA,95407
Happy Dog,18962 Sonoma Hwy,Sonoma,CA,95476
Case Ranch Inn Inc.,7446 Poplar Dr,Forestville,CA,95436
Wiseman's Valero,1400 Farmers Ln,Santa Rosa,CA,95405
Windsor Palms Market,8465 Old Redwood Hwy Ste 720,Windsor,CA,95492
Flour Girl,439 N Cloverdale Blvd,Cloverdale,CA,95425
Dollar Tree #5290,640 E Cotati Ave Ste B,Cotati,CA,94931
Molly's Bakery,2700 Yulupa Ave Ste 17,Santa Rosa,CA,95405
AM Mini Merket Stop'N'Go Liquor LLC,440 Hearn Ave,Santa Rosa,CA,95407
Geyser Peak Winery,2306 Magnolia Dr,Healdsburg,CA,95448
Quik Stop Market #2035,816 McMinn Ave,Santa Rosa,CA,95407
Jidaiya Restaurant,1475 Southwest Blvd Ste 2-B,Rohnert Park,CA,94928
Noble Folk Ice Cream & Pie Bar,116 Matheson St,Healdsburg,CA,95448
Indie Kitchen,501 Lakeville St #C,Petaluma,CA,94952
Northbay Subs LLC Subway #21769,927 Broadway,Sonoma,CA,95476
Petra King Falafel,100 Brown St #150,Sebastopol,CA,95472
Higher Ground Organic Espresso,16350 3rd St #6,Guerneville,CA,95446
JHHD Corporation  DBA: MD Gas & Food #14,16446 Main St,Guerneville,CA,95446
Wine Country Artisans Catering,12195 Highway 116,Guerneville,CA,95446
Sonoma Charter School,17202 Sonoma Hwy,Sonoma,CA,95476
Eye Candy Chocolatier,6761 Sebastopol Ave Ste 400,Sebastopol,CA,95472
St Vincent De Paul High School,849 Keokuk St,Petaluma,CA,94958
Kozy Kar,404 Mendocino Ave #D,Santa Rosa,CA,95404
Sunrise donuts,68 E Washington St,Petaluma,CA,94952
"Wheeler Winery, Inc. dba Buena Vista Winery",18000 Old Winery Rd,Sonoma,CA,95476
Wm Cofield Cheesemakers,6780 McKinley St #110,Sebastopol,CA,95472
Transforma Tu Vida,1321 Guerneville Rd Ste C,Santa Rosa,CA,95403
Amy's Drive Thru,58 W Golf Course Dr,Rohnert Park,CA,94954
La Casa de Sonoma,121 E Spain St,Sonoma,CA,95476
Bayer Park And Garden,1550 West Ave,Santa Rosa,CA,95407
Virginia Dare Winery,22281 Chianti Rd,Geyserville,CA,95441
Sebastopol Hardware Center,660 N Gravenstein Hwy,Sebastopol,CA,95472
"Golden Gate Bell, LLC Taco Bell #30932",771 Stony Point Rd,Santa Rosa,CA,95407
Rialto Cinemas,6868 McKinley St,Sebastopol,CA,95472
Don Julio's Rincon Latin Grill & Pupusas,217 Southwest Blvd,Rohnert Park,CA,94928
"Golden Gate Bell, LLC Taco Bell #30942",2000 Santa Rosa Ave,Santa Rosa,CA,95407
Oumi Sushi at Sprouts #274,401 Kenilworth Dr Ste 1040,Petaluma,CA,94952
Easy Stop Market #1,925 Broadway,Sonoma,CA,95476
Kelley & Young Wine Garden Inn,302 N Main St,Cloverdale,CA,95425
Oliver's Market,9230 Old Redwood Hwy,Windsor,CA,95492
Quickly,1880 Mendocino Ave #E,Santa Rosa,CA,95401
Landmark Vineyards,101 Adobe Canyon Rd,Kenwood,CA,95452
Charlie's BBQ,702 Bennett Valley Rd,Santa Rosa,CA,95404
Muir's Tea Room,330 S Main St,Sebastopol,CA,95472
Lala's Creamery dba Lavender Creek Inc,134 N Petaluma Blvd,Petaluma,CA,94952
Sonoma Coast Vineyards,555 S Highway 1,Bodega Bay,CA,94923
Edge Restaurant,139 E Napa St,Sonoma,CA,95476
Cibo Rustico Pizzeria / Juice on the Square,1305 Cleveland Ave Ste B & C,Santa Rosa,CA,95401
Tisza Bistro & Bar,8757 Old Redwood Hwy,Windsor,CA,95492
Lucy's Lounge and Grill,20391 Highway 116,Monte Rio,CA,95462
Chilepies Baking Co,16290 Main St,Guerneville,CA,95446
Mario and Johns Tavern,428 E D St,Petaluma,CA,94952
Starstruck Nutrition,1620 Mendocino Ave Ste B,Santa Rosa,CA,95401
B & B Lounge,1239 Healdsburg Ave,Healdsburg,CA,95448
Fern Grove Cottages,16650 Highway 116,Guerneville,CA,95446
DBA:  Jamison's Roaring Donkey  Notato LLC,146 Kentucky St,Petaluma,CA,94952
Dulceria Las Tapatias,1630 Sebastopol Rd #101,Santa Rosa,CA,95407
Red Lobster Hospitality LLC,6440 Redwood Dr,Rohnert Park,CA,94928
RSB Vineyards LLC    DBA: Uptick Vineyards & Winery,779 Westside Rd,Healdsburg,CA,95448
Sonoma West Medical Center,501 Petaluma Ave,Sebastopol,CA,95472
Super Chavez Market,1480 Guerneville Rd,Santa Rosa,CA,95403
Pieology Pizzeria,2280 Mendocino Ave Ste B3B,Santa Rosa,CA,95403
Tripart Management dba Five Guys Burgers & Fries,401 Kenilworth Ave,Petaluma,CA,94952
Cloverdale Market,421 S Cloverdale Blvd Ste H,Cloverdale,CA,95425
Bottle Barn,3331 Industrial Dr Ste A,Santa Rosa,CA,95403
JHHD Corporation DBA: MD Gas & Food #13,15190 River Rd,Guerneville,CA,95446
Taqueria Hernandez,2995 Wiljan Ct,Santa Rosa,CA,95407
El Barrio,16230 Main St,Guerneville,CA,95446
Yeti Restaurant,190 Farmers Ln,Santa Rosa,CA,95405
Five Guys Burgers and Fries,2280 Mendocino Ave Ste B5,Santa Rosa,CA,95403
Three Twins Ice Cream,419 1st St,Petaluma,CA,94952
El Paso Bakery,8282 Old Redwood Hwy,Cotati,CA,94931
Paul Mathew Company,9060 Graton Rd,Graton,CA,95444
Wilibees,700 3rd St,Santa Rosa,CA,95401
Epicurean Escape Catering / Three Leaves Foods,2484 W 3rd St,Santa Rosa,CA,95401
Jimmy John's,2064 Santa Rosa Ave,Santa Rosa,CA,95407
Trading Post Market & Bakery,102 S Cloverdale Blvd,Cloverdale,CA,95425
Wine Country Chocolates #2,414 E 1st St,Sonoma,CA,95476
Villa Chanticleer,900 Chanticleer Way,Healdsburg,CA,95448
Round Table Pizza/California RT Pizza Group,40 Raley's Towne Center,Rohnert Park,CA,94928
Petaluma Grocery Outlet,80 E Washington,Petaluma,CA,94952
Picazo Cafe Food Truck,19100 Arnold Dr #A,Sonoma,CA,95476
Williams Sonoma #6069,605 Broadway,Sonoma,CA,95476
"Shuckery, The",100 Washington St,Petaluma,CA,94952
Ektimo Wines LLC,4950 Ross Rd,Sebastopol,CA,95472
Holy Roast Cafe LLC,490 Mendocino Ave #107,Santa Rosa,CA,95401
"Golden Gate Bell, LLC Taco Bell #30938",1700 E Cotati Ave,Rohnert Park,CA,94928
Los Magos #2 L# 3Z45225,2995 Wiljan Ct,Santa Rosa,CA,95407
Sonoma Valley Fruit Basket #2,18474 Sonoma Hwy,Sonoma,CA,95476
Coffee & Coco,195 W Napa,Sonoma,CA,95476
Sonoma Valley Fruit Basket #1,24101 Arnold Dr,Sonoma,CA,95474
Yireh Sushi,3800 Sebastopol Rd,Santa Rosa,CA,95407
"Starling, The",19380 Highway 12,Sonoma,CA,95476
Fundemonium,579 W Rohnert Park Expy,Rohnert Park,CA,94928
Anna's Seafood,1370 Redwood Way Ste A,Petaluma,CA,95495
Mission Valero,4501 Sonoma Hwy,Santa Rosa,CA,95409
Picks Drive In,117 S Cloverdale Blvd,Cloverdale,CA,95425
"Golden Gate Bell, LLC Taco Bell #30934",1835 Mendocino Ave,Santa Rosa,CA,95401
Wicked Slush,13840 Healdsburg Ave,Healdsburg,CA,95448
Lolas Market Cart,1680 Petaluma Hill Rd,Santa Rosa,CA,95404
OSO Restaurant Group LLC,9 E Napa St,Sonoma,CA,95476
Flavors Unlimited,16450 Main St,Guerneville,CA,95446
Tropical Treats,4323 Montgomery Dr,Santa Rosa,CA,95405
Ronnie's,1460 E Cotati Ave,Rohnert Park,CA,94928
Santa Rosa Junior College Phi Theta Kappa,1501 Mendcino Ave,Santa Rosa,CA,95401
Delicias Adys,5256 Aero Dr #4,Santa Rosa,CA,95403
Edible Arrangements,401 Kenilworth Dr Ste 950,Petaluma,CA,94954
AFC Sushi @ Raley's #337,100 Raley's Town Ctr,Rohnert Park,CA,94928
Momo,385 Aviation Blvd #A,Santa Rosa,CA,95403
An Inn 2 Remember,171 W Spain St,Sonoma,CA,95476
Kin Smoke,304 Center St,Healdsburg,CA,95448
Bosphorus Baklova,1301 Maurice Ave,Rohnert Park,CA,94928
NMSO Inc.,7898 Old Redwood Hwy,Cotati,CA,94931
Emily's Kitchen,709 Village Ct,Santa Rosa,CA,95405
Brew,555 Healdsburg Ave,Santa Rosa,CA,95401
Estero Cafe,PO Box 337,Valley Ford,CA,94972
3 Alarm Grill,16218 Main St,Guerneville,CA,95446
Plank Coffee Roasting,817 N Cloverdale Blvd,Cloverdale,CA,95425
Sauced BBQ & Spirits Petaluma,151 S Petaluma Blvd Ste 129,Petaluma,CA,94952
Adel's,200 Dry Creek Rd,Healdsburg,CA,95448
Vineyard Post Acute,101 Monroe St,Petaluma,CA,94954
Hsieh's LLC dba Royal China,3080 Marlow Rd Ste A4,Santa Rosa,CA,95403
China Wok,1460 E Cotati Ave Ste C,Rohnert Park,CA,94928
"Cloverdale Ale Brewing Company, LLC",131 E 1st St,Cloverdale,CA,95425
Sonoma Grille,165 W Napa St,Sonoma,CA,95476
Kistler Vineyards,7095 Trenton- Healdsburg Rd,Forestville,CA,95492
Mary's Pizza Shack,423 N McDowell Blvd,Petaluma,CA,94954
Honeymoon Frozen Yogurt,7108 Bodega Ave,Sebastopol,CA,95472
Caffe Giostra,1390 N McDowell Blvd,Petaluma,CA,94954
Taqueria Mendoza,1940 Piner Rd Ste 50,Santa Rosa,CA,95403
Asian Food Market,3080 Marlow Rd Ste A13,Santa Rosa,CA,95403
Flagship Taproom,8099 La Plaza Ste B,Cotati,CA,94931
Santa Nella House Bed & Breakfast,12130 Highway 116,Guerneville,CA,95446
Croques & Toques LLC,3695 N Petaluma Blvd,Petaluma,CA,94952
Gregory Clark dba Annie O's,120 5th St,Santa Rosa,CA,95401
Caribbean Spices,1241 Andersen Dr #M,San Rafael,CA,94901
The Cook and the Drummer,3730 Bohemian Hwy,Occidental,CA,94565
Figone's of California,483 W 1st St,Sonoma,CA,95476
Eatin Street MFF,2995 Wiljan Ct,Santa Rosa,CA,95407
El Roy's Mexican Grill Inc.,210 Edith St,Petaluma,CA,94952
Petaluma National Little League,705 Webster St,Petaluma,CA,94952
Nopalito,1905 Bodega Ave,Petaluma,CA,94952
Valette,344 Center St,Healdsburg,CA,95448
Sushi Shoubu  L#56819T1,2995 Wiljan Ct,Santa Rosa,CA,95407
Porter Cafe,808 Donahue St,Santa Rosa,CA,95401
Ginger Thai,234 S Main St,Sebastopol,CA,95472
Carneros Brewing Company,22985 Burndale Rd,Sonoma,CA,95476
"County Bench Kitchen & Bar, The",535 4th St,Santa Rosa,CA,95401
La Crema Estate,3575 Slusser Rd,Windsor,CA,95492
Rebounderz Rohnert Park,555 Rohnert Park Expy Ste C,Rohnert Park,CA,94928
Home Made Tortillas Restaurant,2770 Stony Point Rd #I-J,Santa Rosa,CA,95407
Victor Hill Tasting Room,109 E Napa St,Sonoma,CA,95476
Oxford Suites Sonoma,67 W Golf Course Dr,Rohnert Park,CA,94928
Popeye's Louisiana Kitchen,950 Stony Point Rd,Santa Rosa,CA,95407
Johnny's Java,8492 Highway 116 Ste A,Cotati,CA,94931
Sonoma Spice Queen,407 C St,Petaluma,CA,94952
Timber Cove Inn,21780 Highway 1,Jenner,CA,95450
Cottage Inn & Spa,310 E 1st St,Sonoma,CA,95476
Mi Tierra Restaurant,3262 Airway Dr,Santa Rosa,CA,95403
Super Taco,2995 Wiljan Ct,Santa Rosa,CA,95407
Tuesday Morning #1166,2720 Santa Rosa Ave,Santa Rosa,CA,95407
Bright Bear Bakery,2620 Lakeville Hwy Ste 350,Petaluma,CA,94954
3 Sisters Catering,1492 Lowell Ave,Cotati,CA,94931
Save On Market Inc dba: Quick Pick Market,201 W 7th St,Santa Rosa,CA,95402
Sonoma Traveling Brands Inc.,1500 Benicia Rd,Vallejo,CA,94591
Village Inn & Restaurant,20822 River Blvd,Monte Rio,CA,95462
Poor Man's Butter,21021 Geyserville Ave,Geyserville,CA,95441
Hyatt Vineyard Creek Hotel & Spa,170 Railroad St,Santa Rosa,CA,95401
Rojas Mexican Market #2,351 E Washington St,Petaluma,CA,94952
Retrograde Coffee Roasters,130 S Main St Ste 103,Sebastopol,CA,95472
Soban,255 N McDowell Blvd,Petaluma,CA,94954
Tuesday Morning #857,1355 N McDowell Blvd,Petaluma,CA,94954
Pattersons Pub,9057 Windsor Rd,Windsor,CA,95492
Red Bird Bakery,3279 Dutton Ave,Santa Rosa,CA,95407
Tips Tri Tip,13648 Arnold Dr,Glen Ellen,CA,95442
ThirsTe,6585 Commerce Blvd Ste H,Rohnert Park,CA,94928
Vicci Moto Cafe,1340 Industrial Ave #E,Petaluma,CA,94951
Papa's Pizza Cafe,105 N Cloverdale Blvd,Cloverdale,CA,95425
JBR LLC,16241 1st St,Guerneville,CA,95446
R. Gipson Produce,500 7th St Ste D,Modesto,CA,95354
Skillets Diner,451 W Rohnert Park Expy,Rohnert Park,CA,94928
Vitamin Adventure,2350 Santa Rosa Ave #D,Santa Rosa,CA,95404
Four Forty Club,434 College Ave,Santa Rosa,CA,95401
Brookdale Fountaingrove,300 Fountaingrove Pky,Santa Rosa,CA,95403
Round Table Pizza,775 S Gravenstein Hwy,Sebastopol,CA,94572
Charley's Deli,601 S Petaluma Blvd,Petaluma,CA,94952
Hartford Family Winery Tasting Room,331 Healdsburg Ave,Healdsburg,CA,95448
Char Grill LLC  dba: Char Burger Grill,2106 Santa Rosa Plz,Santa Rosa,CA,95401
Sonoma Crust LLC,1040 N Dutton Ave Ste A,Santa Rosa,CA,95401
Pangloss Cellars,35 E Napa St,Sonoma,CA,95442
Cotati Coffee Company,8225 Old Redwood Hwy,Cotati,CA,94931
"Living Room, The",1207 Cleveland Ave,Santa Rosa,CA,95401
M&A Napa Valley LLC  dba: Cousins Maine Lobster,912 Enterprise Way #C,Napa,CA,94558
Tradewinds,8210 Old Redwood Hwy,Cotati,CA,94931
Bariadelli,3320 Coffey Ln,Santa Rosa,CA,95403
Fantasy Bakery,3952 Sebastopol Rd #152,Santa Rosa,CA,95407
Sweet Scoops Homemade Ice Cream,408 E 1st St,Sonoma,CA,95476
Taqueria Molcajetes LLC,1195 W College Ave,Santa Rosa,CA,95401
Sinful Fusion,702 Bennett Valley Rd,Santa Rosa,CA,95404
Kids Party Central,327 Ohair Ct,Santa Rosa,CA,95407
Hazel,3782 Bohemian Hwy,Occidental,CA,95465
Russian House #1,9960 Highway 1,Jenner,CA,95450
Wild West Ferments Inc,304 Bodega Ave,Petaluma,CA,94954
NBR Tomatina Santa Rosa LLC,2323 Sonoma Ave,Santa Rosa,CA,95405
Rio Villa Beach Resort,20292 Highway 116,Monte Rio,CA,95462
Casa Azul,600 Larkfield Ctr,Santa Rosa,CA,95403
Bills Market #9,865 N Gravenstein Hwy,Sebastopol,CA,95472
Brasil BBQ,5306 Old Redwood Hwy Ste A,Petaluma,CA,94954
Arco - KJ Walia LLC,1010 4th St,Santa Rosa,CA,95404
Ramen Gaijin,6948 Sebastopol Ave,Sebastopol,CA,95472
Handline Restaurant,935 S Gravenstein Hwy,Sebastopol,CA,95472
Delhi Belly,522 Broadway,Sonoma,CA,95476
Brewster's Beer Garden,229 N Water St,Petaluma,CA,94952
Cochon Volant BBQ,18350 Sonoma Hwy,Sonoma,CA,95476
Smart Pizza LLC  DBA: Andornos,16205 1st St,Guerneville,CA,95446
"Pharmacy, The",990 Sonoma Ave,Santa Rosa,CA,95404
Healdsburg Emporium,210 Healdsburg Ave,Healdsburg,CA,95448
"Drawing Board, The/Thirdspace Petaluma LLC",190 Kentucky St,Petaluma,CA,94952
Trattore Farms,7878 Dry Creek Rd,Geyserville,CA,95441
Sunny's Boba & More,519 4th St,Santa Rosa,CA,95404
Hippizzazz,280 Main St,Sebastopol,CA,95472
Subway Sandwiches #65436,124 Calistoga Rd #B,Santa Rosa,CA,95409
El Dorado Mexican Grill,1096 N Petaluma Blvd,Petaluma,CA,94952
Single Thread,131 North St,Healdsburg,CA,95448
Cotijas Restaurant & Deli,7981 Old Redwood Hwy Ste D,Cotati,CA,94931
Virginia Dare Restaurant,22281 Chianti Rd,Geyserville,CA,95441
Guiso Latin Fusion,117 North St,Healdsburg,CA,95448
Vintage Wine Estates dba BR Cohn Winery,15000 Sonoma Hwy,Glen Ellen,CA,95442
Cotati Gas Mart,8505 S Gravenstein Hwy,Cotati,CA,94931
St Philip Catholic Church Hall,3730 Bohemian Hwy,Occidental,CA,95465
Superburger,7981 Old Redwood Hwy Ste A,Cotati,CA,94931
First Samoan Cong. Church,1255 Fulton Rd,Santa Rosa,CA,95401
La Perla Tapatia Restaurant,1709 Santa Rosa Ave,Santa Rosa,CA,95404
Thai River,35 E Washington St Ste A,Petaluma,CA,94952
Blue Rock Vineyard LLC,24509 Rich Ranch Rd,Cloverdale,CA,95425
Memorial Beach Market LLC,28 Healdsburg Ave,Healdsburg,CA,95448
E & J Gallo Winery / Chateau Souverain,26150 Asti Rd,Cloverdale,CA,95425
Tasca Tasca,122 W Napa St,Sonoma,CA,95476
Colonial Energy CE 10101,3825 Santa Rosa Ave,Santa Rosa,CA,95407
Colonial Energy CE 10102,1300 Farmers Ln,Santa Rosa,CA,95405
Diana's Mexican Restaurant,8430 Old Redwood Hwy,Windsor,CA,95492
My Goods Market #5426,8510 Highway 116,Cotati,CA,94931
Barber Cellars,112 Washington St,Petaluma,CA,94952
"8 Dragons Restaurant, LLC",1047 Vine St,Healdsburg,CA,95448
Starbucks at Epicenter,3215 Coffey Ln,Santa Rosa,CA,95403
Treats & Toys,25373 Steelhead Blvd,Duncans Mills,CA,95430
Dahlia & Sage Community Market,115 E 2nd St,Cloverdale,CA,95425
Bibi's Burger Bar,630 3rd St,Santa Rosa,CA,95404
Thuan Phat Vietnamese Sandwich,3020 Santa Rosa Ave Ste H,Santa Rosa,CA,95407
Basilico Cucina Italiana,4776 Sonoma Hwy,Santa Rosa,CA,95409
Made Local Marketplace,529 4th St,Santa Rosa,CA,95404
Breazeales Family Ravioli,702 Bennett Valley Rd,Santa Rosa,CA,95404
"Whole Pie, The",2792 4th St,Santa Rosa,CA,95405
Chick-fil-A at Mendocino Ave,1452 Mendocino Ave,Santa Rosa,CA,95401
AFC Sushi @Safeway #950,16405 River Rd,Guerneville,CA,95446
"SHED ANNEX, THE",115 W North St,Healdsburg,CA,95448
"Longboard Vineyards, LLC",5 Fitch St,Healdsburg,CA,95448
Fuel Catering Co LLC,501 Lakeville St # C,Petaluma,CA,94952
Black Pig Meat Co,6770 McKinley St #150,Sebastopol,CA,95472
Velascos Catering,501 Lakeville Hwy Ste C,Petaluma,CA,94952
Duke's,111 Plaza St,Healdsburg,CA,95448
"707 Brewing Company LLC, dba Grav South Brew Co",7950 Redwod Dr Ste 15/16,Cotati,CA,94931
"Spirit Works Distillery, LLC",6790 Mckinley St #100,Sebastopol,CA,95472
"Spicy Vines, LLC",441 Healdsburg Ave,Healdsburg,CA,95448
Quinua Restaurant Cocina Peruana,500 S Petaluma Blvd,Petaluma,CA,94952
Glow / Russian River Tea Room,336 Center St,Healdsburg,CA,95448
El Pollo Loco # 6144,211 N McDowell Blvd,Petaluma,CA,94954
Twin Oaks,5745 Old Redwood Hwy,Penngrove,CA,94951
BBQ Spot Catering,545 Pacific Ave,Santa Rosa,CA,95404
Flower and Bone,640 5th St,Santa Rosa,CA,95404
Carniceria Don Chava,451 Lakeville St,Petaluma,CA,94952
Santa Rosa School of Rock LLC dba Rock Star University,3410 Industrial Dr,Santa Rosa,CA,95403
Fu Zhou Chinese Restaurant,572 E Cotati Ave # A,Cotati,CA,94931
Wine Country Cafe & Deli,5855 Sonoma Hwy,Santa Rosa,CA,95409
Jessette's Kitchen dba MG Events,3695 N Petaluma Blvd,Santa Rosa,CA,94952
Dim Sum and Then Sum,702 Bennett Valley Rd,Santa Rosa,CA,95404
Super Buffet,450 Mendocino Ave,Santa Rosa,CA,95401
Sonoma Cider,44 F Mill St,Healdsburg,CA,95448
Greenacre Homes and School,1665 N Gravenstein Hwy,Sebastopol,CA,95472
Steele & Hops Public House,1901 Mendocino Ave,Santa Rosa,CA,95401
Paradise Sushi,119 4th St,Santa Rosa,CA,95404
Landmark - Hop Kiln,6050 Westside Rd,Healdsburg,CA,95448
Spread Catering Co.,400 W Spain St,Sonoma,CA,95476
Taco Bell #031743,1194 S Cloverdale Blvd,Cloverdale,CA,95425
Alfredo's Italian Restaurant,1426 E Washington St,Petaluma,CA,94954
"Gourmet Au Bay, Inc",1412 Bay Flat Rd,Bodega Bay,CA,94923
Maxs Pizzas,555 Sebastopol Rd #D,Santa Rosa,CA,95407
Dollar General Store #16271,465 S Cloverdale Blvd,Cloverdale,CA,95425
Starting From Scratch Cafe,400 Aviation Blvd #300,Santa Rosa,CA,95403
Cast Wines,8500 Dry Creek Rd,Geyserville,CA,95441
"Rubio's Restaurants, Inc.",441 N McDowell Blvd,Petaluma,CA,94954
Santa Rosa Country Club,333 Country Club Dr,Santa Rosa,CA,95401
Wine Country Chefs Catering,1021 Hahman Dr,Santa Rosa,CA,95405
Windsor Superburger,9238 Old Redwood Hwy #126,Windsor,CA,95492
Larson Family Winery,23355 Millerick Rd,Sonoma,CA,95476
Mapi's Cakes,3308 Industrial Dr,Santa Rosa,CA,95403
Sarah's Eats and Sweets,1410 S McDowell Blvd Ste D,Petaluma,CA,94954
Sonoma Coast Villa,16702 Highway 1,Bodega,CA,94922
Famous Jonnys,276 E Napa Rd,Sonoma,CA,95476
Steve Ryan Catering,900 Chanticleer Way,Healdsburg,CA,95448
"Nugget Market, Inc dba Sonoma Market",500 W Napa St Ste 550,Sonoma,CA,95476
Bump City Bakery,122 American Alley Ste B,Petaluma,CA,94952
Genji,1181 Yulupa Ave,Santa Rosa,CA,95405
Fruity Moto,250 Sebastopol Rd,Santa Rosa,CA,95407
AFC Sushi @ Oliver's #4,9230 Old Redwood Hwy,Windsor,CA,95492
J Squared Catering,399 Business Park Ct Ste 311,Windsor,CA,95492
Ginochios Kitchen,1410 Bay Flat Rd,Bodega Bay,CA,94923
2 Tread Brewing Company,1018 Santa Rosa Plz,Santa Rosa,CA,95404
Artisan Baking Center,1120 Holm Rd,Petaluma,CA,94954
Jinglebells LLC dba Taco Bell,860 N Gravenstein Hwy,Sebastopol,CA,95472
"Girl & The Fig Caters, The",21800 Schelleville Rd #C,Sonoma,CA,95473
Fantasy Restaurant LLC,1520 E Washington St,Petaluma,CA,94952
Rack & Riddle dba Breathless Wines,499 Moore Ln,Healdsburg,CA,95448
Apna Bazaar,7500 Commerce Blvd Ste B,Cotati,CA,94931
Shuffles Magical Ice Cream Shoppe,123 4th St,Santa Rosa,CA,95401
"Nugget Market, Inc. dba Glen Ellen Village Market",13751 Arnold Dr,Glen Ellen,CA,95442-0366
Salsa Zone,821 Russell Ave Ste L,Santa Rosa,CA,95403
JM Rosen Cheesecake,256 N Petaluma Blvd,Petaluma,CA,94952
Cancun Mexican Restaurant,443 Dutton Ave #9,Santa Rosa,CA,95407
Salkhi Family Holdings Inc,101 N McDowell Blvd,Petaluma,CA,94954
Twofish Baking Co LLC,32000 Highway 1,Stewarts Point,CA,95480
Mutt Lynch Winery,9050 Windsor Rd,Windsor,CA,95492
Cuvee Wine Country Events,3935 Sebastopol Rd,Santa Rosa,CA,95407
Mai Thai Kitchen,3695 N Petaluma Blvd,Petaluma,CA,94952
Food For Thought,6550 Railroad Ave,Forestville,CA,95465
Sukhothai The BBQ Plus,7233 Healdsburg Ave,Sebastopol,CA,95472-3319
O! Sushi,1390 McDowell Blvd Ste B1,Petaluma,CA,94954
Goguette Bread,59 Montgomery Dr,Santa Rosa,CA,95404
"Dutch Bros, LLC",711 Broadway,Sonoma,CA,95476
Local Barrel,490 Mendocino Ave Ste 104,Santa Rosa,CA,95401
McDonald's,2642 Santa Rosa Ave,Santa Rosa,CA,95407
Chick-fil-A Rohnert Park,5080 Redwood Dr,Rohnert Park,CA,94928
Tacos Jalisco,897 W Napa St,Sonoma,CA,95476
Janesco Enterprises Inc dba  McDonalds,1264 Mendocino Ave,Santa Rosa,CA,95401
Chacho's Catering,9010 Graton Rd,Graton,CA,95444
"Farmhand, The",15025 River Rd,Guerneville,CA,95446
Tacos El Pelon,3448 Santa Rosa Ave,Santa Rosa,CA,95407
Jenner Sea Gifts & Wines,10439 Highway 1 Ste A,Jenner,CA,95450
Best of Burma 2 Burmese Cuisine,528 7th St,Santa Rosa,CA,94501
Savory Spice Shop,317 D St,Santa Rosa,CA,95404
"Brass Rabbit, The",109 Plaza St,Healdsburg,CA,95448
Larkfield Union 76,4605 Old Redwood Hwy,Santa Rosa,CA,95403
Sakura Bistro,799 S Gravenstein Hwy,Sebastopol,CA,95472
Grocery Outlet Bargain Market,111 Treadway Dr,Cloverdale,CA,95425
Pohleys Market,341 Windsor River Rd,Windsor,CA,94592
Jenner Inn,10400 Highway 1,Jenner,CA,95450
Trail House,4036 Montgomery Dr,Santa Rosa,CA,95405
"Geographers Kitchen, The",399 Business Park Ct Ste 312,Windsor,CA,95492
Walia's Valero,910 Baywood Dr,Petaluma,CA,94954
Harvest,5 S Petaluma Blvd Ste D,Petaluma,CA,94952
Which Cheese,3695 N Petaluma Blvd,Petaluma,CA,94958
Looking Glass,332 Healdsburg Ave,Healdsburg,CA,95448
"Ima Cake Couture, LLC",463 Sebastopol Ave,Santa Rosa,CA,95401
Janesco Enterprises Inc dba McDonalds,2521 Guerneville Rd,Santa Rosa,CA,95401
"Bubblecup Shop, The",1940 Piner Rd Ste 400,Santa Rosa,CA,95401
Sake 107 / Tsudoi Corporation,107 N Petaluma Blvd,Petaluma,CA,94952
Dempsey's Restaurant and Brewery,50 E Washington St,Petaluma,CA,94952
Sandman Motel Breakfast Room,3421 Cleveland Ave,Santa Rosa,CA,95403
Port of Subs #68,350 Raleys Towne Ctr,Rohnert Park,CA,94928
"CBC Cafe, The",23 Kentucky St,Petaluma,CA,94952
Namaste Kitchen,7225 Healdsburg Ave,Sebastopol,CA,95472
Sonoma Baskin Robbins,201 W Napa St #6,Sonoma,CA,95476
Michael Bryant,3308 Industrial Dr,Santa Rosa,CA,95403
Grandmas Candy,52 W Barham Rd,Santa Rosa,CA,95407
Mekong Seafood Market Inc,206 Sebastopol Rd,Santa Rosa,CA,95407
City Garden Doughnuts & Coffee,1200 4th St,Santa Rosa,CA,95404
La Bodeguita Mexican Grill #2,16380 Mill St #B,Guerneville,CA,95446
Perch & Plow,90 Old Courthouse Sq 2nd Fl,Santa Rosa,CA,95406
Lambert Bridge Winery,4085 W Dry Creek Rd,Healdsburg,CA,95448
MaK's Deli,101 E Cotati Ave,Cotati,CA,94931
Quik Stop Market #6118,990 Grove St,Sonoma,CA,95476
Crocodile,140 2nd St,Petaluma,CA,94952
Taylor Maid Farms,6790 McKinley St #170,Sebastopol,CA,95472
Bodega Bay Seafood Co,1820 Westshore Rd,Bodega Bay,CA,94923
K R Catering Inc,250 Kennedy Ln,Healdsburg,CA,95448
Smokin' Bowls,295 Southwest Blvd,Rohnert Park,CA,94928
Summerfield Waldorf School & Farm,655 Willowside Rd,Santa Rosa,CA,95403
Tea ba Tea,5280 Aero Dr,Santa Rosa,CA,95403
Kona Ice of North Marin,1385 N Hamilton Pky,Novato,CA,94949
Safeway #2457,1211 W College Ave,Santa Rosa,CA,95401
Foley Sonoma,5110 Highway 128,Geyserville,CA,95441
Down to Earth Cafe & Deli,8204 Old Redwood Hwy,Cotati,CA,94931
Produce Delaluz,52 W Barham Rd,Santa Rosa,CA,95407
Cheese Shop,14 Matheson St,Healdsburg,CA,95448
Chicken Pharm,132 Keller St,Petaluma,CA,94952
Oui Cater LLC,149 Healdsburg Ave,Healdsburg,CA,95448
Smart & Final Stores LLC,465 N McDowell Blvd,Petaluma,CA,94954
Wood Lim Inc dba: Carrs Drive in,6533 Covey Rd,Forestville,CA,6213
Hopper Market,1020 Hopper Ave,Santa Rosa,CA,95403
Mariscos La Jaiba,1099 Sebastopol Rd,Santa Rosa,CA,95407
What a Chicken!!,706 E Washington St,Petaluma,CA,94952
Bowl & Roll,1331 Guerneville Rd Ste Q,Santa Rosa,CA,95403
Doubletree by Hilton Sonoma Wine Country,1 Doubletree Dr,Rohnert Park,CA,94928
Sigh.,120 W Napa St,Sonoma,CA,95476
Hot Diggity Dog,431-B Payran St,Petaluma,CA,94952
Safeway #2456,701 Sonoma Mountain Pky,Petaluma,CA,94954
Giovanni's Deli,173 N Pleasant Hill Ave,Sebastopol,CA,95472
Sahni Fueling Inc.,5060 Redwood Dr,Rohnert Park,CA,94928
Thumbs Up Burger & Deli,8465 Old Redwood Hwy Ste 300,Windsor,CA,95492
Tacos El Jr,545 Pacific Ave,Santa Rosa,CA,95404
Synergy Health Club,1201 Redwood Way,Petaluma,CA,94954
Epicenter Sports and Entertainment,3215 Coffey Ln,Santa Rosa,CA,95403
Santa Rosa City Schools CTE Culinary Program,211 Ridgway Ave,Santa Rosa,CA,95401
Idlewild Wines,132 Plaza St,Healdsburg,CA,95448
Chef Pete Coleman,8492 Gravenstein Hwy Ste O,Cotati,CA,94931-4106
Tacos La Bamba,2995 Wiljan Ct,Santa Rosa,CA,95407
Me Spa Montgomery LLC,728 Farmers Ln,Santa Rosa,CA,95405
"Rohnert Park Golf, LP dba Foxtail Golf Club, Fairview Sonoma County",100 Golf Course Dr,Rohnert Park,CA,94928
Red Bee BBQ,8970 S Brooks Rd,Windsor,CA,95492
Martha's Old Mexico Restaurant,305 N Main St,Sebastopol,CA,95472
Anello Family Crab & Seafood,3308 Industrial Dr # 1,Santa Rosa,CA,95403
Wolf House,13740 Arnold Dr,Glen Ellen,CA,95442
Confluence Taproom LLC,4357 Montgomery Dr Ste B,Santa Rosa,CA,95405
The Rhone Room by the Girl and the Fig,20816 Broadway,Sonoma,CA,95476
Mi Ranchito Mexican Cuisine,90 Mark West Springs Rd Ste 160,Santa Rosa,CA,95403
Dollar Tree,1351 N McDowell Blvd,Petaluma,CA,94954
Tiny Town,6544 Front St,Sebastopol,CA,95436
T4 Tea 4 You Poke,2280 Mendocino Ave Ste B-3C,Santa Rosa,CA,95403
Faizan Corporation Chevron,2225 Cleveland Ave,Santa Rosa,CA,95403
Jalapeo Mexican Grill,2995 Wiljan Ct,Santa Rosa,CA,95407
Sonoma County Catering Company,3328 Yulupa Ave,Santa Rosa,CA,95405
Gravenstein Grill,8050 Bodega Ave,Sebastopol,CA,95472
Deli By Sazon,1117 Sebastopol Rd,Santa Rosa,CA,95407
Qimura Japanese Teishoku Restaurant,8960 S Brooks Rd,Windsor,CA,95492
Plaza Cafe,150 Weeks Way,Sebastopol,CA,94572
Sams Market #14,10651 River Rd,Forestville,CA,95436
Luduka's Cafe,7285 Snyder Ln Ste A,Rohnert Park,CA,94928
Sonoma Academy,2500 Farmers Ln,Santa Rosa,CA,95404
Papa Murphy's Pizza,7231 Healdsburg Ave Ste A,Sebastopol,CA,95472
Jam's Joy Bungalow,1100 Valley House Dr,Rohnert Park,CA,94928
Mod Pizza,2695 Santa Rosa Ave,Santa Rosa,CA,95407
Murphy's Irish Pub,464 1st St Ste C&D,Sonoma,CA,95476
Tipsy Taco Cantina,505 Mendocino Ave,Santa Rosa,CA,95404
Lala's Jam Bar,720 E Washington St,Petaluma,CA,94952
Grove Cafe,3033 Cleveland Ave 1st Floor,Santa Rosa,CA,95403
Sonoma Post Acute,678 W 2nd St,Sonoma,CA,95476
Tips Roadside Kenwood LLC,8445 Highway 12,Kenwood,CA,95452
Lunchette,25 4th St,Petaluma,CA,94952
Beer Baron,614 4th St,Santa Rosa,CA,95404
Nitro BBQ,545 Pacific Ave,Santa Rosa,CA,95404
Taylor Maid Organic Coffee,617 E Washington St,Petaluma,CA,91952
Chicagos Pizza With A Twist,2780 Stony Point Rd #M,Santa Rosa,CA,95407
Shiva D Cali 1 Inc dba Dunkin Donuts,435 N McDowell Blvd Ste 50,Petaluma,CA,94954
Russian River Wienery,20488 Highway 116,Monte Rio,CA,95462
Miso Good Ramen,507 4th St,Santa Rosa,CA,95404
Incavo,100 Petaluma Blvd # 103,Petaluma,CA,94952
Chloe's French Catering Co,8499 Old Redwood Hwy Ste 114,Windsor,CA,95492
Scoop of Sonoma,6544 Front St #B,Forestville,CA,95436
River Belle Inn,68 Front St,Healdsburg,CA,95448
"Hagd Partners, LLC dba Kenwood Inn & Spa",10400 Sonoma Hwy,Kenwood,CA,95452
"Filly, Inc. dba Balance Petaluma",701 Sonoma Mountain Pky Ste C-13,Petaluma,CA,94954
Blue Fish Sushi & Grill,2700 Yulupa Ave # 23,Santa Rosa,CA,95405
Maxon Blake's LLC dba Chili Joe's,312 S Petaluma Blvd,Petaluma,CA,94952
Lot 88 Restaurant and Bar,8988 S Brooks Rd,Windsor,CA,95492
Golden Bun,490 Mendocino Ave Ste 106,Santa Rosa,CA,95404
Grande Coffee Bar,1360 Broadway Ave,Sonoma,CA,95476
Cherry Valley School Mary Collins,1001 Cherry St,Petaluma,CA,94954
Moustache Baked Goods,399 Business Park Ct Ste 203,Windsor,CA,95492
Kitaru,212 Western Ave,Petaluma,CA,94952
Gaige House,13540 Arnold Dr,Glen Ellen,CA,95442
Sports Basement,1970 Santa Rosa Ave,Santa Rosa,CA,95407
Taqueria Mila,100 Burt St Ste N,Santa Rosa,CA,95407
Hare & Hatter LLC,414 E 1st St Ste B,Sonoma,CA,95476
Los Reyes Market,177 Southwest Blvd,Rohnert Park,CA,94928
Wing Stop Kingwing Inc,6500 Hembree Ln Ste 205,Windsor,CA,95492
Barrio Cocina Mexicana,6760 Mckinley St #140,Sebastopol,CA,94954
"M Cloverdale, Inc.",1149 S Cloverdale Blvd,Cloverdale,CA,95425
"Animal House 160, LLC",160 N Petaluma Blvd,Petaluma,CA,94952
Starbucks Coffee Company,5065 Redwood Dr,Rohnert Park,CA,94928
Subway Store #42669,2770 Stony Point Rd,Santa Rosa,CA,95407
Wine Country Feasts,399 Business Park Ct Ste 311,Windsor,CA,95492
M Windsor Inc dba: Mcdonalds,125 Windsor River Rd,Windsor,CA,95492
Taqueria California,750 Stony Point Rd A-155,Santa Rosa,CA,95407
Zest Cuisine To You,501 Lakeville St Ste C,Petaluma,CA,94954
Cascabel,909 Village Ct,Santa Rosa,CA,95405
Gus' Cafe and Grill LLC,722 Village Ct,Santa Rosa,CA,95405
"Nectary, The",312 Center St,Healdsburg,CA,95448
Moe's Eagles Nest Deli,113 N Cloverdale Blvd,Cloverdale,CA,95425
Dulceria Pepito,2101 W College Ave 104D,Santa Rosa,CA,95401
Otoro Sushi,1280 Healdsburg Ave Ste 101,Healdsburg,CA,95448
The Frizzled Shallot,2995 Wiljan Ct,Santa Rosa,CA,95407
Local Harvest LLC dba Penngrove Market,10070 Main St,Penngrove,CA,94951
Tortas Gigantes Metro Balderas #2,644 1st St Bldg B,Napa,CA,94559
Thai Spice,1123 S Cloverdale Blvd Ste A,Cloverdale,CA,95425
Sees Candies Lakewood Village,9028 S Brooks Rd,Windsor,CA,95492
River Front Cafe,224 B St,Petaluma,CA,94952
"Kristina Daya, Private Chef dba Mazza Catering",90 Mountain View Ave,Santa Rosa,CA,95407
Cape Fear Cafe,25191 Main St,Duncans Mills,CA,95430
Ice Cream Express,625 Sebastopol Rd #B,Santa Rosa,CA,95407
Del Valle Mexican Restaurant,2000 Sebastopol Rd,Santa Rosa,CA,95407
H & S Energy LLC,1440 E Washington St,Petaluma,CA,94954
Little FIG LLC,10007 Main St,Penngrove,CA,94951
Ippinn Udon & Tempura,1880 Mendocino Ave #D,Santa Rosa,CA,95401
Tamales Mi Casita Oaxaquea,5503 Old Redwood Hwy,Santa Rosa,CA,95403
The Laugh Cellar,5755 Mountain Hawk Dr #102,Santa Rosa,CA,95409
Kawa Ramen,175 N McDowell Blvd,Petaluma,CA,94954
Gebrez Restaurant Group Inc. dba Salt & Stone,9900 Highway 12,Kenwood,CA,95452
Graze Local Catering,3695 Petaluma Blvd,Petaluma,CA,94952
After School Arts Program (ASAP),5146 Old Redwood Hwy Room #3,Windsor,CA,95403
Autocamp,14120 Old Cazadero Rd,Guerneville,CA,95446
Otter Cafe dba Sycamore Concessions,400 Violetti Rd,Santa Rosa,CA,95405
Sonoma State University Food Pantry,1801 E Cotati Ave,Rohnert Park,CA,94928
Colores Ice Cream,443 Dutton Ave #1,Santa Rosa,CA,95407
Flavor Fiesta,8499 Old Redwood Hwy Ste 108,Windsor,CA,95492
Jack in the Box,2550 Hoen Frontage Rd,Santa Rosa,CA,95405
Wing Man,8492 Gravenstein Hwy Ste O,Cotati,CA,94931
Hip Chick Farms The Kitchen,124 S Main St,Sebastopol,CA,95472
Morton's Warm Springs,1651 Warm Springs Rd,Glen Ellen,CA,95442
Les Pascals LLC,13758 Arnold Dr,Glen Ellen,CA,95442
Dad and Sons BBQ,704 Bennett Valley Rd,Santa Rosa,CA,95404
Subway Sandwich #6048 Piner,1940 Piner Rd #100,Santa Rosa,CA,95401
Jewels of the Forest,175 N Pleasant Hill Ave,Sebastopol,CA,95472
Quikserve Enterprises Inc / Burger King #3580,6125 Commerce Blvd,Rohnert Park,CA,94928
Quikserve Enterprises Inc / Burger King #9126,8510 Highway 116,Cotati,CA,94931
Quikserve Enterprises Inc / Burger King #7766,5020 Redwood Dr,Rohnert Park,CA,94928
Quikserve Enterprises Inc / Burger King #7410,5304 N Old Redwood Hwy,Petaluma,CA,94954
Quikserve Enterprises Inc / Burger King #6099,2739 Santa Rosa Ave,Santa Rosa,CA,95407
Elephant in the Room,177 Healdsburg Ave Ste A,Healdsburg,CA,95448
NMSO Inc. #58308,300 College Ave,Santa Rosa,CA,95401
Sal's Pizzeria,8270 Old Redwood Hwy,Cotati,CA,94931
Umbria Glen Ellen,13740 Arnold Dr,Sonoma,CA,95476
Koalas Fine Food,16380 Mill St #A,Guerneville,CA,95446
Houtskool Dumplings LLC,900 Chanticleer Way,Healdsburg,CA,95448
Mi Burrito,385 Aviation Blvd #D,Santa Rosa,CA,95403
Sawmill Saloon,240 N Cloverdale Blvd Ste A,Cloverdale,CA,95425
Holy Mo's,829 Merchant St,Vacaville,CA,95688
A J Mini Mart,21079 Geyserville Ave Unit 1,Geyserville,CA,95441
MSB Enterprise LLC dba Patriot,690 S Cloverdale Blvd,Cloverdale,CA,95425
Eclipse/Baskin robbins,2700 Yulupa Ave Ste 11,Santa Rosa,CA,95405
El Huerto of Sonoma,19213 Highway 12,Sonoma,CA,95476
MacArthur Place,29 E MacArthur St,Sonoma,CA,95476
Sonoma Country Day School,4400 Day School Pl,Santa Rosa,CA,95403
Solorios Mexican Restaurant,711 Stony Point Rd #5,Santa Rosa,CA,95407
The Ranch Cafe,35590 Verdant View Way,Sea Ranch,CA,95497
Kathmandu Cafe and Grill,6761 Sebastopol Ave #600 -700,Sebastopol,CA,95472
La Chapparrita Taqueria,2101 W College Ave Ste 110 J,Santa Rosa,CA,95401
Himalayan Vegan Organic,572 E Cotati Ave,Cotati,CA,94931
Santa Rosa Junior College Petaluma,680 Sonoma Mountain Pky,Petaluma,CA,94954
7 Eleven 35064C,1194 S Cloverdale Blvd,Cloverdale,CA,95425
Viet House,966 S Gravenstein Hwy,Sebastopol,CA,95472
Anova Center for Education,1557 Healdsburg Ave,Healdsburg,CA,95448
The Farmers Daughter,200 Stony Point Rd,Petaluma,CA,94952
Juanitas Mexican Restaurant,2227 Mendocino Ave,Santa Rosa,CA,95403
Tamales Mana,1110 Petaluma Hill Rd #3,Santa Rosa,CA,95404
El Fogon Taqueria,6650 Commerce Blvd Ste 4&5,Rohnert Park,CA,94928
Spring Thai,538 E Cotati Ave,Cotati,CA,94931
red brick,101 2nd St Ste 190,Petaluma,CA,94952
The Star,6957 Sebastopol Ave,Sebastopol,CA,95472
Street Side Asian Grill LLC,2995 Wiljan Ct,Santa Rosa,CA,95407
Star Zone Liquor,3575 Industrial Dr,Santa Rosa,CA,95403
Pepes Mexican Restaurant,1510 Sebastopol Rd,Santa Rosa,CA,9540
Las Palmas Ranch,18976 Highway 12,Sonoma,CA,95476
Tacos Al Carbon,500 Sebastopol Rd #A,Santa Rosa,CA,95407
MissionKBSR Inc,52 Mission Cir Ste 111,Santa Rosa,CA,95409
Bees N Blooms,3883 Petaluma Hill Rd,Santa Rosa,CA,95404
Left Coast Latte,2001 Highway 1 #D,Bodega,CA,94923
Taqueria El Paisa #1,157 Southwest Blvd,Rohnert Park,CA,94928
Sweet Factory,2051 Santa Rosa Plaza,Santa Rosa,CA,95401
Ferns Market & Deli,20348 Highway 116,Monte Rio,CA,95462
Jacob's Restaurant,1266 Broadway,Sonoma,CA,95476
Pho Sonoma,140 2nd St Ste 120,Petaluma,CA,94952
"Pearl / Full Circle Restaurants, LLC",500 1st St,Petaluma,CA,94952
Elegant Cheese Cakes LLC,264 E 1st St,Sonoma,CA,95476
Aunt Momo's,264 E 1st St,Sonoma,CA,95476
Bowman Cellars,9010 Graton Rd,Graton,CA,95444
Barley & Hops,3688 Bohemian Hwy,Occidental,CA,95465
Liberty - 5 Baking Company,431 Payran St Ste B,Petaluma,CA,94954
Lemongrass Thai Noodle,208 N Petaluma Blvd,Petaluma,CA,94952
Skyhawk Village Commissary Kitchen,5755 Mountainhawk Way,Santa Rosa,CA,95409
Fountaingrove Golf and Athletic Club,5755 Mountainhawk Way,Santa Rosa,CA,95409
Cafe Apae Service Co.,3100 Dutton Ave Ste 132,Santa Rosa,CA,95407
Alice Tacos,157 Southwest Blvd,Rohnert Park,CA,94928
Mi Ranchito Partners Inc,19315 Sonoma Hwy,Sonoma,CA,95476
La Escondida #2,19030 Railroad Ave,Sonoma,CA,95476
Forestville Pizza,6484 Mirabel Rd,Forestville,CA,95436
Mi Yukatan Grill,1105 Bodega Ave,Petaluma,CA,94952
Mr Tromblys Table,25178 Main St,Duncans Mills,CA,95430
Extreme Pizza SA&RA Inc,3100 Lakeville Hwy Ste E,Petaluma,CA,94954
Pacific Coast Pops,200 Stony Point Rd,Petaluma,CA,94952
Homerun Pizza and Sports Bar,484 Larkfield Ctr,Santa Rosa,CA,95403
One The Cheese Steak Shop LLC,401 Kenilworth Dr Ste 930,Petaluma,CA,94954
Equality Wines,16215 Main St #4,Guerneville,CA,95446
Cafe Des Croissants (Drive Thru),450 Raley Town Ctr,Rohnert Park,CA,94928
Fabino,20822 River Blvd,Monte Rio,CA,95462
Stellas Oysters,431 Payran St,Petaluma,CA,94952
Sonoma Family Meal,1435 N McDowell Blvd,Petaluma,CA,94952
Harolds Dante Hotel Inc,133 Railroad Ave,Cloverdale,CA,95425
Raford House,10630 Wohler Rd,Healdsburg,CA,95448
Mocha Mamas Drive-Thru,355 Southwest Blvd,Rohnert Park,CA,94928
Grog Shop,2296 Santa Rosa Ave,Santa Rosa,CA,95407
Max's Tamales #1,250 Sebastopol Rd,Santa Rosa,CA,95407
Neighbors Organized Against Hunger,5443 Snyder Ln,Rohnert Park,CA,94928
AJ Estate LLC,19622 E 8th St,Sonoma,CA,95476
Daily Deals,1451 Southwest Blvd Ste 101,Rohnert Park,CA,94928
Jowo Bros Inc dba Bianchinis,1367 N McDowell Blvd # 100,Petaluma,CA,94954
Sonoma Eats Mexican Food,18307 Highway 12,Sonoma,CA,95476
The Lazy Hog,800 Petaluma Blvd,Petaluma,CA,94952
Presto Fresco,2434 W 3rd St,Santa Rosa,CA,95401
Sunflower Caffe Coffee & Baking Co. dba Honey and the Moon,720 W Napa St,Sonoma,CA,95476
Yogurtland #248,401 Kenilworth Dr Ste 540,Petaluma,CA,94952
